#T1:1780969430953
$GPRMC,014351.00,A,4617.01034,N,08753.28251,W,0.688,,090626,,,A*6A
#T1:1780969430954
$GPVTG,,T,,M,0.688,N,1.274,K,A*25
#T1:1780969430955
$GPGGA,014351.00,4617.01034,N,08753.28251,W,1,08,0.96,447.8,M,-35.0,M,,*68
#T1:1780969430955
$GPGSA,A,3,01,03,31,32,10,25,12,28,,,,,1.62,0.96,1.30*04
#T1:1780969430956
$GPGSV,3,1,12,01,26,267,24,02,14,242,09,03,35,311,40,04,01,283,*7C
#T1:1780969430956
$GPGSV,3,2,12,10,15,154,18,12,10,034,18,13,10,035,24,25,35,063,22*7C
#T1:1780969430956
$GPGSV,3,3,12,26,23,176,21,28,83,056,22,31,63,230,25,32,54,088,18*76
#T1:1780969430957
$GPGLL,4617.01034,N,08753.28251,W,014351.00,A,A*7E
#T1:1780969431700
$GPTXT,01,01,02,u-blox ag - www.u-blox.com*50
#T1:1780969431700
$GPTXT,01,01,02,HW  UBX-G70xx   00070000 FF7FFFFFo*69
#T1:1780969431701
$GPTXT,01,01,02,ROM CORE 1.00 (59842) Jun 27 2012 17:43:52*59
#T1:1780969431701
$GPTXT,01,01,02,PROTVER 14.00*1E
#T1:1780969431701
$GPTXT,01,01,02,ANTSUPERV=AC SD PDoS SR*20
#T1:1780969431701
$GPTXT,01,01,02,ANTSTATUS=OK*3B
#T1:1780969431702
$GPTXT,01,01,02,LLC FFFFFFFF-FFFFFFFF-FFFFFFFF-FFFFFFFF-FFFFFFFD*2C
#T1:1780969431940
$GPRMC,014352.00,A,4617.01068,N,08753.28257,W,0.387,,090626,,,A*6C
#T1:1780969431940
$GPVTG,,T,,M,0.387,N,0.718,K,A*21
#T1:1780969431940
$GPGGA,014352.00,4617.01068,N,08753.28257,W,1,08,0.96,449.0,M,-35.0,M,,*62
#T1:1780969431940
$GPGSA,A,3,01,03,31,32,10,25,12,28,,,,,1.62,0.96,1.30*04
#T1:1780969431941
$GPGSV,3,1,12,01,26,267,23,02,14,242,09,03,35,311,41,04,01,283,*7A
#T1:1780969431941
$GPGSV,3,2,12,10,15,154,19,12,10,034,17,13,10,035,24,25,35,063,23*73
#T1:1780969431942
$GPGSV,3,3,12,26,23,176,21,28,83,056,22,31,63,230,25,32,54,088,18*76
#T1:1780969431942
$GPGLL,4617.01068,N,08753.28257,W,014352.00,A,A*72
#T1:1780969432938
$GPRMC,014353.00,A,4617.01056,N,08753.28217,W,0.632,,090626,,,A*6F
#T1:1780969432938
$GPVTG,,T,,M,0.632,N,1.170,K,A*23
#T1:1780969432938
$GPGGA,014353.00,4617.01056,N,08753.28217,W,1,08,0.96,449.1,M,-35.0,M,,*6B
#T1:1780969432938
$GPGSA,A,3,01,03,31,32,10,25,12,28,,,,,1.62,0.96,1.30*04
#T1:1780969432938
$GPGSV,3,1,12,01,26,267,23,02,14,242,09,03,35,311,41,04,01,283,*7A
#T1:1780969432939
$GPGSV,3,2,12,10,15,154,19,12,10,034,17,13,10,035,24,25,35,063,23*73
#T1:1780969432939
$GPGSV,3,3,12,26,23,176,21,28,83,056,22,31,64,230,24,32,54,088,18*70
#T1:1780969432939
$GPGLL,4617.01056,N,08753.28217,W,014353.00,A,A*7A
#T1:1780969433923
$GPRMC,014354.00,A,4617.01046,N,08753.28205,W,0.635,,090626,,,A*6D
#T1:1780969433923
$GPVTG,,T,,M,0.635,N,1.175,K,A*21
#T1:1780969433924
$GPGGA,014354.00,4617.01046,N,08753.28205,W,1,08,0.96,448.7,M,-35.0,M,,*69
#T1:1780969433924
$GPGSA,A,3,01,03,31,32,10,25,12,28,,,,,1.62,0.96,1.30*04
#T1:1780969433924
$GPGSV,3,1,12,01,26,267,22,02,14,242,09,03,35,311,40,04,01,283,*7A
#T1:1780969433924
$GPGSV,3,2,12,10,15,154,19,12,10,034,17,13,10,035,24,25,35,063,22*72
#T1:1780969433924
$GPGSV,3,3,12,26,23,176,21,28,83,056,22,31,64,230,24,32,53,088,19*76
#T1:1780969433925
$GPGLL,4617.01046,N,08753.28205,W,014354.00,A,A*7F
#T1:1780969434923
$GPRMC,014355.00,A,4617.01025,N,08753.28206,W,0.733,,090626,,,A*6D
#T1:1780969434923
$GPVTG,,T,,M,0.733,N,1.358,K,A*2B
#T1:1780969434923
$GPGGA,014355.00,4617.01025,N,08753.28206,W,1,08,0.96,448.9,M,-35.0,M,,*60
#T1:1780969434923
$GPGSA,A,3,01,03,31,32,10,25,12,28,,,,,1.62,0.96,1.30*04
#T1:1780969434923
$GPGSV,3,1,12,01,26,267,22,02,14,242,09,03,35,311,40,04,01,283,*7A
#T1:1780969434923
$GPGSV,3,2,12,10,15,154,18,12,10,034,16,13,10,035,24,25,35,063,21*71
#T1:1780969434924
$GPGSV,3,3,12,26,23,176,21,28,83,056,22,31,64,230,23,32,53,088,19*71
#T1:1780969434924
$GPGLL,4617.01025,N,08753.28206,W,014355.00,A,A*78
#T1:1780969435914
$GPRMC,014356.00,A,4617.00983,N,08753.28232,W,0.818,,090626,,,A*6B
#T1:1780969435914
$GPVTG,,T,,M,0.818,N,1.516,K,A*21
#T1:1780969435914
$GPGGA,014356.00,4617.00983,N,08753.28232,W,1,08,0.96,449.1,M,-35.0,M,,*69
#T1:1780969435914
$GPGSA,A,3,01,03,31,32,10,25,12,28,,,,,1.62,0.96,1.30*04
#T1:1780969435914
$GPGSV,3,1,12,01,26,267,22,02,14,242,09,03,35,311,40,04,01,283,*7A
#T1:1780969435915
$GPGSV,3,2,12,10,15,154,19,12,10,034,17,13,10,035,25,25,35,063,21*70
#T1:1780969435915
$GPGSV,3,3,12,26,23,176,20,28,83,056,21,31,64,230,24,32,53,088,19*74
#T1:1780969435916
$GPGLL,4617.00983,N,08753.28232,W,014356.00,A,A*78
#T1:1780969436908
$GPRMC,014357.00,A,4617.00937,N,08753.28275,W,0.989,,090626,,,A*6F
#T1:1780969436908
$GPVTG,,T,,M,0.989,N,1.832,K,A*23
#T1:1780969436908
$GPGGA,014357.00,4617.00937,N,08753.28275,W,1,08,0.96,448.6,M,-35.0,M,,*62
#T1:1780969436908
$GPGSA,A,3,01,03,31,32,10,25,12,28,,,,,1.62,0.96,1.30*04
#T1:1780969436909
$GPGSV,3,1,12,01,26,267,23,02,14,242,09,03,35,311,40,04,01,283,*7B
#T1:1780969436909
$GPGSV,3,2,12,10,15,154,18,12,10,034,16,13,10,035,25,25,35,063,21*70
#T1:1780969436909
$GPGSV,3,3,12,26,23,176,20,28,83,056,21,31,64,230,24,32,53,088,20*7E
#T1:1780969436909
$GPGLL,4617.00937,N,08753.28275,W,014357.00,A,A*75
#T1:1780969437902
$GPRMC,014358.00,A,4617.00906,N,08753.28308,W,1.095,,090626,,,A*6C
#T1:1780969437902
$GPVTG,,T,,M,1.095,N,2.027,K,A*29
#T1:1780969437902
$GPGGA,014358.00,4617.00906,N,08753.28308,W,1,08,0.96,448.5,M,-35.0,M,,*67
#T1:1780969437902
$GPGSA,A,3,01,03,31,32,10,25,12,28,,,,,1.62,0.96,1.30*04
#T1:1780969437902
$GPGSV,3,1,12,01,26,267,21,02,14,242,09,03,35,311,40,04,01,283,*79
#T1:1780969437902
$GPGSV,3,2,12,10,15,154,18,12,10,034,16,13,10,035,25,25,35,063,21*70
#T1:1780969437903
$GPGSV,3,3,12,26,23,176,20,28,83,056,21,31,64,230,23,32,53,088,20*79
#T1:1780969437903
$GPGLL,4617.00906,N,08753.28308,W,014358.00,A,A*73
#T1:1780969438895
$GPRMC,014359.00,A,4617.00894,N,08753.28354,W,1.106,,090626,,,A*65
#T1:1780969438895
$GPVTG,,T,,M,1.106,N,2.048,K,A*2B
#T1:1780969438895
$GPGGA,014359.00,4617.00894,N,08753.28354,W,1,08,0.96,448.8,M,-35.0,M,,*68
#T1:1780969438895
$GPGSA,A,3,01,03,31,32,10,25,12,28,,,,,1.62,0.96,1.30*04
#T1:1780969438897
$GPGSV,3,1,12,01,26,267,22,02,14,242,09,03,35,311,40,04,01,283,*7A
#T1:1780969438897
$GPGSV,3,2,12,10,15,154,18,12,10,034,15,13,10,035,25,25,35,063,21*73
#T1:1780969438897
$GPGSV,3,3,12,26,23,176,20,28,83,056,21,31,64,230,23,32,53,088,20*79
#T1:1780969438897
$GPGLL,4617.00894,N,08753.28354,W,014359.00,A,A*71
#T1:1780969439889
$GPRMC,014400.00,A,4617.00871,N,08753.28387,W,1.034,,090626,,,A*6B
#T1:1780969439889
$GPVTG,,T,,M,1.034,N,1.914,K,A*28
#T1:1780969439889
$GPGGA,014400.00,4617.00871,N,08753.28387,W,1,08,0.96,448.7,M,-35.0,M,,*69
#T1:1780969439890
$GPGSA,A,3,01,03,31,32,10,25,12,28,,,,,1.62,0.96,1.30*04
#T1:1780969439891
$GPGSV,3,1,12,01,26,267,23,02,14,242,09,03,35,311,40,04,01,283,*7B
#T1:1780969439891
$GPGSV,3,2,12,10,15,154,18,12,10,034,14,13,10,035,25,25,35,063,22*71
#T1:1780969439891
$GPGSV,3,3,12,26,23,176,20,28,83,056,21,31,64,230,22,32,53,088,19*72
#T1:1780969439900
$GPGLL,4617.00871,N,08753.28387,W,014400.00,A,A*7F
#T1:1780969440891
$GPRMC,014401.00,A,4617.00860,N,08753.28414,W,0.925,,090626,,,A*6F
#T1:1780969440891
$GPVTG,,T,,M,0.925,N,1.714,K,A*2E
#T1:1780969440891
$GPGGA,014401.00,4617.00860,N,08753.28414,W,1,08,0.96,449.5,M,-35.0,M,,*66
#T1:1780969440892
$GPGSA,A,3,01,03,31,32,10,25,12,28,,,,,1.62,0.96,1.30*04
#T1:1780969440892
$GPGSV,3,1,12,01,26,267,23,02,14,242,09,03,35,311,41,04,01,283,*7A
#T1:1780969440892
$GPGSV,3,2,12,10,15,154,17,12,10,034,14,13,10,035,25,25,35,063,21*7D
#T1:1780969440892
$GPGSV,3,3,12,26,23,176,20,28,83,056,21,31,64,230,22,32,53,088,19*72
#T1:1780969440902
$GPGLL,4617.00860,N,08753.28414,W,014401.00,A,A*73
#T1:1780969441874
$GPRMC,014402.00,A,4617.00847,N,08753.28432,W,0.847,,090626,,,A*68
#T1:1780969441874
$GPVTG,,T,,M,0.847,N,1.569,K,A*23
#T1:1780969441875
$GPGGA,014402.00,4617.00847,N,08753.28432,W,1,07,1.17,449.6,M,-35.0,M,,*60
#T1:1780969441875
$GPGSA,A,3,01,03,31,32,10,25,28,,,,,,2.03,1.17,1.66*08
#T1:1780969441875
$GPGSV,3,1,12,01,26,267,23,02,14,242,11,03,35,311,41,04,01,283,*73
#T1:1780969441876
$GPGSV,3,2,12,10,15,154,16,12,10,034,,13,10,035,26,25,35,063,22*79
#T1:1780969441876
$GPGSV,3,3,12,26,23,176,20,28,83,056,22,31,64,230,21,32,53,088,18*73
#T1:1780969441879
$GPGLL,4617.00847,N,08753.28432,W,014402.00,A,A*71
#T1:1780969442870
$GPRMC,014403.00,A,4617.00827,N,08753.28433,W,0.745,,090626,,,A*63
#T1:1780969442870
$GPVTG,,T,,M,0.745,N,1.381,K,A*2E
#T1:1780969442870
$GPGGA,014403.00,4617.00827,N,08753.28433,W,1,07,1.17,449.3,M,-35.0,M,,*63
#T1:1780969442871
$GPGSA,A,3,01,03,31,32,10,25,28,,,,,,2.03,1.17,1.66*08
#T1:1780969442872
$GPGSV,3,1,12,01,26,267,24,02,14,242,11,03,35,311,41,04,01,283,*74
#T1:1780969442872
$GPGSV,3,2,12,10,15,154,17,12,10,034,,13,10,035,26,25,35,063,22*78
#T1:1780969442872
$GPGSV,3,3,12,26,23,176,20,28,83,056,21,31,64,230,20,32,53,088,18*71
#T1:1780969442872
$GPGLL,4617.00827,N,08753.28433,W,014403.00,A,A*77
#T1:1780969443864
$GPRMC,014404.00,A,4617.00804,N,08753.28457,W,0.562,,090626,,,A*60
#T1:1780969443864
$GPVTG,,T,,M,0.562,N,1.041,K,A*26
#T1:1780969443864
$GPGGA,014404.00,4617.00804,N,08753.28457,W,1,07,1.28,448.3,M,-35.0,M,,*6A
#T1:1780969443864
$GPGSA,A,3,01,03,02,32,10,25,28,,,,,,2.44,1.28,2.07*03
#T1:1780969443864
$GPGSV,3,1,12,01,26,267,23,02,14,242,11,03,35,311,41,04,01,283,*73
#T1:1780969443864
$GPGSV,3,2,12,10,15,154,18,12,10,034,05,13,10,035,26,25,35,063,22*72
#T1:1780969443865
$GPGSV,3,3,12,26,23,176,20,28,83,056,21,31,64,230,,32,53,088,19*72
#T1:1780969443865
$GPGLL,4617.00804,N,08753.28457,W,014404.00,A,A*73
#T1:1780969444912
$GPRMC,014405.00,A,4617.00778,N,08753.28467,W,0.501,,090626,,,A*63
#T1:1780969444912
$GPVTG,,T,,M,0.501,N,0.928,K,A*24
#T1:1780969444912
$GPGGA,014405.00,4617.00778,N,08753.28467,W,1,07,1.28,447.6,M,-35.0,M,,*66
#T1:1780969444913
$GPGSA,A,3,01,03,02,32,10,25,28,,,,,,2.44,1.28,2.07*03
#T1:1780969444913
$GPGSV,3,1,12,01,26,267,23,02,14,242,11,03,35,311,41,04,01,283,*73
#T1:1780969444913
$GPGSV,3,2,12,10,15,154,17,12,10,034,07,13,10,035,26,25,35,063,22*7F
#T1:1780969444913
$GPGSV,3,3,12,26,23,176,19,28,83,056,21,31,64,230,,32,53,088,19*78
#T1:1780969444913
$GPGLL,4617.00778,N,08753.28467,W,014405.00,A,A*75
#T1:1780969445923
$GPRMC,014406.00,A,4617.00773,N,08753.28432,W,0.448,,090626,,,A*67
#T1:1780969445923
$GPVTG,,T,,M,0.448,N,0.830,K,A*20
#T1:1780969445923
$GPGGA,014406.00,4617.00773,N,08753.28432,W,1,07,1.28,446.4,M,-35.0,M,,*6D
#T1:1780969445923
$GPGSA,A,3,01,03,02,32,10,25,28,,,,,,2.44,1.28,2.07*03
#T1:1780969445924
$GPGSV,3,1,12,01,26,267,23,02,14,242,11,03,35,311,41,04,01,283,*73
#T1:1780969445924
$GPGSV,3,2,12,10,15,154,17,12,10,034,08,13,10,035,26,25,35,063,23*71
#T1:1780969445924
$GPGSV,3,3,12,26,23,176,20,28,83,056,22,31,64,230,,32,53,088,20*7B
#T1:1780969445924
$GPGLL,4617.00773,N,08753.28432,W,014406.00,A,A*7D
#T1:1780969446939
$GPRMC,014407.00,A,4617.00764,N,08753.28433,W,0.282,,090626,,,A*61
#T1:1780969446939
$GPVTG,,T,,M,0.282,N,0.523,K,A*2F
#T1:1780969446939
$GPGGA,014407.00,4617.00764,N,08753.28433,W,1,07,1.28,446.5,M,-35.0,M,,*6A
#T1:1780969446939
$GPGSA,A,3,01,03,02,32,10,25,28,,,,,,2.44,1.28,2.07*03
#T1:1780969446940
$GPGSV,3,1,12,01,26,267,24,02,14,242,11,03,35,311,41,04,01,283,*74
#T1:1780969446940
$GPGSV,3,2,12,10,15,154,17,12,10,034,08,13,10,035,26,25,35,063,23*71
#T1:1780969446940
$GPGSV,3,3,12,26,23,176,20,28,83,056,22,31,64,230,20,32,53,088,20*79
#T1:1780969446940
$GPGLL,4617.00764,N,08753.28433,W,014407.00,A,A*7B
#T1:1780969447944
$GPRMC,014408.00,A,4617.00732,N,08753.28426,W,0.338,,090626,,,A*69
#T1:1780969447944
$GPVTG,,T,,M,0.338,N,0.625,K,A*2A
#T1:1780969447944
$GPGGA,014408.00,4617.00732,N,08753.28426,W,1,07,1.28,445.7,M,-35.0,M,,*63
#T1:1780969447944
$GPGSA,A,3,01,03,02,32,10,25,28,,,,,,2.44,1.28,2.07*03
#T1:1780969447945
$GPGSV,3,1,12,01,26,267,24,02,14,242,11,03,35,311,41,04,01,283,*74
#T1:1780969447945
$GPGSV,3,2,12,10,15,154,17,12,10,034,08,13,10,035,27,25,35,063,23*70
#T1:1780969447945
$GPGSV,3,3,12,26,23,176,20,28,83,056,23,31,64,230,20,32,53,088,20*78
#T1:1780969447945
$GPGLL,4617.00732,N,08753.28426,W,014408.00,A,A*73
#T1:1780969448950
$GPRMC,014409.00,A,4617.00710,N,08753.28403,W,0.254,,090626,,,A*64
#T1:1780969448950
$GPVTG,,T,,M,0.254,N,0.470,K,A*23
#T1:1780969448951
$GPGGA,014409.00,4617.00710,N,08753.28403,W,1,07,1.28,445.0,M,-35.0,M,,*62
#T1:1780969448951
$GPGSA,A,3,01,03,02,32,10,25,28,,,,,,2.44,1.28,2.07*03
#T1:1780969448951
$GPGSV,3,1,12,01,26,267,24,02,14,242,11,03,35,311,41,04,01,283,*74
#T1:1780969448951
$GPGSV,3,2,12,10,15,154,16,12,10,034,08,13,10,035,27,25,35,063,23*71
#T1:1780969448951
$GPGSV,3,3,12,26,23,176,20,28,83,056,23,31,64,230,,32,53,088,20*7A
#T1:1780969448951
$GPGLL,4617.00710,N,08753.28403,W,014409.00,A,A*75
#T1:1780969449952
$GPRMC,014410.00,A,4617.00698,N,08753.28438,W,0.753,,090626,,,A*67
#T1:1780969449952
$GPVTG,,T,,M,0.753,N,1.394,K,A*2D
#T1:1780969449952
$GPGGA,014410.00,4617.00698,N,08753.28438,W,1,07,1.28,444.1,M,-35.0,M,,*63
#T1:1780969449952
$GPGSA,A,3,01,03,02,32,10,25,28,,,,,,2.44,1.28,2.07*03
#T1:1780969449953
$GPGSV,3,1,12,01,26,267,25,02,14,242,11,03,35,311,41,04,01,283,*75
#T1:1780969449953
$GPGSV,3,2,12,10,15,154,15,12,10,034,08,13,10,035,27,25,35,063,23*72
#T1:1780969449953
$GPGSV,3,3,12,26,23,176,20,28,83,056,22,31,64,230,,32,53,088,21*7A
#T1:1780969449953
$GPGLL,4617.00698,N,08753.28438,W,014410.00,A,A*74
#T1:1780969450963
$GPRMC,014411.00,A,4617.00685,N,08753.28425,W,0.467,,090626,,,A*62
#T1:1780969450963
$GPVTG,,T,,M,0.467,N,0.864,K,A*2C
#T1:1780969450964
$GPGGA,014411.00,4617.00685,N,08753.28425,W,1,07,1.28,443.5,M,-35.0,M,,*61
#T1:1780969450964
$GPGSA,A,3,01,03,02,32,10,25,28,,,,,,2.44,1.28,2.07*03
#T1:1780969450964
$GPGSV,3,1,12,01,26,267,25,02,14,242,11,03,35,311,41,04,01,283,*75
#T1:1780969450964
$GPGSV,3,2,12,10,15,154,14,12,10,034,08,13,10,035,27,25,35,063,23*73
#T1:1780969450964
$GPGSV,3,3,12,26,23,176,20,28,83,056,22,31,64,230,22,32,53,088,20*7B
#T1:1780969450964
$GPGLL,4617.00685,N,08753.28425,W,014411.00,A,A*75
#T1:1780969451960
$GPRMC,014412.00,A,4617.00687,N,08753.28461,W,0.492,,090626,,,A*69
#T1:1780969451961
$GPVTG,,T,,M,0.492,N,0.911,K,A*25
#T1:1780969451961
$GPGGA,014412.00,4617.00687,N,08753.28461,W,1,07,1.28,443.2,M,-35.0,M,,*67
#T1:1780969451961
$GPGSA,A,3,01,03,02,32,10,25,28,,,,,,2.44,1.28,2.07*03
#T1:1780969451961
$GPGSV,3,1,12,01,26,267,25,02,14,242,11,03,35,311,41,04,01,283,*75
#T1:1780969451961
$GPGSV,3,2,12,10,15,154,14,12,10,034,08,13,10,035,27,25,35,063,23*73
#T1:1780969451961
$GPGSV,3,3,12,26,23,176,20,28,83,056,23,31,64,230,20,32,53,088,20*78
#T1:1780969451961
$GPGLL,4617.00687,N,08753.28461,W,014412.00,A,A*74
#T1:1780969452961
$GPRMC,014413.00,A,4617.00729,N,08753.28443,W,0.866,,090626,,,A*6A
#T1:1780969452961
$GPVTG,,T,,M,0.866,N,1.604,K,A*28
#T1:1780969452961
$GPGGA,014413.00,4617.00729,N,08753.28443,W,1,06,1.35,442.7,M,-35.0,M,,*6A
#T1:1780969452961
$GPGSA,A,3,01,03,32,10,25,28,,,,,,,2.50,1.35,2.10*0E
#T1:1780969452962
$GPGSV,3,1,12,01,26,267,25,02,14,242,,03,35,311,41,04,01,283,*75
#T1:1780969452962
$GPGSV,3,2,12,10,15,154,14,12,10,034,08,13,10,035,27,25,35,063,23*73
#T1:1780969452963
$GPGSV,3,3,12,26,23,176,20,28,83,056,23,31,64,230,,32,53,088,20*7A
#T1:1780969452963
$GPGLL,4617.00729,N,08753.28443,W,014413.00,A,A*70
#T1:1780969453961
$GPRMC,014414.00,A,4617.00740,N,08753.28455,W,1.198,,090626,,,A*6C
#T1:1780969453961
$GPVTG,,T,,M,1.198,N,2.219,K,A*2A
#T1:1780969453961
$GPGGA,014414.00,4617.00740,N,08753.28455,W,1,06,1.35,442.3,M,-35.0,M,,*61
#T1:1780969453961
$GPGSA,A,3,01,03,32,10,25,28,,,,,,,2.50,1.35,2.10*0E
#T1:1780969453962
$GPGSV,3,1,12,01,26,267,25,02,14,242,,03,35,311,41,04,01,283,*75
#T1:1780969453962
$GPGSV,3,2,12,10,15,154,12,12,10,034,12,13,10,035,27,25,35,063,23*7E
#T1:1780969453962
$GPGSV,3,3,12,26,23,176,20,28,83,056,22,31,64,230,20,32,53,088,20*79
#T1:1780969453962
$GPGLL,4617.00740,N,08753.28455,W,014414.00,A,A*7F
#T1:1780969454962
$GPRMC,014415.00,A,4617.00726,N,08753.28495,W,1.079,,090626,,,A*6F
#T1:1780969454962
$GPVTG,,T,,M,1.079,N,1.998,K,A*25
#T1:1780969454962
$GPGGA,014415.00,4617.00726,N,08753.28495,W,1,06,1.35,443.0,M,-35.0,M,,*6E
#T1:1780969454962
$GPGSA,A,3,01,03,32,10,25,28,,,,,,,2.50,1.35,2.10*0E
#T1:1780969454963
$GPGSV,3,1,12,01,26,267,26,02,14,242,,03,35,311,41,04,01,283,*76
#T1:1780969454964
$GPGSV,3,2,12,10,15,154,11,12,10,034,12,13,10,035,27,25,35,063,22*7C
#T1:1780969454964
$GPGSV,3,3,12,26,23,176,19,28,83,056,22,31,64,230,20,32,53,088,20*73
#T1:1780969454964
$GPGLL,4617.00726,N,08753.28495,W,014415.00,A,A*72
#T1:1780969455954
$GPRMC,014416.00,A,4617.00728,N,08753.28497,W,0.504,,090626,,,A*6E
#T1:1780969455954
$GPVTG,,T,,M,0.504,N,0.933,K,A*2B
#T1:1780969455954
$GPGGA,014416.00,4617.00728,N,08753.28497,W,1,07,0.99,442.7,M,-35.0,M,,*61
#T1:1780969455955
$GPGSA,A,3,01,03,32,10,25,12,28,,,,,,1.73,0.99,1.42*0C
#T1:1780969455955
$GPGSV,3,1,12,01,26,267,26,02,14,242,,03,35,311,41,04,01,283,*76
#T1:1780969455955
$GPGSV,3,2,12,10,15,154,10,12,10,034,12,13,10,035,27,25,35,063,22*7D
#T1:1780969455955
$GPGSV,3,3,12,26,23,176,,28,83,056,22,31,64,230,21,32,53,088,21*7B
#T1:1780969455955
$GPGLL,4617.00728,N,08753.28497,W,014416.00,A,A*7D
#T1:1780969456959
$GPRMC,014417.00,A,4617.00723,N,08753.28466,W,0.320,,090626,,,A*6A
#T1:1780969456959
$GPVTG,,T,,M,0.320,N,0.592,K,A*2C
#T1:1780969456959
$GPGGA,014417.00,4617.00723,N,08753.28466,W,1,07,0.99,442.6,M,-35.0,M,,*64
#T1:1780969456959
$GPGSA,A,3,01,03,32,10,25,12,28,,,,,,1.73,0.99,1.42*0C
#T1:1780969456960
$GPGSV,3,1,12,01,26,267,26,02,14,242,,03,35,311,41,04,01,283,*76
#T1:1780969456960
$GPGSV,3,2,12,10,15,154,10,12,10,034,12,13,10,035,27,25,35,063,22*7D
#T1:1780969456961
$GPGSV,3,3,12,26,23,176,,28,83,056,21,31,64,230,22,32,53,088,21*7B
#T1:1780969456961
$GPGLL,4617.00723,N,08753.28466,W,014417.00,A,A*79
#T1:1780969457954
$GPRMC,014418.00,A,4617.00711,N,08753.28469,W,0.353,,090626,,,A*6F
#T1:1780969457954
$GPVTG,,T,,M,0.353,N,0.654,K,A*21
#T1:1780969457954
$GPGGA,014418.00,4617.00711,N,08753.28469,W,1,07,0.99,442.9,M,-35.0,M,,*6A
#T1:1780969457955
$GPGSA,A,3,01,03,32,10,25,12,28,,,,,,1.73,0.99,1.42*0C
#T1:1780969457955
$GPGSV,3,1,12,01,26,267,27,02,14,242,,03,35,311,41,04,01,283,*77
#T1:1780969457955
$GPGSV,3,2,12,10,15,154,10,12,10,034,12,13,10,035,27,25,35,063,23*7C
#T1:1780969457955
$GPGSV,3,3,12,26,23,176,,28,83,056,21,31,64,230,21,32,53,088,22*7B
#T1:1780969457955
$GPGLL,4617.00711,N,08753.28469,W,014418.00,A,A*78
#T1:1780969458954
$GPRMC,014419.00,A,4617.00690,N,08753.28467,W,0.293,,090626,,,A*65
#T1:1780969458954
$GPVTG,,T,,M,0.293,N,0.543,K,A*29
#T1:1780969458954
$GPGGA,014419.00,4617.00690,N,08753.28467,W,1,07,0.99,443.3,M,-35.0,M,,*66
#T1:1780969458955
$GPGSA,A,3,01,03,32,10,25,12,28,,,,,,1.73,0.99,1.42*0C
#T1:1780969458955
$GPGSV,3,1,12,01,26,267,27,02,14,242,,03,35,311,41,04,01,283,*77
#T1:1780969458956
$GPGSV,3,2,12,10,15,154,10,12,10,034,12,13,10,035,27,25,35,063,24*7B
#T1:1780969458956
$GPGSV,3,3,12,26,23,176,20,28,83,056,21,31,64,230,20,32,53,088,21*7B
#T1:1780969458956
$GPGLL,4617.00690,N,08753.28467,W,014419.00,A,A*7F
#T1:1780969459949
$GPRMC,014420.00,A,4617.00690,N,08753.28471,W,0.203,,090626,,,A*61
#T1:1780969459949
$GPVTG,,T,,M,0.203,N,0.376,K,A*20
#T1:1780969459949
$GPGGA,014420.00,4617.00690,N,08753.28471,W,1,07,0.99,443.2,M,-35.0,M,,*6A
#T1:1780969459949
$GPGSA,A,3,01,03,32,10,25,12,28,,,,,,1.73,0.99,1.42*0C
#T1:1780969459949
$GPGSV,3,1,12,01,26,267,27,02,14,242,,03,35,311,41,04,01,283,*77
#T1:1780969459950
$GPGSV,3,2,12,10,15,154,08,12,10,034,11,13,10,035,27,25,35,063,25*70
#T1:1780969459950
$GPGSV,3,3,12,26,23,176,20,28,83,056,21,31,64,230,20,32,53,088,21*7B
#T1:1780969459950
$GPGLL,4617.00690,N,08753.28471,W,014420.00,A,A*72
