#T1:1780969553929
$GPRMC,014554.00,A,4617.01121,N,08753.28702,W,0.070,,090626,,,A*6E
#T1:1780969553930
$GPVTG,,T,,M,0.070,N,0.130,K,A*26
#T1:1780969553931
$GPGGA,014554.00,4617.01121,N,08753.28702,W,1,08,1.35,463.0,M,-35.0,M,,*6B
#T1:1780969553931
$GPGSA,A,3,01,03,02,31,32,25,12,28,,,,,1.94,1.35,1.40*01
#T1:1780969553932
$GPGSV,3,1,12,01,25,266,30,02,13,241,13,03,36,311,41,04,02,284,*72
#T1:1780969553932
$GPGSV,3,2,12,10,14,154,,12,10,034,12,13,09,034,19,25,35,062,27*7D
#T1:1780969553932
$GPGSV,3,3,12,26,24,176,16,28,82,055,23,31,65,230,29,32,53,089,20*71
#T1:1780969553936
$GPGLL,4617.01121,N,08753.28702,W,014554.00,A,A*7B
#T1:1780969554673
$GPTXT,01,01,02,u-blox ag - www.u-blox.com*50
#T1:1780969554673
$GPTXT,01,01,02,HW  UBX-G70xx   00070000 FF7FFFFFo*69
#T1:1780969554673
$GPTXT,01,01,02,ROM CORE 1.00 (59842) Jun 27 2012 17:43:52*59
#T1:1780969554673
$GPTXT,01,01,02,PROTVER 14.00*1E
#T1:1780969554673
$GPTXT,01,01,02,ANTSUPERV=AC SD PDoS SR*20
#T1:1780969554673
$GPTXT,01,01,02,ANTSTATUS=OK*3B
#T1:1780969554674
$GPTXT,01,01,02,LLC FFFFFFFF-FFFFFFFF-FFFFFFFF-FFFFFFFF-FFFFFFFD*2C
#T1:1780969554924
$GPRMC,014555.00,A,4617.01110,N,08753.28684,W,0.043,,090626,,,A*62
#T1:1780969554924
$GPVTG,,T,,M,0.043,N,0.079,K,A*2A
#T1:1780969554925
$GPGGA,014555.00,4617.01110,N,08753.28684,W,1,08,1.35,462.7,M,-35.0,M,,*61
#T1:1780969554925
$GPGSA,A,3,01,03,02,31,32,25,12,28,,,,,1.94,1.35,1.40*01
#T1:1780969554926
$GPGSV,3,1,12,01,25,266,30,02,13,241,12,03,36,311,41,04,02,284,*73
#T1:1780969554926
$GPGSV,3,2,12,10,14,154,,12,10,034,13,13,09,034,19,25,35,062,27*7C
#T1:1780969554926
$GPGSV,3,3,12,26,24,176,16,28,82,055,22,31,65,230,28,32,53,089,19*7B
#T1:1780969554926
$GPGLL,4617.01110,N,08753.28684,W,014555.00,A,A*77
#T1:1780969555915
$GPRMC,014556.00,A,4617.01103,N,08753.28674,W,0.026,,090626,,,A*6F
#T1:1780969555915
$GPVTG,,T,,M,0.026,N,0.047,K,A*24
#T1:1780969555915
$GPGGA,014556.00,4617.01103,N,08753.28674,W,1,08,1.35,462.6,M,-35.0,M,,*6E
#T1:1780969555916
$GPGSA,A,3,01,03,02,31,32,25,12,28,,,,,1.94,1.35,1.40*01
#T1:1780969555916
$GPGSV,3,1,12,01,25,266,30,02,13,241,12,03,36,311,41,04,02,284,*73
#T1:1780969555916
$GPGSV,3,2,12,10,14,154,,12,10,034,13,13,09,034,19,25,35,062,27*7C
#T1:1780969555916
$GPGSV,3,3,12,26,24,176,15,28,82,055,22,31,65,230,28,32,53,089,19*78
#T1:1780969555917
$GPGLL,4617.01103,N,08753.28674,W,014556.00,A,A*79
#T1:1780969556909
$GPRMC,014557.00,A,4617.01093,N,08753.28659,W,0.126,,090626,,,A*68
#T1:1780969556909
$GPVTG,,T,,M,0.126,N,0.233,K,A*24
#T1:1780969556909
$GPGGA,014557.00,4617.01093,N,08753.28659,W,1,08,1.35,462.2,M,-35.0,M,,*6C
#T1:1780969556910
$GPGSA,A,3,01,03,02,31,32,25,12,28,,,,,1.94,1.35,1.40*01
#T1:1780969556911
$GPGSV,3,1,12,01,25,266,30,02,13,241,14,03,36,311,41,04,02,284,*75
#T1:1780969556911
$GPGSV,3,2,12,10,14,154,,12,10,034,12,13,09,034,18,25,35,062,27*7C
#T1:1780969556911
$GPGSV,3,3,12,26,24,176,15,28,82,055,21,31,65,230,28,32,53,089,19*7B
#T1:1780969556911
$GPGLL,4617.01093,N,08753.28659,W,014557.00,A,A*7F
#T1:1780969557900
$GPRMC,014558.00,A,4617.01087,N,08753.28641,W,0.031,,090626,,,A*6C
#T1:1780969557900
$GPVTG,,T,,M,0.031,N,0.058,K,A*2C
#T1:1780969557901
$GPGGA,014558.00,4617.01087,N,08753.28641,W,1,08,1.35,461.9,M,-35.0,M,,*67
#T1:1780969557901
$GPGSA,A,3,01,03,02,31,32,25,12,28,,,,,1.94,1.35,1.40*01
#T1:1780969557901
$GPGSV,3,1,12,01,25,266,30,02,13,241,15,03,36,311,41,04,02,284,*74
#T1:1780969557901
$GPGSV,3,2,12,10,14,154,,12,10,034,11,13,09,034,18,25,35,062,27*7F
#T1:1780969557901
$GPGSV,3,3,12,26,24,176,15,28,82,055,21,31,65,230,28,32,53,089,20*71
#T1:1780969557902
$GPGLL,4617.01087,N,08753.28641,W,014558.00,A,A*7C
#T1:1780969558893
$GPRMC,014559.00,A,4617.01082,N,08753.28623,W,0.091,,090626,,,A*66
#T1:1780969558893
$GPVTG,,T,,M,0.091,N,0.168,K,A*24
#T1:1780969558893
$GPGGA,014559.00,4617.01082,N,08753.28623,W,1,07,1.49,461.7,M,-35.0,M,,*6D
#T1:1780969558894
$GPGSA,A,3,01,03,02,31,32,25,28,,,,,,2.31,1.49,1.77*01
#T1:1780969558896
$GPGSV,3,1,12,01,25,266,30,02,13,241,16,03,36,311,41,04,02,284,*77
#T1:1780969558896
$GPGSV,3,2,12,10,14,154,,12,10,034,09,13,09,034,18,25,35,062,27*76
#T1:1780969558896
$GPGSV,3,3,12,26,24,176,15,28,82,055,21,31,65,230,28,32,53,089,21*70
#T1:1780969558896
$GPGLL,4617.01082,N,08753.28623,W,014559.00,A,A*7C
#T1:1780969559882
$GPRMC,014600.00,A,4617.01078,N,08753.28607,W,0.044,,090626,,,A*62
#T1:1780969559882
$GPVTG,,T,,M,0.044,N,0.081,K,A*2A
#T1:1780969559883
$GPGGA,014600.00,4617.01078,N,08753.28607,W,1,07,1.49,461.4,M,-35.0,M,,*62
#T1:1780969559883
$GPGSA,A,3,01,03,02,31,32,25,28,,,,,,2.31,1.49,1.77*01
#T1:1780969559883
$GPGSV,3,1,12,01,25,266,30,02,13,241,16,03,36,311,41,04,02,284,*77
#T1:1780969559883
$GPGSV,3,2,12,10,14,154,,12,10,034,08,13,09,034,18,25,35,062,27*77
#T1:1780969559883
$GPGSV,3,3,12,26,24,176,14,28,82,055,21,31,65,230,28,32,53,089,22*72
#T1:1780969559884
$GPGLL,4617.01078,N,08753.28607,W,014600.00,A,A*70
#T1:1780969560885
$GPRMC,014601.00,A,4617.01075,N,08753.28594,W,0.054,,090626,,,A*66
#T1:1780969560885
$GPVTG,,T,,M,0.054,N,0.101,K,A*22
#T1:1780969560885
$GPGGA,014601.00,4617.01075,N,08753.28594,W,1,07,1.49,461.2,M,-35.0,M,,*61
#T1:1780969560885
$GPGSA,A,3,01,03,02,31,32,25,28,,,,,,2.31,1.49,1.77*01
#T1:1780969560885
$GPGSV,3,1,12,01,25,266,30,02,13,241,18,03,36,311,41,04,02,284,*79
#T1:1780969560886
$GPGSV,3,2,12,10,14,154,,12,10,034,08,13,09,034,19,25,35,062,27*76
#T1:1780969560886
$GPGSV,3,3,12,26,24,176,14,28,82,055,20,31,65,230,28,32,53,089,23*72
#T1:1780969560886
$GPGLL,4617.01075,N,08753.28594,W,014601.00,A,A*75
#T1:1780969561873
$GPRMC,014602.00,A,4617.01073,N,08753.28579,W,0.056,,090626,,,A*62
#T1:1780969561873
$GPVTG,,T,,M,0.056,N,0.104,K,A*25
#T1:1780969561873
$GPGGA,014602.00,4617.01073,N,08753.28579,W,1,08,1.35,461.0,M,-35.0,M,,*61
#T1:1780969561873
$GPGSA,A,3,01,03,02,31,32,25,12,28,,,,,1.94,1.35,1.40*01
#T1:1780969561875
$GPGSV,3,1,12,01,25,266,30,02,13,241,17,03,36,311,41,04,02,284,*76
#T1:1780969561875
$GPGSV,3,2,12,10,14,154,,12,10,034,11,13,09,034,20,25,35,062,27*74
#T1:1780969561875
$GPGSV,3,3,12,26,24,176,12,28,82,054,21,31,65,230,28,32,53,089,24*73
#T1:1780969561875
$GPGLL,4617.01073,N,08753.28579,W,014602.00,A,A*73
#T1:1780969562871
$GPRMC,014603.00,A,4617.01072,N,08753.28563,W,0.151,,090626,,,A*6F
#T1:1780969562871
$GPVTG,,T,,M,0.151,N,0.279,K,A*2A
#T1:1780969562871
$GPGGA,014603.00,4617.01072,N,08753.28563,W,1,08,1.35,460.8,M,-35.0,M,,*63
#T1:1780969562872
$GPGSA,A,3,01,03,02,31,32,25,12,28,,,,,1.94,1.35,1.40*01
#T1:1780969562872
$GPGSV,3,1,12,01,25,266,30,02,13,241,18,03,36,311,41,04,02,284,*79
#T1:1780969562872
$GPGSV,3,2,12,10,14,154,,12,10,034,11,13,09,034,20,25,35,062,28*7B
#T1:1780969562872
$GPGSV,3,3,12,26,24,176,,28,82,054,21,31,65,230,28,32,53,089,24*70
#T1:1780969562872
$GPGLL,4617.01072,N,08753.28563,W,014603.00,A,A*78
#T1:1780969563861
$GPRMC,014604.00,A,4617.01074,N,08753.28548,W,0.129,,090626,,,A*68
#T1:1780969563862
$GPVTG,,T,,M,0.129,N,0.240,K,A*2F
#T1:1780969563862
$GPGGA,014604.00,4617.01074,N,08753.28548,W,1,08,1.35,460.7,M,-35.0,M,,*64
#T1:1780969563862
$GPGSA,A,3,01,03,02,31,32,25,12,28,,,,,1.94,1.35,1.40*01
#T1:1780969563862
$GPGSV,3,1,12,01,25,266,30,02,13,241,18,03,36,311,41,04,02,284,*79
#T1:1780969563862
$GPGSV,3,2,12,10,14,154,,12,10,034,11,13,09,034,20,25,35,062,28*7B
#T1:1780969563863
$GPGSV,3,3,12,26,24,176,,28,82,054,21,31,65,230,28,32,53,089,25*71
#T1:1780969563863
$GPGLL,4617.01074,N,08753.28548,W,014604.00,A,A*70
#T1:1780969564854
$GPRMC,014605.00,A,4617.01075,N,08753.28539,W,0.057,,090626,,,A*66
#T1:1780969564854
$GPVTG,,T,,M,0.057,N,0.106,K,A*26
#T1:1780969564854
$GPGGA,014605.00,4617.01075,N,08753.28539,W,1,08,1.35,460.7,M,-35.0,M,,*62
#T1:1780969564854
$GPGSA,A,3,01,03,02,31,32,25,12,28,,,,,1.94,1.35,1.39*0F
#T1:1780969564854
$GPGSV,3,1,12,01,25,266,30,02,13,241,18,03,36,311,41,04,02,284,*79
#T1:1780969564854
$GPGSV,3,2,12,10,14,154,,12,10,034,11,13,09,034,19,25,35,062,28*71
#T1:1780969564855
$GPGSV,3,3,12,26,24,176,,28,82,054,21,31,65,231,28,32,53,089,25*70
#T1:1780969564855
$GPGLL,4617.01075,N,08753.28539,W,014605.00,A,A*76
#T1:1780969565902
$GPRMC,014606.00,A,4617.01071,N,08753.28531,W,0.118,,090626,,,A*63
#T1:1780969565902
$GPVTG,,T,,M,0.118,N,0.219,K,A*21
#T1:1780969565902
$GPGGA,014606.00,4617.01071,N,08753.28531,W,1,08,1.35,460.6,M,-35.0,M,,*6C
#T1:1780969565903
$GPGSA,A,3,01,03,02,31,32,25,12,28,,,,,1.94,1.35,1.39*0F
#T1:1780969565903
$GPGSV,3,1,12,01,25,266,30,02,13,241,18,03,36,311,41,04,02,284,*79
#T1:1780969565903
$GPGSV,3,2,12,10,14,154,,12,10,034,11,13,09,034,19,25,35,062,28*71
#T1:1780969565904
$GPGSV,3,3,12,26,24,176,,28,82,054,21,31,65,231,28,32,53,089,26*73
#T1:1780969565904
$GPGLL,4617.01071,N,08753.28531,W,014606.00,A,A*79
#T1:1780969566914
$GPRMC,014607.00,A,4617.01073,N,08753.28522,W,0.041,,090626,,,A*6F
#T1:1780969566914
$GPVTG,,T,,M,0.041,N,0.076,K,A*27
#T1:1780969566914
$GPGGA,014607.00,4617.01073,N,08753.28522,W,1,08,1.35,460.6,M,-35.0,M,,*6D
#T1:1780969566915
$GPGSA,A,3,01,03,02,31,32,25,12,28,,,,,1.94,1.35,1.39*0F
#T1:1780969566915
$GPGSV,3,1,12,01,25,266,30,02,13,241,18,03,36,311,41,04,02,284,*79
#T1:1780969566915
$GPGSV,3,2,12,10,14,154,,12,10,034,11,13,09,034,18,25,35,062,28*70
#T1:1780969566915
$GPGSV,3,3,12,26,24,176,,28,82,054,20,31,65,231,28,32,53,089,26*72
#T1:1780969566916
$GPGLL,4617.01073,N,08753.28522,W,014607.00,A,A*78
#T1:1780969567924
$GPRMC,014608.00,A,4617.01074,N,08753.28518,W,0.177,,090626,,,A*6A
#T1:1780969567924
$GPVTG,,T,,M,0.177,N,0.327,K,A*24
#T1:1780969567924
$GPGGA,014608.00,4617.01074,N,08753.28518,W,1,08,1.35,460.7,M,-35.0,M,,*6D
#T1:1780969567925
$GPGSA,A,3,01,03,02,31,32,25,12,28,,,,,1.94,1.35,1.39*0F
#T1:1780969567925
$GPGSV,3,1,12,01,25,266,31,02,13,241,17,03,36,311,41,04,02,284,*77
#T1:1780969567925
$GPGSV,3,2,12,10,14,154,,12,10,034,11,13,09,034,21,25,35,062,28*7A
#T1:1780969567925
$GPGSV,3,3,12,26,24,176,,28,82,054,21,31,65,231,28,32,53,089,26*73
#T1:1780969567926
$GPGLL,4617.01074,N,08753.28518,W,014608.00,A,A*79
#T1:1780969568936
$GPRMC,014609.00,A,4617.01076,N,08753.28517,W,0.109,,090626,,,A*6F
#T1:1780969568936
$GPVTG,,T,,M,0.109,N,0.202,K,A*2B
#T1:1780969568936
$GPGGA,014609.00,4617.01076,N,08753.28517,W,1,08,1.35,460.7,M,-35.0,M,,*61
#T1:1780969568937
$GPGSA,A,3,01,03,02,31,32,25,12,28,,,,,1.94,1.35,1.39*0F
#T1:1780969568937
$GPGSV,3,1,12,01,25,266,31,02,13,241,15,03,36,311,41,04,02,284,*75
#T1:1780969568937
$GPGSV,3,2,12,10,14,154,,12,10,034,11,13,09,034,21,25,35,062,28*7A
#T1:1780969568937
$GPGSV,3,3,12,26,24,176,,28,82,054,21,31,65,231,28,32,53,089,26*73
#T1:1780969568940
$GPGLL,4617.01076,N,08753.28517,W,014609.00,A,A*75
#T1:1780969569937
$GPRMC,014610.00,A,4617.01071,N,08753.28514,W,0.093,,090626,,,A*61
#T1:1780969569937
$GPVTG,,T,,M,0.093,N,0.172,K,A*2D
#T1:1780969569937
$GPGGA,014610.00,4617.01071,N,08753.28514,W,1,08,1.35,460.5,M,-35.0,M,,*6F
#T1:1780969569937
$GPGSA,A,3,01,03,02,31,32,25,12,28,,,,,1.94,1.35,1.39*0F
#T1:1780969569938
$GPGSV,3,1,12,01,25,266,32,02,13,241,16,03,36,311,41,04,02,284,*75
#T1:1780969569938
$GPGSV,3,2,12,10,14,154,,12,10,034,11,13,09,034,21,25,35,062,28*7A
#T1:1780969569938
$GPGSV,3,3,12,26,24,176,,28,82,054,21,31,65,231,28,32,53,089,26*73
#T1:1780969569939
$GPGLL,4617.01071,N,08753.28514,W,014610.00,A,A*79
#T1:1780969570944
$GPRMC,014611.00,A,4617.01065,N,08753.28511,W,0.028,,090626,,,A*60
#T1:1780969570945
$GPVTG,,T,,M,0.028,N,0.051,K,A*2D
#T1:1780969570945
$GPGGA,014611.00,4617.01065,N,08753.28511,W,1,08,1.35,460.5,M,-35.0,M,,*6E
#T1:1780969570945
$GPGSA,A,3,01,03,02,31,32,25,12,28,,,,,1.94,1.35,1.39*0F
#T1:1780969570946
$GPGSV,3,1,12,01,25,266,32,02,13,241,15,03,36,311,41,04,02,284,*76
#T1:1780969570946
$GPGSV,3,2,12,10,14,154,,12,10,034,11,13,09,034,20,25,35,062,28*7B
#T1:1780969570946
$GPGSV,3,3,12,26,24,176,,28,82,054,20,31,65,231,28,32,53,089,26*72
#T1:1780969570946
$GPGLL,4617.01065,N,08753.28511,W,014611.00,A,A*78
#T1:1780969571942
$GPRMC,014612.00,A,4617.01059,N,08753.28508,W,0.111,,090626,,,A*6F
#T1:1780969571942
$GPVTG,,T,,M,0.111,N,0.205,K,A*25
#T1:1780969571942
$GPGGA,014612.00,4617.01059,N,08753.28508,W,1,08,1.35,460.4,M,-35.0,M,,*6B
#T1:1780969571942
$GPGSA,A,3,01,03,02,31,32,25,12,28,,,,,1.94,1.35,1.39*0F
#T1:1780969571943
$GPGSV,3,1,12,01,25,266,32,02,13,241,13,03,36,311,42,04,02,284,*73
#T1:1780969571943
$GPGSV,3,2,12,10,14,154,,12,10,034,11,13,09,034,20,25,35,062,28*7B
#T1:1780969571943
$GPGSV,3,3,12,26,24,176,,28,82,054,20,31,65,231,27,32,53,089,26*7D
#T1:1780969571943
$GPGLL,4617.01059,N,08753.28508,W,014612.00,A,A*7C
#T1:1780969572946
$GPRMC,014613.00,A,4617.01055,N,08753.28505,W,0.098,,090626,,,A*6F
#T1:1780969572946
$GPVTG,,T,,M,0.098,N,0.182,K,A*29
#T1:1780969572946
$GPGGA,014613.00,4617.01055,N,08753.28505,W,1,07,1.87,460.3,M,-35.0,M,,*6A
#T1:1780969572946
$GPGSA,A,3,01,03,31,32,25,12,28,,,,,,2.83,1.87,2.12*0B
#T1:1780969572946
$GPGSV,3,1,12,01,25,266,32,02,13,241,09,03,36,311,42,04,02,284,*78
#T1:1780969572946
$GPGSV,3,2,12,10,14,154,,12,10,034,11,13,09,034,20,25,35,062,28*7B
#T1:1780969572946
$GPGSV,3,3,12,26,24,176,,28,82,054,21,31,65,231,27,32,53,089,26*7C
#T1:1780969572946
$GPGLL,4617.01055,N,08753.28505,W,014613.00,A,A*7C
#T1:1780969573945
$GPRMC,014614.00,A,4617.01046,N,08753.28504,W,0.049,,090626,,,A*67
#T1:1780969573945
$GPVTG,,T,,M,0.049,N,0.091,K,A*26
#T1:1780969573945
$GPGGA,014614.00,4617.01046,N,08753.28504,W,1,07,1.87,460.1,M,-35.0,M,,*6C
#T1:1780969573945
$GPGSA,A,3,01,03,31,32,25,12,28,,,,,,2.83,1.87,2.12*0B
#T1:1780969573946
$GPGSV,3,1,12,01,25,266,33,02,13,241,09,03,36,311,42,04,02,284,*79
#T1:1780969573946
$GPGSV,3,2,12,10,14,154,,12,10,034,08,13,09,034,20,25,35,062,28*73
#T1:1780969573946
$GPGSV,3,3,12,26,24,176,,28,82,054,21,31,65,231,27,32,53,089,26*7C
#T1:1780969573946
$GPGLL,4617.01046,N,08753.28504,W,014614.00,A,A*78
#T1:1780969574947
$GPRMC,014615.00,A,4617.01042,N,08753.28503,W,0.015,,090626,,,A*6C
#T1:1780969574947
$GPVTG,,T,,M,0.015,N,0.027,K,A*22
#T1:1780969574947
$GPGGA,014615.00,4617.01042,N,08753.28503,W,1,07,1.87,460.1,M,-35.0,M,,*6E
#T1:1780969574947
$GPGSA,A,3,01,03,31,32,25,12,28,,,,,,2.82,1.87,2.12*0A
#T1:1780969574948
$GPGSV,3,1,12,01,25,266,33,02,13,241,09,03,36,311,42,04,02,284,*79
#T1:1780969574948
$GPGSV,3,2,12,10,14,154,,12,10,034,08,13,09,034,20,25,35,062,28*73
#T1:1780969574948
$GPGSV,3,3,12,26,24,176,,28,82,054,20,31,65,231,27,32,53,089,26*7D
#T1:1780969574948
$GPGLL,4617.01042,N,08753.28503,W,014615.00,A,A*7A
#T1:1780969575945
$GPRMC,014616.00,A,4617.01036,N,08753.28499,W,0.225,,090626,,,A*6F
#T1:1780969575945
$GPVTG,,T,,M,0.225,N,0.417,K,A*24
#T1:1780969575945
$GPGGA,014616.00,4617.01036,N,08753.28499,W,1,06,1.93,459.8,M,-35.0,M,,*6B
#T1:1780969575945
$GPGSA,A,3,01,03,31,32,25,28,,,,,,,3.16,1.93,2.50*06
#T1:1780969575946
$GPGSV,3,1,12,01,25,266,33,02,13,241,09,03,36,311,42,04,02,284,*79
#T1:1780969575946
$GPGSV,3,2,12,10,14,154,,12,10,034,08,13,09,034,18,25,35,062,27*77
#T1:1780969575946
$GPGSV,3,3,12,26,24,176,,28,82,054,21,31,65,231,26,32,53,089,26*7D
#T1:1780969575946
$GPGLL,4617.01036,N,08753.28499,W,014616.00,A,A*78
#T1:1780969576944
$GPRMC,014617.00,A,4617.01030,N,08753.28496,W,0.269,,090626,,,A*6F
#T1:1780969576944
$GPVTG,,T,,M,0.269,N,0.499,K,A*2A
#T1:1780969576945
$GPGGA,014617.00,4617.01030,N,08753.28496,W,1,06,1.93,459.6,M,-35.0,M,,*6D
#T1:1780969576945
$GPGSA,A,3,01,03,31,32,25,28,,,,,,,3.16,1.93,2.50*06
#T1:1780969576946
$GPGSV,3,1,12,01,25,266,33,02,13,241,09,03,36,311,42,04,02,284,*79
#T1:1780969576946
$GPGSV,3,2,12,10,14,154,,12,10,034,08,13,09,034,17,25,35,062,27*78
#T1:1780969576946
$GPGSV,3,3,12,26,24,176,,28,82,054,21,31,65,231,26,32,53,089,26*7D
#T1:1780969576946
$GPGLL,4617.01030,N,08753.28496,W,014617.00,A,A*70
#T1:1780969577940
$GPRMC,014618.00,A,4617.01024,N,08753.28496,W,0.082,,090626,,,A*62
#T1:1780969577940
$GPVTG,,T,,M,0.082,N,0.151,K,A*2C
#T1:1780969577940
$GPGGA,014618.00,4617.01024,N,08753.28496,W,1,06,1.93,459.5,M,-35.0,M,,*64
#T1:1780969577940
$GPGSA,A,3,01,03,31,32,25,28,,,,,,,3.16,1.93,2.50*06
#T1:1780969577941
$GPGSV,3,1,12,01,25,266,33,02,13,241,09,03,36,311,42,04,02,284,*79
#T1:1780969577941
$GPGSV,3,2,12,10,14,154,,12,10,034,08,13,09,034,16,25,35,062,27*79
#T1:1780969577941
$GPGSV,3,3,12,26,24,176,,28,82,054,21,31,65,231,26,32,53,089,26*7D
#T1:1780969577941
$GPGLL,4617.01024,N,08753.28496,W,014618.00,A,A*7A
#T1:1780969578939
$GPRMC,014619.00,A,4617.01018,N,08753.28494,W,0.083,,090626,,,A*6F
#T1:1780969578939
$GPVTG,,T,,M,0.083,N,0.154,K,A*28
#T1:1780969578939
$GPGGA,014619.00,4617.01018,N,08753.28494,W,1,06,1.93,459.3,M,-35.0,M,,*6E
#T1:1780969578939
$GPGSA,A,3,01,03,31,32,25,28,,,,,,,3.15,1.93,2.50*05
#T1:1780969578939
$GPGSV,3,1,12,01,25,266,33,02,13,241,09,03,36,311,42,04,02,284,*79
#T1:1780969578940
$GPGSV,3,2,12,10,14,154,,12,10,034,08,13,09,034,15,25,35,062,27*7A
#T1:1780969578940
$GPGSV,3,3,12,26,24,176,,28,82,054,22,31,65,231,26,32,53,089,26*7E
#T1:1780969578940
$GPGLL,4617.01018,N,08753.28494,W,014619.00,A,A*76
#T1:1780969579935
$GPRMC,014620.00,A,4617.01013,N,08753.28487,W,0.099,,090626,,,A*67
#T1:1780969579936
$GPVTG,,T,,M,0.099,N,0.184,K,A*2E
#T1:1780969579936
$GPGGA,014620.00,4617.01013,N,08753.28487,W,1,07,1.49,459.2,M,-35.0,M,,*6A
#T1:1780969579936
$GPGSA,A,3,01,03,02,31,32,25,28,,,,,,2.31,1.49,1.76*00
#T1:1780969579936
$GPGSV,3,1,12,01,25,266,33,02,13,241,09,03,36,311,42,04,02,284,*79
#T1:1780969579936
$GPGSV,3,2,12,10,14,154,,12,10,034,07,13,09,034,15,25,35,062,27*75
#T1:1780969579937
$GPGSV,3,3,12,26,24,176,,28,82,054,22,31,65,231,26,32,53,089,26*7E
#T1:1780969579937
$GPGLL,4617.01013,N,08753.28487,W,014620.00,A,A*75
#T1:1780969580935
$GPRMC,014621.00,A,4617.01006,N,08753.28484,W,0.265,,090626,,,A*60
#T1:1780969580935
$GPVTG,,T,,M,0.265,N,0.491,K,A*2E
#T1:1780969580935
$GPGGA,014621.00,4617.01006,N,08753.28484,W,1,07,1.49,459.1,M,-35.0,M,,*6F
#T1:1780969580935
$GPGSA,A,3,01,03,02,31,32,25,28,,,,,,2.31,1.49,1.76*00
#T1:1780969580936
$GPGSV,3,1,12,01,25,266,33,02,13,241,09,03,36,311,42,04,02,284,*79
#T1:1780969580936
$GPGSV,3,2,12,10,14,154,,12,10,034,07,13,09,034,14,25,35,062,27*74
#T1:1780969580937
$GPGSV,3,3,12,26,24,176,,28,82,054,21,31,65,231,26,32,53,089,26*7D
#T1:1780969580937
$GPGLL,4617.01006,N,08753.28484,W,014621.00,A,A*73
#T1:1780969581931
$GPRMC,014622.00,A,4617.01000,N,08753.28498,W,0.165,,090626,,,A*6B
#T1:1780969581931
$GPVTG,,T,,M,0.165,N,0.306,K,A*24
#T1:1780969581931
$GPGGA,014622.00,4617.01000,N,08753.28498,W,1,08,1.35,459.5,M,-35.0,M,,*67
#T1:1780969581931
$GPGSA,A,3,01,03,02,31,32,25,12,28,,,,,1.94,1.35,1.39*0F
#T1:1780969581932
$GPGSV,3,1,12,01,25,266,33,02,13,241,09,03,36,311,42,04,02,284,*79
#T1:1780969581932
$GPGSV,3,2,12,10,14,154,,12,10,034,07,13,09,034,12,25,35,062,26*73
#T1:1780969581933
$GPGSV,3,3,12,26,24,176,,28,82,054,22,31,65,231,26,32,53,089,26*7E
#T1:1780969581933
$GPGLL,4617.01000,N,08753.28498,W,014622.00,A,A*7B
#T1:1780969582926
$GPRMC,014623.00,A,4617.00991,N,08753.28517,W,0.196,,090626,,,A*60
#T1:1780969582926
$GPVTG,,T,,M,0.196,N,0.363,K,A*2B
#T1:1780969582927
$GPGGA,014623.00,4617.00991,N,08753.28517,W,1,08,1.35,460.2,M,-35.0,M,,*6D
#T1:1780969582927
$GPGSA,A,3,01,03,02,31,32,25,12,28,,,,,1.94,1.35,1.39*0F
#T1:1780969582928
$GPGSV,3,1,12,01,25,266,33,02,13,241,09,03,36,311,42,04,02,284,*79
#T1:1780969582928
$GPGSV,3,2,12,10,14,154,,12,10,034,07,13,09,034,12,25,35,062,26*73
#T1:1780969582928
$GPGSV,3,3,12,26,24,176,,28,82,054,22,31,65,231,26,32,53,089,26*7E
#T1:1780969582928
$GPGLL,4617.00991,N,08753.28517,W,014623.00,A,A*7C
