#T1:1781058170863
$GPRMC,022251.00,A,4617.00286,N,08753.28147,W,0.008,,100626,,,A*66
#T1:1781058170864
$GPVTG,,T,,M,0.008,N,0.016,K,A*2C
#T1:1781058170865
$GPGGA,022251.00,4617.00286,N,08753.28147,W,1,07,1.37,445.5,M,-35.0,M,,*68
#T1:1781058170865
$GPGSA,A,3,03,31,04,32,25,28,01,,,,,,2.00,1.37,1.45*0D
#T1:1781058170866
$GPGSV,3,1,12,01,14,250,27,02,00,230,12,03,50,295,42,04,16,293,36*7E
#T1:1781058170866
$GPGSV,3,2,12,06,01,345,,16,14,183,,25,24,047,30,26,43,170,20*70
#T1:1781058170867
$GPGSV,3,3,12,28,63,054,29,29,05,084,,31,83,270,25,32,37,105,34*70
#T1:1781058170867
$GPGLL,4617.00286,N,08753.28147,W,022251.00,A,A*74
#T1:1781058171042
$GPTXT,01,01,02,u-blox ag - www.u-blox.com*50
#T1:1781058171042
$GPTXT,01,01,02,HW  UBX-G70xx   00070000 FF7FFFFFo*69
#T1:1781058171043
$GPTXT,01,01,02,ROM CORE 1.00 (59842) Jun 27 2012 17:43:52*59
#T1:1781058171043
$GPTXT,01,01,02,PROTVER 14.00*1E
#T1:1781058171043
$GPTXT,01,01,02,ANTSUPERV=AC SD PDoS SR*20
#T1:1781058171043
$GPTXT,01,01,02,ANTSTATUS=OK*3B
#T1:1781058171043
$GPTXT,01,01,02,LLC FFFFFFFF-FFFFFFFF-FFFFFFFF-FFFFFFFF-FFFFFFFD*2C
#T1:1781058171847
$GPRMC,022252.00,A,4617.00275,N,08753.28153,W,0.041,,100626,,,A*61
#T1:1781058171847
$GPVTG,,T,,M,0.041,N,0.075,K,A*24
#T1:1781058171847
$GPGGA,022252.00,4617.00275,N,08753.28153,W,1,07,1.37,445.6,M,-35.0,M,,*61
#T1:1781058171847
$GPGSA,A,3,03,31,04,32,25,28,01,,,,,,2.00,1.37,1.45*0D
#T1:1781058171847
$GPGSV,3,1,12,01,14,250,27,02,00,230,11,03,50,295,42,04,16,293,37*7C
#T1:1781058171847
$GPGSV,3,2,12,06,01,345,,16,14,183,,25,24,047,31,26,43,170,20*71
#T1:1781058171847
$GPGSV,3,3,12,28,63,054,29,29,05,084,,31,83,270,25,32,37,105,34*70
#T1:1781058171848
$GPGLL,4617.00275,N,08753.28153,W,022252.00,A,A*7E
#T1:1781058172840
$GPRMC,022253.00,A,4617.00264,N,08753.28161,W,0.090,,100626,,,A*6D
#T1:1781058172840
$GPVTG,,T,,M,0.090,N,0.166,K,A*2B
#T1:1781058172840
$GPGGA,022253.00,4617.00264,N,08753.28161,W,1,07,1.37,445.7,M,-35.0,M,,*60
#T1:1781058172840
$GPGSA,A,3,03,31,04,32,25,28,01,,,,,,2.00,1.37,1.45*0D
#T1:1781058172842
$GPGSV,3,1,12,01,14,250,26,02,00,230,10,03,50,295,42,04,16,293,37*7C
#T1:1781058172842
$GPGSV,3,2,12,06,01,345,,16,14,183,,25,24,047,31,26,43,170,20*71
#T1:1781058172842
$GPGSV,3,3,12,28,63,054,29,29,05,084,,31,83,270,26,32,37,105,34*73
#T1:1781058172842
$GPGLL,4617.00264,N,08753.28161,W,022253.00,A,A*7E
#T1:1781058173831
$GPRMC,022254.00,A,4617.00265,N,08753.28162,W,0.054,,100626,,,A*60
#T1:1781058173831
$GPVTG,,T,,M,0.054,N,0.100,K,A*23
#T1:1781058173831
$GPGGA,022254.00,4617.00265,N,08753.28162,W,1,07,1.37,445.7,M,-35.0,M,,*65
#T1:1781058173831
$GPGSA,A,3,03,31,04,32,25,28,01,,,,,,2.00,1.37,1.45*0D
#T1:1781058173832
$GPGSV,3,1,12,01,14,250,26,02,00,230,08,03,50,295,42,04,16,293,37*75
#T1:1781058173832
$GPGSV,3,2,12,06,01,345,,16,14,183,,25,24,047,31,26,43,170,20*71
#T1:1781058173832
$GPGSV,3,3,12,28,63,054,29,29,05,084,,31,83,270,26,32,37,105,34*73
#T1:1781058173833
$GPGLL,4617.00265,N,08753.28162,W,022254.00,A,A*7B
#T1:1781058174826
$GPRMC,022255.00,A,4617.00259,N,08753.28166,W,0.085,,100626,,,A*66
#T1:1781058174826
$GPVTG,,T,,M,0.085,N,0.157,K,A*2D
#T1:1781058174826
$GPGGA,022255.00,4617.00259,N,08753.28166,W,1,07,1.37,445.8,M,-35.0,M,,*60
#T1:1781058174826
$GPGSA,A,3,03,31,04,32,25,28,01,,,,,,2.00,1.37,1.45*0D
#T1:1781058174827
$GPGSV,3,1,12,01,14,250,26,02,00,230,08,03,50,295,42,04,16,293,37*75
#T1:1781058174827
$GPGSV,3,2,12,06,01,345,,16,14,183,,25,24,047,31,26,43,170,20*71
#T1:1781058174827
$GPGSV,3,3,12,28,63,054,29,29,05,084,,31,83,270,26,32,37,105,34*73
#T1:1781058174827
$GPGLL,4617.00259,N,08753.28166,W,022255.00,A,A*71
#T1:1781058175813
$GPRMC,022256.00,A,4617.00264,N,08753.28167,W,0.624,359.65,100626,,,A*75
#T1:1781058175813
$GPVTG,359.65,T,,M,0.624,N,1.157,K,A*33
#T1:1781058175813
$GPGGA,022256.00,4617.00264,N,08753.28167,W,1,07,1.37,446.1,M,-35.0,M,,*66
#T1:1781058175813
$GPGSA,A,3,03,31,04,32,25,28,01,,,,,,2.00,1.37,1.45*0D
#T1:1781058175814
$GPGSV,3,1,12,01,14,250,26,02,00,230,08,03,50,295,43,04,16,293,39*7A
#T1:1781058175814
$GPGSV,3,2,12,06,01,345,,16,14,183,,25,24,047,31,26,43,170,20*71
#T1:1781058175814
$GPGSV,3,3,12,28,63,054,29,29,05,084,,31,83,270,26,32,37,105,34*73
#T1:1781058175814
$GPGLL,4617.00264,N,08753.28167,W,022256.00,A,A*7D
#T1:1781058176804
$GPRMC,022257.00,A,4617.00265,N,08753.28168,W,0.012,,100626,,,A*6B
#T1:1781058176804
$GPVTG,,T,,M,0.012,N,0.021,K,A*23
#T1:1781058176804
$GPGGA,022257.00,4617.00265,N,08753.28168,W,1,07,1.37,446.2,M,-35.0,M,,*6A
#T1:1781058176804
$GPGSA,A,3,03,31,04,32,25,28,01,,,,,,2.00,1.37,1.45*0D
#T1:1781058176805
$GPGSV,3,1,12,01,14,250,26,02,00,230,,03,50,295,43,04,16,293,38*73
#T1:1781058176805
$GPGSV,3,2,12,06,01,345,,16,14,183,,25,24,047,32,26,43,170,21*73
#T1:1781058176805
$GPGSV,3,3,12,28,63,054,29,29,05,084,,31,83,270,26,32,37,105,35*72
#T1:1781058176805
$GPGLL,4617.00265,N,08753.28168,W,022257.00,A,A*72
#T1:1781058177796
$GPRMC,022258.00,A,4617.00260,N,08753.28169,W,0.188,,100626,,,A*62
#T1:1781058177796
$GPVTG,,T,,M,0.188,N,0.348,K,A*2D
#T1:1781058177796
$GPGGA,022258.00,4617.00260,N,08753.28169,W,1,07,1.37,446.2,M,-35.0,M,,*61
#T1:1781058177796
$GPGSA,A,3,03,31,04,32,25,28,01,,,,,,2.00,1.37,1.45*0D
#T1:1781058177797
$GPGSV,3,1,12,01,14,250,26,02,00,230,,03,50,295,43,04,16,293,38*73
#T1:1781058177797
$GPGSV,3,2,12,06,01,345,,16,14,183,,25,24,047,33,26,43,170,21*72
#T1:1781058177798
$GPGSV,3,3,12,28,63,054,29,29,05,084,,31,83,270,27,32,37,105,35*73
#T1:1781058177798
$GPGLL,4617.00260,N,08753.28169,W,022258.00,A,A*79
#T1:1781058178791
$GPRMC,022259.00,A,4617.00254,N,08753.28171,W,0.030,,100626,,,A*6F
#T1:1781058178791
$GPVTG,,T,,M,0.030,N,0.055,K,A*20
#T1:1781058178791
$GPGGA,022259.00,4617.00254,N,08753.28171,W,1,07,1.37,446.4,M,-35.0,M,,*68
#T1:1781058178791
$GPGSA,A,3,03,31,04,32,25,28,01,,,,,,2.00,1.37,1.45*0D
#T1:1781058178792
$GPGSV,3,1,12,01,14,250,25,02,00,230,,03,50,295,42,04,16,293,38*71
#T1:1781058178792
$GPGSV,3,2,12,06,01,345,,16,14,183,17,25,24,047,32,26,43,170,22*76
#T1:1781058178792
$GPGSV,3,3,12,28,63,054,29,29,05,083,,31,83,270,27,32,37,105,35*74
#T1:1781058178792
$GPGLL,4617.00254,N,08753.28171,W,022259.00,A,A*76
#T1:1781058179779
$GPRMC,022300.00,A,4617.00248,N,08753.28175,W,0.130,,100626,,,A*6A
#T1:1781058179779
$GPVTG,,T,,M,0.130,N,0.240,K,A*27
#T1:1781058179779
$GPGGA,022300.00,4617.00248,N,08753.28175,W,1,07,1.37,446.6,M,-35.0,M,,*6E
#T1:1781058179780
$GPGSA,A,3,03,31,04,32,25,28,01,,,,,,2.00,1.37,1.45*0D
#T1:1781058179781
$GPGSV,3,1,12,01,14,250,25,02,00,230,13,03,50,295,43,04,16,293,38*72
#T1:1781058179782
$GPGSV,3,2,12,06,01,345,,16,14,183,17,25,24,047,33,26,43,170,21*74
#T1:1781058179782
$GPGSV,3,3,12,28,63,054,29,29,05,083,,31,83,270,27,32,37,105,35*74
#T1:1781058179782
$GPGLL,4617.00248,N,08753.28175,W,022300.00,A,A*72
#T1:1781058180779
$GPRMC,022301.00,A,4617.00241,N,08753.28179,W,0.060,,100626,,,A*6A
#T1:1781058180779
$GPVTG,,T,,M,0.060,N,0.111,K,A*24
#T1:1781058180779
$GPGGA,022301.00,4617.00241,N,08753.28179,W,1,07,1.37,446.7,M,-35.0,M,,*6B
#T1:1781058180779
$GPGSA,A,3,03,31,04,32,25,28,01,,,,,,2.00,1.37,1.45*0D
#T1:1781058180780
$GPGSV,3,1,12,01,14,250,25,02,00,230,12,03,50,295,43,04,16,293,38*73
#T1:1781058180780
$GPGSV,3,2,12,06,01,345,,16,14,183,16,25,24,047,33,26,43,170,22*76
#T1:1781058180780
$GPGSV,3,3,12,28,63,054,29,29,05,083,,31,84,272,27,32,37,105,36*72
#T1:1781058180780
$GPGLL,4617.00241,N,08753.28179,W,022301.00,A,A*76
#T1:1781058181760
$GPRMC,022302.00,A,4617.00232,N,08753.28183,W,0.168,,100626,,,A*61
#T1:1781058181761
$GPVTG,,T,,M,0.168,N,0.311,K,A*2F
#T1:1781058181761
$GPGGA,022302.00,4617.00232,N,08753.28183,W,1,07,1.37,446.8,M,-35.0,M,,*66
#T1:1781058181761
$GPGSA,A,3,03,31,04,32,25,28,01,,,,,,2.00,1.37,1.45*0D
#T1:1781058181761
$GPGSV,3,1,12,01,14,250,25,02,00,230,11,03,50,295,42,04,16,293,37*7E
#T1:1781058181761
$GPGSV,3,2,12,06,01,345,,16,14,183,15,25,24,047,33,26,43,170,22*75
#T1:1781058181761
$GPGSV,3,3,12,28,63,054,29,29,05,083,,31,84,272,26,32,37,105,36*73
#T1:1781058181761
$GPGLL,4617.00232,N,08753.28183,W,022302.00,A,A*74
#T1:1781058182827
$GPRMC,022303.00,A,4617.00225,N,08753.28189,W,0.245,,100626,,,A*60
#T1:1781058182827
$GPVTG,,T,,M,0.245,N,0.455,K,A*24
#T1:1781058182827
$GPGGA,022303.00,4617.00225,N,08753.28189,W,1,07,1.37,446.9,M,-35.0,M,,*6A
#T1:1781058182827
$GPGSA,A,3,03,31,04,32,25,28,01,,,,,,2.00,1.37,1.45*0D
#T1:1781058182828
$GPGSV,3,1,12,01,14,250,25,02,00,230,11,03,50,295,43,04,16,293,37*7F
#T1:1781058182828
$GPGSV,3,2,12,06,01,345,,16,14,183,16,25,24,047,33,26,43,170,22*76
#T1:1781058182828
$GPGSV,3,3,12,28,63,054,28,29,05,083,,31,84,272,26,32,37,105,36*72
#T1:1781058182828
$GPGLL,4617.00225,N,08753.28189,W,022303.00,A,A*79
#T1:1781058183836
$GPRMC,022304.00,A,4617.00219,N,08753.28193,W,0.078,,100626,,,A*6F
#T1:1781058183836
$GPVTG,,T,,M,0.078,N,0.145,K,A*2C
#T1:1781058183836
$GPGGA,022304.00,4617.00219,N,08753.28193,W,1,07,1.37,447.0,M,-35.0,M,,*61
#T1:1781058183836
$GPGSA,A,3,03,31,04,32,25,28,01,,,,,,2.00,1.37,1.45*0D
#T1:1781058183836
$GPGSV,3,1,12,01,14,250,25,02,00,230,10,03,50,295,42,04,16,293,38*70
#T1:1781058183836
$GPGSV,3,2,12,06,01,345,,16,14,183,17,25,24,047,33,26,43,170,22*77
#T1:1781058183837
$GPGSV,3,3,12,28,63,054,28,29,05,083,,31,84,272,25,32,37,105,36*71
#T1:1781058183837
$GPGLL,4617.00219,N,08753.28193,W,022304.00,A,A*7A
#T1:1781058184857
$GPRMC,022305.00,A,4617.00213,N,08753.28199,W,0.032,,100626,,,A*60
#T1:1781058184857
$GPVTG,,T,,M,0.032,N,0.060,K,A*24
#T1:1781058184857
$GPGGA,022305.00,4617.00213,N,08753.28199,W,1,07,1.37,447.0,M,-35.0,M,,*60
#T1:1781058184857
$GPGSA,A,3,03,31,04,32,25,28,01,,,,,,2.00,1.37,1.45*0D
#T1:1781058184857
$GPGSV,3,1,12,01,14,250,25,02,00,230,08,03,50,295,42,04,16,293,37*76
#T1:1781058184858
$GPGSV,3,2,12,06,01,345,,16,14,183,16,25,24,047,33,26,43,170,21*75
#T1:1781058184858
$GPGSV,3,3,12,28,63,054,28,29,05,083,,31,84,272,25,32,37,105,35*72
#T1:1781058184858
$GPGLL,4617.00213,N,08753.28199,W,022305.00,A,A*7B
#T1:1781058185865
$GPRMC,022306.00,A,4617.00209,N,08753.28205,W,0.086,,100626,,,A*61
#T1:1781058185865
$GPVTG,,T,,M,0.086,N,0.159,K,A*20
#T1:1781058185865
$GPGGA,022306.00,4617.00209,N,08753.28205,W,1,07,1.37,447.2,M,-35.0,M,,*6C
#T1:1781058185866
$GPGSA,A,3,03,31,04,32,25,28,01,,,,,,2.00,1.37,1.45*0D
#T1:1781058185866
$GPGSV,3,1,12,01,14,250,25,02,00,230,07,03,50,295,42,04,16,293,37*79
#T1:1781058185866
$GPGSV,3,2,12,06,01,345,,16,14,183,16,25,24,047,33,26,43,170,22*76
#T1:1781058185866
$GPGSV,3,3,12,28,63,054,28,29,05,083,,31,84,272,25,32,37,105,35*72
#T1:1781058185866
$GPGLL,4617.00209,N,08753.28205,W,022306.00,A,A*75
#T1:1781058186881
$GPRMC,022307.00,A,4617.00207,N,08753.28209,W,0.184,,100626,,,A*61
#T1:1781058186881
$GPVTG,,T,,M,0.184,N,0.342,K,A*2B
#T1:1781058186881
$GPGGA,022307.00,4617.00207,N,08753.28209,W,1,07,1.37,447.4,M,-35.0,M,,*69
#T1:1781058186882
$GPGSA,A,3,03,31,04,32,25,28,01,,,,,,2.00,1.37,1.45*0D
#T1:1781058186882
$GPGSV,3,1,12,01,14,250,25,02,00,230,08,03,50,295,42,04,16,293,37*76
#T1:1781058186883
$GPGSV,3,2,12,06,01,345,,16,14,183,16,25,24,047,32,26,43,170,22*77
#T1:1781058186883
$GPGSV,3,3,12,28,63,054,28,29,05,083,,31,84,272,24,32,37,105,35*73
#T1:1781058186892
$GPGLL,4617.00207,N,08753.28209,W,022307.00,A,A*76
#T1:1781058187883
$GPRMC,022308.00,A,4617.00203,N,08753.28214,W,0.048,,100626,,,A*67
#T1:1781058187883
$GPVTG,,T,,M,0.048,N,0.090,K,A*26
#T1:1781058187883
$GPGGA,022308.00,4617.00203,N,08753.28214,W,1,07,1.37,447.6,M,-35.0,M,,*6C
#T1:1781058187883
$GPGSA,A,3,03,31,04,32,25,28,01,,,,,,2.00,1.37,1.45*0D
#T1:1781058187884
$GPGSV,3,1,12,01,14,250,25,02,00,230,08,03,50,295,42,04,16,293,37*76
#T1:1781058187884
$GPGSV,3,2,12,06,01,345,,16,14,183,16,25,24,047,32,26,43,170,22*77
#T1:1781058187884
$GPGSV,3,3,12,28,63,054,28,29,05,083,,31,84,272,23,32,37,105,35*74
#T1:1781058187884
$GPGLL,4617.00203,N,08753.28214,W,022308.00,A,A*71
#T1:1781058188892
$GPRMC,022309.00,A,4617.00198,N,08753.28219,W,0.114,,100626,,,A*62
#T1:1781058188892
$GPVTG,,T,,M,0.114,N,0.210,K,A*24
#T1:1781058188892
$GPGGA,022309.00,4617.00198,N,08753.28219,W,1,07,1.37,447.7,M,-35.0,M,,*60
#T1:1781058188892
$GPGSA,A,3,03,31,04,32,25,28,01,,,,,,2.00,1.37,1.45*0D
#T1:1781058188892
$GPGSV,3,1,12,01,14,250,25,02,00,230,08,03,50,295,41,04,16,293,37*75
#T1:1781058188892
$GPGSV,3,2,12,06,01,345,,16,14,183,16,25,24,047,32,26,43,170,21*74
#T1:1781058188892
$GPGSV,3,3,12,28,63,054,28,29,05,083,,31,84,272,24,32,37,105,35*73
#T1:1781058188892
$GPGLL,4617.00198,N,08753.28219,W,022309.00,A,A*7C
#T1:1781058189890
$GPRMC,022310.00,A,4617.00196,N,08753.28225,W,0.029,,100626,,,A*64
#T1:1781058189890
$GPVTG,,T,,M,0.029,N,0.053,K,A*2E
#T1:1781058189890
$GPGGA,022310.00,4617.00196,N,08753.28225,W,1,07,1.37,447.8,M,-35.0,M,,*66
#T1:1781058189890
$GPGSA,A,3,03,31,04,32,25,28,01,,,,,,2.00,1.37,1.45*0D
#T1:1781058189891
$GPGSV,3,1,12,01,14,250,25,02,00,230,08,03,50,295,41,04,16,293,37*75
#T1:1781058189891
$GPGSV,3,2,12,06,01,345,,16,14,183,16,25,24,047,31,26,43,170,21*77
#T1:1781058189891
$GPGSV,3,3,12,28,63,054,27,29,05,083,,31,84,272,24,32,37,105,35*7C
#T1:1781058189891
$GPGLL,4617.00196,N,08753.28225,W,022310.00,A,A*75
#T1:1781058190893
$GPRMC,022311.00,A,4617.00191,N,08753.28234,W,0.583,,100626,,,A*67
#T1:1781058190893
$GPVTG,,T,,M,0.583,N,1.079,K,A*22
#T1:1781058190893
$GPGGA,022311.00,4617.00191,N,08753.28234,W,1,07,1.37,448.0,M,-35.0,M,,*67
#T1:1781058190893
$GPGSA,A,3,03,31,04,32,25,28,01,,,,,,1.99,1.37,1.45*0E
#T1:1781058190894
$GPGSV,3,1,12,01,14,250,25,02,00,230,08,03,50,295,42,04,16,293,38*79
#T1:1781058190894
$GPGSV,3,2,12,06,01,345,,16,14,183,,25,24,047,31,26,43,170,20*71
#T1:1781058190895
$GPGSV,3,3,12,28,63,054,27,29,05,083,,31,84,272,23,32,37,105,35*7B
#T1:1781058190895
$GPGLL,4617.00191,N,08753.28234,W,022311.00,A,A*73
#T1:1781058191896
$GPRMC,022312.00,A,4617.00195,N,08753.28235,W,0.070,,100626,,,A*68
#T1:1781058191896
$GPVTG,,T,,M,0.070,N,0.129,K,A*2E
#T1:1781058191896
$GPGGA,022312.00,4617.00195,N,08753.28235,W,1,07,1.37,448.0,M,-35.0,M,,*61
#T1:1781058191896
$GPGSA,A,3,03,31,04,32,25,28,01,,,,,,1.99,1.37,1.45*0E
#T1:1781058191897
$GPGSV,3,1,12,01,14,250,25,02,00,230,08,03,50,295,42,04,16,293,37*76
#T1:1781058191897
$GPGSV,3,2,12,06,01,345,,16,14,183,20,25,24,047,31,26,43,170,21*72
#T1:1781058191897
$GPGSV,3,3,12,28,63,054,28,29,05,083,,31,84,272,25,32,37,105,35*72
#T1:1781058191897
$GPGLL,4617.00195,N,08753.28235,W,022312.00,A,A*75
#T1:1781058192895
$GPRMC,022313.00,A,4617.00190,N,08753.28240,W,0.046,,100626,,,A*6B
#T1:1781058192895
$GPVTG,,T,,M,0.046,N,0.086,K,A*2F
#T1:1781058192895
$GPGGA,022313.00,4617.00190,N,08753.28240,W,1,07,1.37,448.1,M,-35.0,M,,*66
#T1:1781058192895
$GPGSA,A,3,03,31,04,32,25,28,01,,,,,,1.99,1.37,1.45*0E
#T1:1781058192895
$GPGSV,3,1,12,01,14,250,25,02,00,230,,03,50,295,41,04,16,293,37*7D
#T1:1781058192895
$GPGSV,3,2,12,06,01,345,,16,14,183,18,25,24,047,31,26,43,170,21*79
#T1:1781058192896
$GPGSV,3,3,12,28,63,054,28,29,05,083,,31,84,272,25,32,37,105,35*72
#T1:1781058192896
$GPGLL,4617.00190,N,08753.28240,W,022313.00,A,A*73
#T1:1781058193887
$GPRMC,022314.00,A,4617.00195,N,08753.28239,W,0.049,,100626,,,A*68
#T1:1781058193887
$GPVTG,,T,,M,0.049,N,0.090,K,A*27
#T1:1781058193887
$GPGGA,022314.00,4617.00195,N,08753.28239,W,1,07,1.37,448.1,M,-35.0,M,,*6A
#T1:1781058193888
$GPGSA,A,3,03,31,04,32,25,28,01,,,,,,1.99,1.37,1.45*0E
#T1:1781058193888
$GPGSV,3,1,12,01,14,250,25,02,00,230,,03,50,295,41,04,16,293,37*7D
#T1:1781058193888
$GPGSV,3,2,12,06,01,345,,16,14,183,16,25,24,047,31,26,43,170,21*77
#T1:1781058193889
$GPGSV,3,3,12,28,63,054,28,29,05,083,,31,84,272,25,32,37,105,35*72
#T1:1781058193889
$GPGLL,4617.00195,N,08753.28239,W,022314.00,A,A*7F
#T1:1781058194885
$GPRMC,022315.00,A,4617.00195,N,08753.28242,W,0.103,,100626,,,A*6A
#T1:1781058194885
$GPVTG,,T,,M,0.103,N,0.191,K,A*28
#T1:1781058194885
$GPGGA,022315.00,4617.00195,N,08753.28242,W,1,07,1.37,448.4,M,-35.0,M,,*62
#T1:1781058194885
$GPGSA,A,3,03,31,04,32,25,28,01,,,,,,1.99,1.37,1.45*0E
#T1:1781058194885
$GPGSV,3,1,12,01,14,250,25,02,00,230,,03,50,295,41,04,16,293,38*72
#T1:1781058194885
$GPGSV,3,2,12,06,01,345,,16,14,183,17,25,24,047,31,26,43,170,21*76
#T1:1781058194886
$GPGSV,3,3,12,28,63,054,28,29,05,083,,31,84,272,26,32,37,105,35*71
#T1:1781058194886
$GPGLL,4617.00195,N,08753.28242,W,022315.00,A,A*72
#T1:1781058195880
$GPRMC,022316.00,A,4617.00202,N,08753.28242,W,0.086,,100626,,,A*68
#T1:1781058195880
$GPVTG,,T,,M,0.086,N,0.160,K,A*2A
#T1:1781058195880
$GPGGA,022316.00,4617.00202,N,08753.28242,W,1,07,1.37,448.5,M,-35.0,M,,*6D
#T1:1781058195881
$GPGSA,A,3,03,31,04,32,25,28,01,,,,,,1.99,1.37,1.45*0E
#T1:1781058195881
$GPGSV,3,1,12,01,14,250,25,02,00,230,,03,50,295,41,04,16,293,37*7D
#T1:1781058195881
$GPGSV,3,2,12,06,01,345,,16,14,183,16,25,24,047,31,26,43,170,21*77
#T1:1781058195881
$GPGSV,3,3,12,28,63,054,28,29,05,083,,31,84,272,26,32,37,105,36*72
#T1:1781058195881
$GPGLL,4617.00202,N,08753.28242,W,022316.00,A,A*7C
#T1:1781058196880
$GPRMC,022317.00,A,4617.00206,N,08753.28244,W,0.119,,100626,,,A*6C
#T1:1781058196880
$GPVTG,,T,,M,0.119,N,0.221,K,A*2B
#T1:1781058196880
$GPGGA,022317.00,4617.00206,N,08753.28244,W,1,07,1.37,448.6,M,-35.0,M,,*6D
#T1:1781058196880
$GPGSA,A,3,03,31,04,32,25,28,01,,,,,,1.99,1.37,1.45*0E
#T1:1781058196880
$GPGSV,3,1,12,01,14,250,24,02,00,230,,03,51,294,41,04,16,293,37*7C
#T1:1781058196880
$GPGSV,3,2,12,06,01,345,,16,14,183,16,25,24,047,31,26,43,170,21*77
#T1:1781058196880
$GPGSV,3,3,12,28,63,054,27,29,05,083,,31,84,272,25,32,37,105,36*7E
#T1:1781058196881
$GPGLL,4617.00206,N,08753.28244,W,022317.00,A,A*7F
#T1:1781058197870
$GPRMC,022318.00,A,4617.00210,N,08753.28247,W,0.198,,100626,,,A*6E
#T1:1781058197870
$GPVTG,,T,,M,0.198,N,0.367,K,A*21
#T1:1781058197870
$GPGGA,022318.00,4617.00210,N,08753.28247,W,1,07,1.37,448.8,M,-35.0,M,,*68
#T1:1781058197870
$GPGSA,A,3,03,31,04,32,25,28,01,,,,,,1.99,1.37,1.45*0E
#T1:1781058197871
$GPGSV,3,1,12,01,14,250,25,02,00,230,,03,51,294,41,04,16,293,37*7D
#T1:1781058197871
$GPGSV,3,2,12,06,01,345,,16,14,183,17,25,24,047,31,26,43,170,21*76
#T1:1781058197871
$GPGSV,3,3,12,28,63,054,27,29,05,083,,31,84,272,26,32,37,105,36*7D
#T1:1781058197871
$GPGLL,4617.00210,N,08753.28247,W,022318.00,A,A*74
#T1:1781058198870
$GPRMC,022319.00,A,4617.00218,N,08753.28249,W,0.030,,100626,,,A*6A
#T1:1781058198870
$GPVTG,,T,,M,0.030,N,0.055,K,A*20
#T1:1781058198870
$GPGGA,022319.00,4617.00218,N,08753.28249,W,1,07,1.37,448.9,M,-35.0,M,,*6E
#T1:1781058198870
$GPGSA,A,3,03,31,04,32,25,28,01,,,,,,1.99,1.37,1.45*0E
#T1:1781058198871
$GPGSV,3,1,12,01,14,250,25,02,00,230,,03,51,294,41,04,16,293,37*7D
#T1:1781058198871
$GPGSV,3,2,12,06,01,345,,16,14,183,16,25,24,047,31,26,43,170,20*76
#T1:1781058198871
$GPGSV,3,3,12,28,63,054,27,29,05,083,,31,84,272,26,32,37,105,36*7D
#T1:1781058198871
$GPGLL,4617.00218,N,08753.28249,W,022319.00,A,A*73
#T1:1781058199857
$GPRMC,022320.00,A,4617.00226,N,08753.28249,W,0.086,,100626,,,A*60
#T1:1781058199857
$GPVTG,,T,,M,0.086,N,0.159,K,A*20
#T1:1781058199857
$GPGGA,022320.00,4617.00226,N,08753.28249,W,1,07,1.37,449.1,M,-35.0,M,,*60
#T1:1781058199857
$GPGSA,A,3,03,31,04,32,25,28,01,,,,,,1.99,1.37,1.45*0E
#T1:1781058199858
$GPGSV,3,1,12,01,14,250,23,02,00,230,,03,51,294,41,04,16,293,37*7B
#T1:1781058199858
$GPGSV,3,2,12,06,01,345,,16,14,183,17,25,24,047,31,26,43,170,20*77
#T1:1781058199858
$GPGSV,3,3,12,28,63,054,26,29,05,083,,31,84,272,26,32,37,105,36*7C
#T1:1781058199858
$GPGLL,4617.00226,N,08753.28249,W,022320.00,A,A*74
