#T1:1781128765615
$GPRMC,232810.00,A,4617.00579,N,08753.28148,W,0.650,,020426,,,A*68
#T1:1781128766612
$GPGGA,232810.00,4617.00579,N,08753.28148,W,1,08,1.13,425.1,M,-33.2,M,,*63
#T1:1781128767611
$GPZDA,232810.00,02,04,2026,00,00*6C
#T1:1781128768612
$GPRMC,232811.00,A,4617.00579,N,08753.28148,W,0.650,,020426,,,A*69
#T1:1781128769612
$GPGGA,232811.00,4617.00579,N,08753.28148,W,1,08,1.13,425.1,M,-33.2,M,,*62
#T1:1781128770612
$GPZDA,232811.00,02,04,2026,00,00*6D
#T1:1781128771611
$GPRMC,232810.00,A,4617.00579,N,08753.28148,W,0.650,,020426,,,A*68
#T1:1781128775950
$GPGGA,232810.00,4617.00579,N,08753.28148,W,1,08,1.13,425.1,M,-33.2,M,,*63
#T1:1781128775950
$GPZDA,232810.00,02,04,2026,00,00*6C
#T1:1781128775950
$GPRMC,232811.00,A,4617.00579,N,08753.28148,W,0.650,,020426,,,A*69
#T1:1781128775950
$GPGGA,232811.00,4617.00579,N,08753.28148,W,1,08,1.13,425.1,M,-33.2,M,,*62
#T1:1781128776611
$GPZDA,232811.00,02,04,2026,00,00*6D
#T1:1781128777612
$GPRMC,232810.00,A,4617.00579,N,08753.28148,W,0.650,,020426,,,A*68
#T1:1781128778611
$GPGGA,232810.00,4617.00579,N,08753.28148,W,1,08,1.13,425.1,M,-33.2,M,,*63
#T1:1781128779611
$GPZDA,232810.00,02,04,2026,00,00*6C
#T1:1781128780612
$GPRMC,232811.00,A,4617.00579,N,08753.28148,W,0.650,,020426,,,A*69
#T1:1781128781611
$GPGGA,232811.00,4617.00579,N,08753.28148,W,1,08,1.13,425.1,M,-33.2,M,,*62
#T1:1781128782611
$GPZDA,232811.00,02,04,2026,00,00*6D
#T1:1781128783612
$GPRMC,232810.00,A,4617.00579,N,08753.28148,W,0.650,,020426,,,A*68
#T1:1781128784611
$GPGGA,232810.00,4617.00579,N,08753.28148,W,1,08,1.13,425.1,M,-33.2,M,,*63
#T1:1781128785611
$GPZDA,232810.00,02,04,2026,00,00*6C
#T1:1781128786612
$GPRMC,232811.00,A,4617.00579,N,08753.28148,W,0.650,,020426,,,A*69
#T1:1781128787611
$GPGGA,232811.00,4617.00579,N,08753.28148,W,1,08,1.13,425.1,M,-33.2,M,,*62
#T1:1781128788611
$GPZDA,232811.00,02,04,2026,00,00*6D
#T1:1781128789612
$GPRMC,232810.00,A,4617.00579,N,08753.28148,W,0.650,,020426,,,A*68
#T1:1781128790611
$GPGGA,232810.00,4617.00579,N,08753.28148,W,1,08,1.13,425.1,M,-33.2,M,,*63
#T1:1781128791611
$GPZDA,232810.00,02,04,2026,00,00*6C
#T1:1781128792612
$GPRMC,232811.00,A,4617.00579,N,08753.28148,W,0.650,,020426,,,A*69
#T1:1781128793611
$GPGGA,232811.00,4617.00579,N,08753.28148,W,1,08,1.13,425.1,M,-33.2,M,,*62
#T1:1781128794611
$GPZDA,232811.00,02,04,2026,00,00*6D
#T1:1781128795612
$GPRMC,232810.00,A,4617.00579,N,08753.28148,W,0.650,,020426,,,A*68
#T1:1781128796611
$GPGGA,232810.00,4617.00579,N,08753.28148,W,1,08,1.13,425.1,M,-33.2,M,,*63
#T1:1781128797611
$GPZDA,232810.00,02,04,2026,00,00*6C
#T1:1781128798612
$GPRMC,232811.00,A,4617.00579,N,08753.28148,W,0.650,,020426,,,A*69
