#T1:1781129635967
$GPRMC,232810.00,A,4617.00579,N,08753.28148,W,0.650,,020426,,,A*68
#T1:1781129636961
$GPGGA,232810.00,4617.00579,N,08753.28148,W,1,08,1.13,425.1,M,-33.2,M,,*63
#T1:1781129637960
$GPZDA,232810.00,02,04,2026,00,00*6C
#T1:1781129638961
$GPRMC,232811.00,A,4617.00579,N,08753.28148,W,0.650,,020426,,,A*69
#T1:1781129643296
$GPGGA,232811.00,4617.00579,N,08753.28148,W,1,08,1.13,425.1,M,-33.2,M,,*62
#T1:1781129643297
$GPZDA,232811.00,02,04,2026,00,00*6D
#T1:1781129643297
$GPRMC,232810.00,A,4617.00579,N,08753.28148,W,0.650,,020426,,,A*68
#T1:1781129643297
$GPGGA,232810.00,4617.00579,N,08753.28148,W,1,08,1.13,425.1,M,-33.2,M,,*63
#T1:1781129643961
$GPZDA,232810.00,02,04,2026,00,00*6C
#T1:1781129644960
$GPRMC,232811.00,A,4617.00579,N,08753.28148,W,0.650,,020426,,,A*69
#T1:1781129645960
$GPGGA,232811.00,4617.00579,N,08753.28148,W,1,08,1.13,425.1,M,-33.2,M,,*62
#T1:1781129646961
$GPZDA,232811.00,02,04,2026,00,00*6D
#T1:1781129647960
$GPRMC,232810.00,A,4617.00579,N,08753.28148,W,0.650,,020426,,,A*68
#T1:1781129648960
$GPGGA,232810.00,4617.00579,N,08753.28148,W,1,08,1.13,425.1,M,-33.2,M,,*63
#T1:1781129649961
$GPZDA,232810.00,02,04,2026,00,00*6C
#T1:1781129650960
$GPRMC,232811.00,A,4617.00579,N,08753.28148,W,0.650,,020426,,,A*69
#T1:1781129651960
$GPGGA,232811.00,4617.00579,N,08753.28148,W,1,08,1.13,425.1,M,-33.2,M,,*62
#T1:1781129652961
$GPZDA,232811.00,02,04,2026,00,00*6D
#T1:1781129653960
$GPRMC,232810.00,A,4617.00579,N,08753.28148,W,0.650,,020426,,,A*68
#T1:1781129654960
$GPGGA,232810.00,4617.00579,N,08753.28148,W,1,08,1.13,425.1,M,-33.2,M,,*63
#T1:1781129655961
$GPZDA,232810.00,02,04,2026,00,00*6C
#T1:1781129656960
$GPRMC,232811.00,A,4617.00579,N,08753.28148,W,0.650,,020426,,,A*69
#T1:1781129657960
$GPGGA,232811.00,4617.00579,N,08753.28148,W,1,08,1.13,425.1,M,-33.2,M,,*62
#T1:1781129658961
$GPZDA,232811.00,02,04,2026,00,00*6D
#T1:1781129659960
$GPRMC,232810.00,A,4617.00579,N,08753.28148,W,0.650,,020426,,,A*68
#T1:1781129660960
$GPGGA,232810.00,4617.00579,N,08753.28148,W,1,08,1.13,425.1,M,-33.2,M,,*63
#T1:1781129661961
$GPZDA,232810.00,02,04,2026,00,00*6C
#T1:1781129662960
$GPRMC,232811.00,A,4617.00579,N,08753.28148,W,0.650,,020426,,,A*69
#T1:1781129663960
$GPGGA,232811.00,4617.00579,N,08753.28148,W,1,08,1.13,425.1,M,-33.2,M,,*62
#T1:1781129664960
$GPZDA,232811.00,02,04,2026,00,00*6D
#T1:1781129665960
$GPRMC,232810.00,A,4617.00579,N,08753.28148,W,0.650,,020426,,,A*68
#T1:1781129666960
$GPGGA,232810.00,4617.00579,N,08753.28148,W,1,08,1.13,425.1,M,-33.2,M,,*63
#T1:1781129667960
$GPZDA,232810.00,02,04,2026,00,00*6C
#T1:1781129668960
$GPRMC,232811.00,A,4617.00579,N,08753.28148,W,0.650,,020426,,,A*69
