#T1:1780715875108
$GPRMC,031755.00,A,4617.00254,N,08753.27955,W,0.764,,060626,,,A*64
#T1:1780715875129
$GPVTG,,T,,M,0.764,N,1.416,K,A*24
#T1:1780715875164
$GPGGA,031755.00,4617.00254,N,08753.27955,W,1,06,1.92,435.8,M,-35.0,M,,*64
#T1:1780715875182
$GPGSA,A,3,06,03,32,04,31,26,,,,,,,2.56,1.92,1.69*01
#T1:1780715875208
$GPGSV,3,1,11,01,03,238,15,03,55,265,14,04,30,301,26,06,05,331,25*77
#T1:1780715875237
$GPGSV,3,2,11,16,32,181,,25,10,040,,26,61,157,13,28,46,062,14*7F
#T1:1780715875249
$GPGSV,3,3,11,29,13,069,11,31,76,040,18,32,22,117,22*47
#T1:1780715875257
$GPGLL,4617.00254,N,08753.27955,W,031755.00,A,A*7C
#T1:1780715875377
$GPTXT,01,01,02,u-blox ag - www.u-blox.com*50
#T1:1780715875383
$GPTXT,01,01,02,HW  UBX-G70xx   00070000 FF7FFFFFo*69
#T1:1780715875387
$GPTXT,01,01,02,ROM CORE 1.00 (59842) Jun 27 2012 17:43:52*59
#T1:1780715875388
$GPTXT,01,01,02,PROTVER 14.00*1E
#T1:1780715875389
$GPTXT,01,01,02,ANTSUPERV=AC SD PDoS SR*20
#T1:1780715875398
$GPTXT,01,01,02,ANTSTATUS=OK*3B
#T1:1780715875403
$GPTXT,01,01,02,LLC FFFFFFFF-FFFFFFFF-FFFFFFFF-FFFFFFFF-FFFFFFFD*2C
#T1:1780715876064
$GPRMC,031756.00,A,4617.00252,N,08753.28001,W,0.807,,060626,,,A*6C
#T1:1780715876064
$GPVTG,,T,,M,0.807,N,1.494,K,A*24
#T1:1780715876065
$GPGGA,031756.00,4617.00252,N,08753.28001,W,1,05,2.02,436.0,M,-35.0,M,,*64
#T1:1780715876071
$GPGSA,A,3,06,03,32,04,31,,,,,,,,2.64,2.02,1.70*06
#T1:1780715876073
$GPGSV,3,1,11,01,03,238,13,03,55,265,14,04,30,301,27,06,05,331,25*70
#T1:1780715876074
$GPGSV,3,2,11,16,32,181,,25,10,040,,26,61,157,17,28,46,062,16*79
#T1:1780715876090
$GPGSV,3,3,11,29,13,069,11,31,76,040,18,32,22,117,22*47
#T1:1780715876091
$GPGLL,4617.00252,N,08753.28001,W,031756.00,A,A*7E
#T1:1780715877059
$GPRMC,031757.00,A,4617.00217,N,08753.28033,W,0.587,,060626,,,A*68
#T1:1780715877059
$GPVTG,,T,,M,0.587,N,1.087,K,A*27
#T1:1780715877060
$GPGGA,031757.00,4617.00217,N,08753.28033,W,1,06,1.53,435.4,M,-35.0,M,,*66
#T1:1780715877062
$GPGSA,A,3,06,03,32,04,31,28,,,,,,,2.15,1.53,1.51*0E
#T1:1780715877062
$GPGSV,3,1,11,01,03,238,10,03,55,265,13,04,30,301,27,06,05,331,25*74
#T1:1780715877062
$GPGSV,3,2,11,16,32,181,,25,10,040,,26,61,157,16,28,46,062,17*79
#T1:1780715877063
$GPGSV,3,3,11,29,13,069,10,31,76,040,18,32,22,117,21*45
#T1:1780715877064
$GPGLL,4617.00217,N,08753.28033,W,031757.00,A,A*7F
#T1:1780715878061
$GPRMC,031758.00,A,4617.00229,N,08753.27986,W,0.025,,060626,,,A*6F
#T1:1780715878062
$GPVTG,,T,,M,0.025,N,0.047,K,A*27
#T1:1780715878063
$GPGGA,031758.00,4617.00229,N,08753.27986,W,1,06,1.53,435.4,M,-35.0,M,,*6C
#T1:1780715878067
$GPGSA,A,3,06,03,32,04,31,28,,,,,,,2.15,1.53,1.51*0E
#T1:1780715878068
$GPGSV,3,1,11,01,03,238,08,03,55,265,16,04,30,301,29,06,05,331,26*75
#T1:1780715878068
$GPGSV,3,2,11,16,32,181,,25,10,040,06,26,61,157,17,28,46,062,18*71
#T1:1780715878068
$GPGSV,3,3,11,29,13,069,,31,76,040,20,32,22,117,23*4D
#T1:1780715878079
$GPGLL,4617.00229,N,08753.27986,W,031758.00,A,A*75
#T1:1780715879060
$GPRMC,031759.00,A,4617.00193,N,08753.28013,W,0.257,,060626,,,A*61
#T1:1780715879060
$GPVTG,,T,,M,0.257,N,0.476,K,A*26
#T1:1780715879061
$GPGGA,031759.00,4617.00193,N,08753.28013,W,1,06,1.53,435.0,M,-35.0,M,,*61
#T1:1780715879065
$GPGSA,A,3,06,03,32,04,31,28,,,,,,,2.15,1.53,1.51*0E
#T1:1780715879065
$GPGSV,3,1,11,01,03,238,,03,55,265,16,04,30,301,29,06,05,331,26*7D
#T1:1780715879066
$GPGSV,3,2,11,16,32,181,,25,10,040,07,26,61,157,17,28,46,062,19*71
#T1:1780715879066
$GPGSV,3,3,11,29,13,069,,31,76,040,21,32,22,117,24*4B
#T1:1780715879066
$GPGLL,4617.00193,N,08753.28013,W,031759.00,A,A*7C
#T1:1780715880068
$GPRMC,031800.00,A,4617.00166,N,08753.28002,W,0.255,,060626,,,A*6A
#T1:1780715880071
$GPVTG,,T,,M,0.255,N,0.473,K,A*21
#T1:1780715880071
$GPGGA,031800.00,4617.00166,N,08753.28002,W,1,07,1.40,434.4,M,-35.0,M,,*6E
#T1:1780715880072
$GPGSA,A,3,06,03,32,04,31,26,28,,,,,,2.05,1.40,1.50*08
#T1:1780715880072
$GPGSV,3,1,11,01,03,238,,03,55,265,16,04,30,301,28,06,05,331,25*7F
#T1:1780715880073
$GPGSV,3,2,11,16,32,181,,25,10,040,10,26,61,157,17,28,46,062,19*77
#T1:1780715880073
$GPGSV,3,3,11,29,13,069,,31,76,040,21,32,22,117,23*4C
#T1:1780715880077
$GPGLL,4617.00166,N,08753.28002,W,031800.00,A,A*75
#T1:1780715881066
$GPRMC,031801.00,A,4617.00193,N,08753.27997,W,0.372,,060626,,,A*6F
#T1:1780715881066
$GPVTG,,T,,M,0.372,N,0.690,K,A*2A
#T1:1780715881074
$GPGGA,031801.00,4617.00193,N,08753.27997,W,1,07,1.40,434.1,M,-35.0,M,,*6A
#T1:1780715881075
$GPGSA,A,3,06,03,32,04,31,26,28,,,,,,2.05,1.40,1.50*08
#T1:1780715881075
$GPGSV,3,1,11,01,03,238,,03,55,265,15,04,30,301,28,06,05,331,25*7C
#T1:1780715881076
$GPGSV,3,2,11,16,32,181,,25,10,040,11,26,61,157,18,28,46,062,18*78
#T1:1780715881076
$GPGSV,3,3,11,29,13,069,,31,76,040,19,32,22,117,23*47
#T1:1780715881076
$GPGLL,4617.00193,N,08753.27997,W,031801.00,A,A*74
#T1:1780715882070
$GPRMC,031802.00,A,4617.00158,N,08753.27967,W,0.539,,060626,,,A*6D
#T1:1780715882072
$GPVTG,,T,,M,0.539,N,0.998,K,A*24
#T1:1780715882072
$GPGGA,031802.00,4617.00158,N,08753.27967,W,1,07,1.40,433.7,M,-35.0,M,,*60
#T1:1780715882072
$GPGSA,A,3,06,03,32,04,31,26,28,,,,,,2.05,1.40,1.50*08
#T1:1780715882072
$GPGSV,3,1,11,01,03,238,,03,55,265,15,04,30,301,28,06,05,331,25*7C
#T1:1780715882073
$GPGSV,3,2,11,16,32,181,,25,10,040,13,26,61,157,17,28,46,062,18*75
#T1:1780715882073
$GPGSV,3,3,11,29,13,069,,31,76,040,19,32,22,117,22*46
#T1:1780715882073
$GPGLL,4617.00158,N,08753.27967,W,031802.00,A,A*7F
#T1:1780715883063
$GPRMC,031803.00,A,4617.00151,N,08753.27961,W,0.412,,060626,,,A*6B
#T1:1780715883063
$GPVTG,,T,,M,0.412,N,0.763,K,A*26
#T1:1780715883063
$GPGGA,031803.00,4617.00151,N,08753.27961,W,1,08,1.23,433.1,M,-35.0,M,,*62
#T1:1780715883064
$GPGSA,A,3,06,03,32,25,04,31,26,28,,,,,1.92,1.23,1.47*01
#T1:1780715883066
$GPGSV,3,1,11,01,03,238,,03,55,265,15,04,30,301,28,06,05,331,25*7C
#T1:1780715883066
$GPGSV,3,2,11,16,32,181,,25,10,040,14,26,61,157,16,28,46,062,19*72
#T1:1780715883067
$GPGSV,3,3,11,29,13,069,,31,76,040,19,32,22,117,22*46
#T1:1780715883068
$GPGLL,4617.00151,N,08753.27961,W,031803.00,A,A*71
#T1:1780715884066
$GPRMC,031804.00,A,4617.00120,N,08753.27966,W,0.569,,060626,,,A*60
#T1:1780715884071
$GPVTG,,T,,M,0.569,N,1.053,K,A*2E
#T1:1780715884071
$GPGGA,031804.00,4617.00120,N,08753.27966,W,1,08,1.23,432.7,M,-35.0,M,,*63
#T1:1780715884072
$GPGSA,A,3,06,03,32,25,04,31,26,28,,,,,1.92,1.23,1.47*01
#T1:1780715884072
$GPGSV,3,1,11,01,03,238,07,03,55,265,13,04,30,301,27,06,05,331,24*73
#T1:1780715884073
$GPGSV,3,2,11,16,32,181,,25,10,040,15,26,61,157,14,28,46,062,19*71
#T1:1780715884074
$GPGSV,3,3,11,29,13,069,,31,76,040,18,32,22,117,21*44
#T1:1780715884077
$GPGLL,4617.00120,N,08753.27966,W,031804.00,A,A*77
