#T1:1780970199673
$GPTXT,01,01,02,u-blox ag - www.u-blox.com*50
#T1:1780970199673
$GPTXT,01,01,02,HW  UBX-G70xx   00070000 FF7FFFFFo*69
#T1:1780970199674
$GPTXT,01,01,02,ROM CORE 1.00 (59842) Jun 27 2012 17:43:52*59
#T1:1780970199674
$GPTXT,01,01,02,PROTVER 14.00*1E
#T1:1780970199674
$GPTXT,01,01,02,ANTSUPERV=AC SD PDoS SR*20
#T1:1780970199675
$GPTXT,01,01,02,ANTSTATUS=OK*3B
#T1:1780970199675
$GPTXT,01,01,02,LLC FFFFFFFF-FFFFFFFF-FFFFFFFF-FFFFFFFF-FFFFFFFD*2C
#T1:1780970199915
$GPRMC,015640.00,A,4617.00863,N,08753.28017,W,0.567,,090626,,,A*67
#T1:1780970199915
$GPVTG,,T,,M,0.567,N,1.051,K,A*22
#T1:1780970199915
$GPGGA,015640.00,4617.00863,N,08753.28017,W,1,07,1.70,450.7,M,-35.0,M,,*68
#T1:1780970199915
$GPGSA,A,3,01,03,31,32,25,12,28,,,,,,2.45,1.70,1.77*09
#T1:1780970199915
$GPGSV,4,1,13,01,23,261,15,02,10,238,,03,40,308,42,04,05,286,19*7A
#T1:1780970199915
$GPGSV,4,2,13,10,10,155,,12,06,032,18,13,06,033,13,16,02,185,*7E
#T1:1780970199915
$GPGSV,4,3,13,25,32,057,23,26,29,175,,28,77,051,25,31,70,235,22*7D
#T1:1780970199915
$GPGSV,4,4,13,32,49,094,23*4B
#T1:1780970199916
$GPGLL,4617.00863,N,08753.28017,W,015640.00,A,A*71
#T1:1780970200925
$GPRMC,015641.00,A,4617.00838,N,08753.28009,W,0.975,,090626,,,A*68
#T1:1780970200925
$GPVTG,,T,,M,0.975,N,1.805,K,A*24
#T1:1780970200925
$GPGGA,015641.00,4617.00838,N,08753.28009,W,1,07,1.70,450.1,M,-35.0,M,,*6E
#T1:1780970200926
$GPGSA,A,3,01,03,31,32,25,12,28,,,,,,2.45,1.70,1.77*09
#T1:1780970200926
$GPGSV,4,1,13,01,23,261,15,02,10,238,,03,40,308,42,04,05,286,17*74
#T1:1780970200926
$GPGSV,4,2,13,10,10,155,15,12,06,032,19,13,06,033,14,16,02,185,*7C
#T1:1780970200926
$GPGSV,4,3,13,25,32,057,24,26,29,175,,28,77,051,26,31,70,235,22*79
#T1:1780970200926
$GPGSV,4,4,13,32,49,094,24*4C
#T1:1780970200927
$GPGLL,4617.00838,N,08753.28009,W,015641.00,A,A*71
#T1:1780970201930
$GPRMC,015642.00,A,4617.00787,N,08753.28006,W,1.568,,090626,,,A*6E
#T1:1780970201930
$GPVTG,,T,,M,1.568,N,2.903,K,A*21
#T1:1780970201930
$GPGGA,015642.00,4617.00787,N,08753.28006,W,1,07,1.70,449.7,M,-35.0,M,,*67
#T1:1780970201930
$GPGSA,A,3,01,03,31,32,25,12,28,,,,,,2.45,1.70,1.77*09
#T1:1780970201931
$GPGSV,4,1,13,01,23,261,15,02,10,238,,03,40,308,42,04,05,286,16*75
#T1:1780970201931
$GPGSV,4,2,13,10,10,155,14,12,06,032,19,13,06,033,14,16,02,185,*7D
#T1:1780970201931
$GPGSV,4,3,13,25,32,057,25,26,29,175,,28,77,051,26,31,70,235,22*78
#T1:1780970201931
$GPGSV,4,4,13,32,49,094,23*4B
#T1:1780970201932
$GPGLL,4617.00787,N,08753.28006,W,015642.00,A,A*76
#T1:1780970202934
$GPRMC,015643.00,A,4617.00794,N,08753.27987,W,0.176,,090626,,,A*68
#T1:1780970202934
$GPVTG,,T,,M,0.176,N,0.327,K,A*25
#T1:1780970202934
$GPGGA,015643.00,4617.00794,N,08753.27987,W,1,07,1.70,449.3,M,-35.0,M,,*6F
#T1:1780970202935
$GPGSA,A,3,01,03,31,32,25,12,28,,,,,,2.45,1.70,1.76*08
#T1:1780970202935
$GPGSV,4,1,13,01,23,261,15,02,10,238,,03,40,308,42,04,05,286,14*77
#T1:1780970202935
$GPGSV,4,2,13,10,10,155,12,12,06,032,19,13,06,033,16,16,02,185,*79
#T1:1780970202935
$GPGSV,4,3,13,25,32,057,24,26,29,175,,28,77,051,25,31,70,235,22*7A
#T1:1780970202935
$GPGSV,4,4,13,32,49,094,23*4B
#T1:1780970202936
$GPGLL,4617.00794,N,08753.27987,W,015643.00,A,A*7A
#T1:1780970203931
$GPRMC,015644.00,A,4617.00780,N,08753.27979,W,0.150,,090626,,,A*6F
#T1:1780970203931
$GPVTG,,T,,M,0.150,N,0.277,K,A*25
#T1:1780970203932
$GPGGA,015644.00,4617.00780,N,08753.27979,W,1,07,1.70,449.5,M,-35.0,M,,*6A
#T1:1780970203932
$GPGSA,A,3,01,03,31,32,25,12,28,,,,,,2.45,1.70,1.76*08
#T1:1780970203932
$GPGSV,4,1,13,01,23,261,09,02,10,238,,03,40,308,42,04,05,286,14*7A
#T1:1780970203932
$GPGSV,4,2,13,10,09,155,11,12,06,032,19,13,06,033,16,16,02,185,*72
#T1:1780970203933
$GPGSV,4,3,13,25,32,057,23,26,29,175,,28,77,051,25,31,70,235,21*7E
#T1:1780970203933
$GPGSV,4,4,13,32,49,094,22*4A
#T1:1780970203933
$GPGLL,4617.00780,N,08753.27979,W,015644.00,A,A*79
#T1:1780970204940
$GPRMC,015645.00,A,4617.00802,N,08753.27930,W,1.453,,090626,,,A*61
#T1:1780970204940
$GPVTG,,T,,M,1.453,N,2.691,K,A*2C
#T1:1780970204940
$GPGGA,015645.00,4617.00802,N,08753.27930,W,1,08,0.95,449.4,M,-35.0,M,,*67
#T1:1780970204940
$GPGSA,A,3,01,03,31,32,10,25,12,28,,,,,1.51,0.95,1.17*02
#T1:1780970204941
$GPGSV,4,1,13,01,23,261,09,02,10,238,,03,40,308,42,04,05,286,12*7C
#T1:1780970204942
$GPGSV,4,2,13,10,09,155,12,12,06,032,19,13,06,033,16,16,02,185,*71
#T1:1780970204942
$GPGSV,4,3,13,25,32,057,23,26,29,175,,28,77,051,25,31,70,235,22*7D
#T1:1780970204942
$GPGSV,4,4,13,32,49,094,22*4A
#T1:1780970204942
$GPGLL,4617.00802,N,08753.27930,W,015645.00,A,A*70
#T1:1780970205934
$GPRMC,015646.00,A,4617.00819,N,08753.27935,W,0.880,,090626,,,A*6E
#T1:1780970205934
$GPVTG,,T,,M,0.880,N,1.630,K,A*27
#T1:1780970205935
$GPGGA,015646.00,4617.00819,N,08753.27935,W,1,07,1.70,449.9,M,-35.0,M,,*63
#T1:1780970205935
$GPGSA,A,3,01,03,31,32,25,12,28,,,,,,2.45,1.70,1.76*08
#T1:1780970205935
$GPGSV,4,1,13,01,23,261,09,02,10,238,,03,40,308,42,04,05,286,12*7C
#T1:1780970205935
$GPGSV,4,2,13,10,09,155,,12,06,031,19,13,06,033,16,16,02,185,*71
#T1:1780970205935
$GPGSV,4,3,13,25,32,057,23,26,29,175,,28,77,051,24,31,70,235,22*7C
#T1:1780970205935
$GPGSV,4,4,13,32,49,094,22*4A
#T1:1780970205935
$GPGLL,4617.00819,N,08753.27935,W,015646.00,A,A*7C
#T1:1780970206938
$GPRMC,015647.00,A,4617.00803,N,08753.27932,W,0.859,,090626,,,A*67
#T1:1780970206938
$GPVTG,,T,,M,0.859,N,1.590,K,A*2A
#T1:1780970206938
$GPGGA,015647.00,4617.00803,N,08753.27932,W,1,07,1.70,450.3,M,-35.0,M,,*6C
#T1:1780970206938
$GPGSA,A,3,01,03,31,32,25,12,28,,,,,,2.45,1.70,1.76*08
#T1:1780970206938
$GPGSV,4,1,13,01,23,261,09,02,10,238,,03,40,308,42,04,05,286,12*7C
#T1:1780970206938
$GPGSV,4,2,13,10,09,155,,12,06,031,18,13,06,032,17,16,02,185,*70
#T1:1780970206939
$GPGSV,4,3,13,25,32,057,22,26,29,175,,28,77,051,25,31,70,235,22*7C
#T1:1780970206939
$GPGSV,4,4,13,32,49,094,21*49
#T1:1780970206939
$GPGLL,4617.00803,N,08753.27932,W,015647.00,A,A*71
#T1:1780970207937
$GPRMC,015648.00,A,4617.00791,N,08753.27948,W,1.113,,090626,,,A*67
#T1:1780970207937
$GPVTG,,T,,M,1.113,N,2.061,K,A*24
#T1:1780970207938
$GPGGA,015648.00,4617.00791,N,08753.27948,W,1,07,1.70,451.4,M,-35.0,M,,*6C
#T1:1780970207938
$GPGSA,A,3,01,03,31,32,25,12,28,,,,,,2.45,1.70,1.76*08
#T1:1780970207938
$GPGSV,4,1,13,01,23,261,09,02,10,238,,03,40,308,42,04,05,286,10*7E
#T1:1780970207938
$GPGSV,4,2,13,10,09,155,06,12,06,031,18,13,06,032,18,16,02,185,*79
#T1:1780970207938
$GPGSV,4,3,13,25,32,057,22,26,29,175,,28,77,051,25,31,70,235,22*7C
#T1:1780970207938
$GPGSV,4,4,13,32,49,094,20*48
#T1:1780970207938
$GPGLL,4617.00791,N,08753.27948,W,015648.00,A,A*77
#T1:1780970208932
$GPRMC,015649.00,A,4617.00785,N,08753.27949,W,0.201,,090626,,,A*63
#T1:1780970208932
$GPVTG,,T,,M,0.201,N,0.372,K,A*26
#T1:1780970208933
$GPGGA,015649.00,4617.00785,N,08753.27949,W,1,06,2.87,451.5,M,-35.0,M,,*62
#T1:1780970208933
$GPGSA,A,3,03,31,32,25,12,28,,,,,,,4.51,2.87,3.48*0E
#T1:1780970208934
$GPGSV,4,1,13,01,23,261,,02,10,238,,03,40,308,42,04,05,286,08*7E
#T1:1780970208934
$GPGSV,4,2,13,10,09,155,08,12,06,031,18,13,06,032,18,16,02,185,*77
#T1:1780970208934
$GPGSV,4,3,13,25,32,057,23,26,29,175,,28,77,051,25,31,70,235,23*7C
#T1:1780970208934
$GPGSV,4,4,13,32,49,094,19*42
#T1:1780970208934
$GPGLL,4617.00785,N,08753.27949,W,015649.00,A,A*72
#T1:1780970209923
$GPRMC,015650.00,A,4617.00844,N,08753.27916,W,1.633,,090626,,,A*67
#T1:1780970209923
$GPVTG,,T,,M,1.633,N,3.023,K,A*26
#T1:1780970209923
$GPGGA,015650.00,4617.00844,N,08753.27916,W,1,06,2.87,451.5,M,-35.0,M,,*62
#T1:1780970209923
$GPGSA,A,3,03,31,32,25,12,28,,,,,,,4.51,2.87,3.48*0E
#T1:1780970209924
$GPGSV,4,1,13,01,23,261,,02,10,238,,03,40,308,42,04,05,286,07*71
#T1:1780970209924
$GPGSV,4,2,13,10,09,155,09,12,06,031,18,13,06,032,19,16,02,185,*77
#T1:1780970209924
$GPGSV,4,3,13,25,32,057,24,26,29,175,,28,77,051,25,31,70,235,23*7B
#T1:1780970209924
$GPGSV,4,4,13,32,49,094,18*43
#T1:1780970209925
$GPGLL,4617.00844,N,08753.27916,W,015650.00,A,A*72
#T1:1780970210923
$GPRMC,015651.00,A,4617.00849,N,08753.27906,W,1.166,,090626,,,A*6D
#T1:1780970210923
$GPVTG,,T,,M,1.166,N,2.160,K,A*26
#T1:1780970210923
$GPGGA,015651.00,4617.00849,N,08753.27906,W,1,06,2.87,451.5,M,-35.0,M,,*6F
#T1:1780970210923
$GPGSA,A,3,03,31,32,25,12,28,,,,,,,4.51,2.87,3.48*0E
#T1:1780970210924
$GPGSV,4,1,13,01,23,261,,02,10,238,,03,40,308,42,04,05,286,07*71
#T1:1780970210924
$GPGSV,4,2,13,10,09,155,09,12,06,031,19,13,06,032,19,16,02,185,*76
#T1:1780970210924
$GPGSV,4,3,13,25,32,057,24,26,29,175,,28,77,051,26,31,70,235,24*7F
#T1:1780970210925
$GPGSV,4,4,13,32,49,094,18*43
#T1:1780970210925
$GPGLL,4617.00849,N,08753.27906,W,015651.00,A,A*7F
#T1:1780970211916
$GPRMC,015652.00,A,4617.00863,N,08753.27909,W,1.285,,090626,,,A*67
#T1:1780970211916
$GPVTG,,T,,M,1.285,N,2.379,K,A*22
#T1:1780970211916
$GPGGA,015652.00,4617.00863,N,08753.27909,W,1,06,2.87,452.0,M,-35.0,M,,*6D
#T1:1780970211917
$GPGSA,A,3,03,31,32,25,12,28,,,,,,,4.51,2.87,3.48*0E
#T1:1780970211918
$GPGSV,4,1,13,01,23,261,,02,10,238,,03,40,308,42,04,05,286,07*71
#T1:1780970211918
$GPGSV,4,2,13,10,09,155,09,12,06,031,19,13,06,032,19,16,02,185,*76
#T1:1780970211918
$GPGSV,4,3,13,25,32,057,24,26,29,175,,28,77,051,26,31,70,235,25*7E
#T1:1780970211918
$GPGSV,4,4,13,32,49,094,17*4C
#T1:1780970211918
$GPGLL,4617.00863,N,08753.27909,W,015652.00,A,A*7B
#T1:1780970212917
$GPRMC,015653.00,A,4617.00809,N,08753.27918,W,1.338,,090626,,,A*6D
#T1:1780970212917
$GPVTG,,T,,M,1.338,N,2.478,K,A*23
#T1:1780970212917
$GPGGA,015653.00,4617.00809,N,08753.27918,W,1,07,1.15,451.2,M,-35.0,M,,*68
#T1:1780970212917
$GPGSA,A,3,03,31,32,10,25,12,28,,,,,,1.74,1.15,1.30*08
#T1:1780970212918
$GPGSV,4,1,13,01,23,261,,02,10,238,,03,40,308,42,04,05,286,07*71
#T1:1780970212918
$GPGSV,4,2,13,10,09,155,13,12,06,031,20,13,06,032,19,16,02,185,*77
#T1:1780970212919
$GPGSV,4,3,13,25,32,057,24,26,29,175,,28,77,051,26,31,70,235,25*7E
#T1:1780970212919
$GPGSV,4,4,13,32,49,094,17*4C
#T1:1780970212919
$GPGLL,4617.00809,N,08753.27918,W,015653.00,A,A*76
#T1:1780970213910
$GPRMC,015654.00,A,4617.00821,N,08753.27919,W,0.933,,090626,,,A*61
#T1:1780970213910
$GPVTG,,T,,M,0.933,N,1.727,K,A*29
#T1:1780970213910
$GPGGA,015654.00,4617.00821,N,08753.27919,W,1,07,1.15,452.5,M,-35.0,M,,*60
#T1:1780970213910
$GPGSA,A,3,03,31,32,10,25,12,28,,,,,,1.74,1.15,1.30*08
#T1:1780970213911
$GPGSV,4,1,13,01,23,261,,02,10,238,,03,40,308,42,04,05,286,07*71
#T1:1780970213911
$GPGSV,4,2,13,10,09,155,13,12,06,031,20,13,06,032,19,16,02,185,*77
#T1:1780970213911
$GPGSV,4,3,13,25,32,057,25,26,29,175,,28,77,051,26,31,70,235,26*7C
#T1:1780970213911
$GPGSV,4,4,13,32,49,094,16*4D
#T1:1780970213911
$GPGLL,4617.00821,N,08753.27919,W,015654.00,A,A*7A
#T1:1780970214900
$GPRMC,015655.00,A,4617.00785,N,08753.27936,W,0.257,,090626,,,A*65
#T1:1780970214903
$GPVTG,,T,,M,0.257,N,0.475,K,A*25
#T1:1780970214903
$GPGGA,015655.00,4617.00785,N,08753.27936,W,1,07,1.15,451.9,M,-35.0,M,,*62
#T1:1780970214903
$GPGSA,A,3,03,31,32,10,25,12,28,,,,,,1.74,1.15,1.30*08
#T1:1780970214903
$GPGSV,4,1,13,01,23,261,,02,10,238,,03,40,308,42,04,05,286,*76
#T1:1780970214903
$GPGSV,4,2,13,10,09,155,14,12,06,031,21,13,06,032,20,16,02,185,*7B
#T1:1780970214903
$GPGSV,4,3,13,25,32,057,25,26,29,175,,28,77,051,27,31,70,235,26*7D
#T1:1780970214903
$GPGSV,4,4,13,32,49,094,16*4D
#T1:1780970214903
$GPGLL,4617.00785,N,08753.27936,W,015655.00,A,A*77
#T1:1780970215898
$GPRMC,015656.00,A,4617.00781,N,08753.27940,W,0.273,,090626,,,A*65
#T1:1780970215898
$GPVTG,,T,,M,0.273,N,0.506,K,A*26
#T1:1780970215898
$GPGGA,015656.00,4617.00781,N,08753.27940,W,1,07,1.15,452.0,M,-35.0,M,,*6E
#T1:1780970215898
$GPGSA,A,3,03,31,32,10,25,12,28,,,,,,1.74,1.15,1.30*08
#T1:1780970215899
$GPGSV,4,1,13,01,23,261,,02,10,238,,03,40,308,42,04,05,286,*76
#T1:1780970215899
$GPGSV,4,2,13,10,09,155,14,12,06,031,21,13,06,032,19,16,02,185,*71
#T1:1780970215899
$GPGSV,4,3,13,25,32,057,25,26,29,175,,28,77,051,26,31,70,235,26*7C
#T1:1780970215899
$GPGSV,4,4,13,32,49,094,15*4E
#T1:1780970215899
$GPGLL,4617.00781,N,08753.27940,W,015656.00,A,A*71
#T1:1780970216893
$GPRMC,015657.00,A,4617.00798,N,08753.27949,W,0.570,,090626,,,A*61
#T1:1780970216893
$GPVTG,,T,,M,0.570,N,1.056,K,A*23
#T1:1780970216894
$GPGGA,015657.00,4617.00798,N,08753.27949,W,1,07,1.15,452.5,M,-35.0,M,,*6B
#T1:1780970216894
$GPGSA,A,3,03,31,32,10,25,12,28,,,,,,1.74,1.15,1.30*08
#T1:1780970216894
$GPGSV,4,1,13,01,23,261,,02,10,238,,03,40,308,42,04,05,286,*76
#T1:1780970216895
$GPGSV,4,2,13,10,09,155,13,12,06,031,21,13,06,032,19,16,02,185,*76
#T1:1780970216895
$GPGSV,4,3,13,25,32,057,25,26,29,175,,28,77,051,27,31,70,235,26*7D
#T1:1780970216895
$GPGSV,4,4,13,32,49,094,13*48
#T1:1780970216895
$GPGLL,4617.00798,N,08753.27949,W,015657.00,A,A*71
#T1:1780970217887
$GPRMC,015658.00,A,4617.00841,N,08753.27940,W,0.662,,090626,,,A*6C
#T1:1780970217887
$GPVTG,,T,,M,0.662,N,1.226,K,A*26
#T1:1780970217888
$GPGGA,015658.00,4617.00841,N,08753.27940,W,1,07,1.15,454.1,M,-35.0,M,,*64
#T1:1780970217888
$GPGSA,A,3,03,31,32,10,25,12,28,,,,,,1.74,1.15,1.30*08
#T1:1780970217889
$GPGSV,4,1,13,01,23,261,,02,10,238,,03,40,308,42,04,05,286,*76
#T1:1780970217889
$GPGSV,4,2,13,10,09,155,14,12,06,031,22,13,06,032,19,16,02,185,*72
#T1:1780970217889
$GPGSV,4,3,13,25,32,057,25,26,29,175,,28,77,051,27,31,70,235,26*7D
#T1:1780970217889
$GPGSV,4,4,13,32,49,094,10*4B
#T1:1780970217889
$GPGLL,4617.00841,N,08753.27940,W,015658.00,A,A*7C
#T1:1780970218882
$GPRMC,015659.00,A,4617.00855,N,08753.27945,W,0.558,,090626,,,A*67
#T1:1780970218882
$GPVTG,,T,,M,0.558,N,1.033,K,A*2A
#T1:1780970218882
$GPGGA,015659.00,4617.00855,N,08753.27945,W,1,07,1.15,454.4,M,-35.0,M,,*60
#T1:1780970218882
$GPGSA,A,3,03,31,32,10,25,12,28,,,,,,1.74,1.15,1.30*08
#T1:1780970218883
$GPGSV,4,1,13,01,23,261,,02,10,238,,03,40,308,42,04,05,286,*76
#T1:1780970218883
$GPGSV,4,2,13,10,09,155,14,12,06,031,22,13,06,032,19,16,02,185,*72
#T1:1780970218884
$GPGSV,4,3,13,25,32,057,25,26,29,175,,28,77,051,27,31,70,235,26*7D
#T1:1780970218884
$GPGSV,4,4,13,32,49,094,11*4A
#T1:1780970218884
$GPGLL,4617.00855,N,08753.27945,W,015659.00,A,A*7D
#T1:1780970219873
$GPRMC,015700.00,A,4617.00856,N,08753.27953,W,0.597,,090626,,,A*6D
#T1:1780970219873
$GPVTG,,T,,M,0.597,N,1.106,K,A*2E
#T1:1780970219874
$GPGGA,015700.00,4617.00856,N,08753.27953,W,1,07,1.15,453.5,M,-35.0,M,,*6F
#T1:1780970219874
$GPGSA,A,3,03,31,32,10,25,12,28,,,,,,1.74,1.15,1.30*08
#T1:1780970219874
$GPGSV,4,1,13,01,23,261,,02,10,238,,03,40,308,42,04,05,286,*76
#T1:1780970219875
$GPGSV,4,2,13,10,09,155,13,12,06,031,22,13,06,032,19,16,02,185,*75
#T1:1780970219875
$GPGSV,4,3,13,25,32,057,25,26,29,174,,28,77,051,27,31,70,235,26*7C
#T1:1780970219875
$GPGSV,4,4,13,32,49,094,12*49
#T1:1780970219875
$GPGLL,4617.00856,N,08753.27953,W,015700.00,A,A*74
#T1:1780970220873
$GPRMC,015701.00,A,4617.00884,N,08753.27959,W,0.753,,090626,,,A*63
#T1:1780970220873
$GPVTG,,T,,M,0.753,N,1.394,K,A*2D
#T1:1780970220874
$GPGGA,015701.00,4617.00884,N,08753.27959,W,1,07,1.15,454.6,M,-35.0,M,,*6F
#T1:1780970220874
$GPGSA,A,3,03,31,32,10,25,12,28,,,,,,1.74,1.15,1.30*08
#T1:1780970220874
$GPGSV,4,1,13,01,23,261,,02,10,238,,03,40,308,42,04,05,286,*76
#T1:1780970220875
$GPGSV,4,2,13,10,09,155,14,12,06,031,22,13,06,032,19,16,02,185,*72
#T1:1780970220875
$GPGSV,4,3,13,25,32,057,25,26,29,174,,28,77,051,27,31,70,235,25*7F
#T1:1780970220875
$GPGSV,4,4,13,32,49,094,13*48
#T1:1780970220875
$GPGLL,4617.00884,N,08753.27959,W,015701.00,A,A*70
#T1:1780970221854
$GPRMC,015702.00,A,4617.00873,N,08753.27976,W,0.918,,090626,,,A*64
#T1:1780970221854
$GPVTG,,T,,M,0.918,N,1.700,K,A*25
#T1:1780970221855
$GPGGA,015702.00,4617.00873,N,08753.27976,W,1,07,1.15,454.4,M,-35.0,M,,*6B
#T1:1780970221855
$GPGSA,A,3,03,31,32,10,25,12,28,,,,,,1.74,1.15,1.30*08
#T1:1780970221856
$GPGSV,4,1,13,01,23,261,,02,10,238,,03,40,308,42,04,05,286,*76
#T1:1780970221856
$GPGSV,4,2,13,10,09,155,15,12,06,031,22,13,06,032,19,16,02,185,*73
#T1:1780970221856
$GPGSV,4,3,13,25,32,057,25,26,29,174,,28,77,051,27,31,70,235,25*7F
#T1:1780970221856
$GPGSV,4,4,13,32,49,094,13*48
#T1:1780970221856
$GPGLL,4617.00873,N,08753.27976,W,015702.00,A,A*76
#T1:1780970222857
$GPRMC,015703.00,A,4617.00895,N,08753.27983,W,0.805,,090626,,,A*6A
#T1:1780970222857
$GPVTG,,T,,M,0.805,N,1.490,K,A*22
#T1:1780970222858
$GPGGA,015703.00,4617.00895,N,08753.27983,W,1,07,1.15,454.9,M,-35.0,M,,*65
#T1:1780970222858
$GPGSA,A,3,03,31,32,10,25,12,28,,,,,,1.73,1.15,1.30*0F
#T1:1780970222858
$GPGSV,4,1,13,01,23,261,,02,10,238,,03,40,308,42,04,05,286,*76
#T1:1780970222858
$GPGSV,4,2,13,10,09,155,15,12,06,031,22,13,06,032,20,16,02,185,*79
#T1:1780970222858
$GPGSV,4,3,13,25,32,057,25,26,29,174,,28,77,051,27,31,70,235,25*7F
#T1:1780970222859
$GPGSV,4,4,13,32,49,094,12*49
#T1:1780970222859
$GPGLL,4617.00895,N,08753.27983,W,015703.00,A,A*75
#T1:1780970223844
$GPRMC,015704.00,A,4617.00927,N,08753.27991,W,0.666,,090626,,,A*6D
#T1:1780970223844
$GPVTG,,T,,M,0.666,N,1.233,K,A*26
#T1:1780970223845
$GPGGA,015704.00,4617.00927,N,08753.27991,W,1,07,1.15,455.6,M,-35.0,M,,*67
#T1:1780970223845
$GPGSA,A,3,03,31,32,10,25,12,28,,,,,,1.73,1.15,1.29*07
#T1:1780970223845
$GPGSV,4,1,13,01,23,261,,02,10,238,,03,40,308,42,04,05,286,*76
#T1:1780970223845
$GPGSV,4,2,13,10,09,155,15,12,06,031,23,13,06,032,19,16,02,185,*72
#T1:1780970223845
$GPGSV,4,3,13,25,32,057,25,26,29,174,,28,77,051,27,31,70,235,25*7F
#T1:1780970223845
$GPGSV,4,4,13,32,49,094,12*49
#T1:1780970223845
$GPGLL,4617.00927,N,08753.27991,W,015704.00,A,A*79
#T1:1780970224838
$GPRMC,015705.00,A,4617.00940,N,08753.28000,W,0.776,,090626,,,A*63
#T1:1780970224838
$GPVTG,,T,,M,0.776,N,1.437,K,A*24
#T1:1780970224839
$GPGGA,015705.00,4617.00940,N,08753.28000,W,1,07,1.15,455.5,M,-35.0,M,,*6A
#T1:1780970224839
$GPGSA,A,3,03,31,32,10,25,12,28,,,,,,1.73,1.15,1.29*07
#T1:1780970224839
$GPGSV,4,1,13,01,23,261,08,02,10,238,,03,40,308,42,04,05,286,*7E
#T1:1780970224839
$GPGSV,4,2,13,10,09,155,15,12,06,031,23,13,06,032,19,16,02,185,*72
#T1:1780970224839
$GPGSV,4,3,13,25,32,057,25,26,29,174,,28,77,051,27,31,70,236,25*7C
#T1:1780970224839
$GPGSV,4,4,13,32,49,094,12*49
#T1:1780970224839
$GPGLL,4617.00940,N,08753.28000,W,015705.00,A,A*77
#T1:1780970225828
$GPRMC,015706.00,A,4617.00984,N,08753.28006,W,1.126,,090626,,,A*6C
#T1:1780970225828
$GPVTG,,T,,M,1.126,N,2.086,K,A*2B
#T1:1780970225828
$GPGGA,015706.00,4617.00984,N,08753.28006,W,1,07,1.15,456.5,M,-35.0,M,,*64
#T1:1780970225828
$GPGSA,A,3,03,31,32,10,25,12,28,,,,,,1.73,1.15,1.29*07
#T1:1780970225828
$GPGSV,4,1,13,01,23,261,09,02,10,238,,03,40,308,42,04,05,286,*7F
#T1:1780970225828
$GPGSV,4,2,13,10,09,155,14,12,06,031,23,13,06,032,19,16,02,185,*73
#T1:1780970225829
$GPGSV,4,3,13,25,32,057,25,26,29,174,,28,77,051,27,31,70,236,25*7C
#T1:1780970225829
$GPGSV,4,4,13,32,48,094,13*49
#T1:1780970225829
$GPGLL,4617.00984,N,08753.28006,W,015706.00,A,A*7A
#T1:1780970226878
$GPRMC,015707.00,A,4617.01001,N,08753.28023,W,0.943,,090626,,,A*65
#T1:1780970226878
$GPVTG,,T,,M,0.943,N,1.746,K,A*29
#T1:1780970226878
$GPGGA,015707.00,4617.01001,N,08753.28023,W,1,07,1.15,456.9,M,-35.0,M,,*6B
#T1:1780970226878
$GPGSA,A,3,03,31,32,10,25,12,28,,,,,,1.73,1.15,1.29*07
#T1:1780970226879
$GPGSV,4,1,13,01,23,261,14,02,10,238,,03,40,308,42,04,05,286,*73
#T1:1780970226879
$GPGSV,4,2,13,10,09,155,13,12,06,031,23,13,06,032,18,16,02,185,*75
#T1:1780970226879
$GPGSV,4,3,13,25,32,057,25,26,29,174,,28,77,051,27,31,70,236,25*7C
#T1:1780970226879
$GPGSV,4,4,13,32,48,094,13*49
#T1:1780970226879
$GPGLL,4617.01001,N,08753.28023,W,015707.00,A,A*79
#T1:1780970227893
$GPRMC,015708.00,A,4617.00990,N,08753.28047,W,0.406,,090626,,,A*64
#T1:1780970227893
$GPVTG,,T,,M,0.406,N,0.752,K,A*21
#T1:1780970227893
$GPGGA,015708.00,4617.00990,N,08753.28047,W,1,07,1.15,456.9,M,-35.0,M,,*66
#T1:1780970227894
$GPGSA,A,3,03,31,32,10,25,12,28,,,,,,1.73,1.15,1.29*07
#T1:1780970227894
$GPGSV,4,1,13,01,23,261,15,02,10,238,,03,40,308,42,04,05,286,*72
#T1:1780970227894
$GPGSV,4,2,13,10,09,155,13,12,06,031,23,13,06,032,19,16,02,185,*74
#T1:1780970227894
$GPGSV,4,3,13,25,32,057,25,26,29,174,,28,77,051,27,31,70,236,26*7F
#T1:1780970227894
$GPGSV,4,4,13,32,48,094,12*48
#T1:1780970227895
$GPGLL,4617.00990,N,08753.28047,W,015708.00,A,A*74
#T1:1780970228909
$GPRMC,015709.00,A,4617.00971,N,08753.28068,W,0.200,,090626,,,A*67
#T1:1780970228909
$GPVTG,,T,,M,0.200,N,0.370,K,A*25
#T1:1780970228910
$GPGGA,015709.00,4617.00971,N,08753.28068,W,1,08,0.95,456.3,M,-35.0,M,,*69
#T1:1780970228910
$GPGSA,A,3,01,03,31,32,10,25,12,28,,,,,1.50,0.95,1.16*02
#T1:1780970228911
$GPGSV,4,1,13,01,23,261,14,02,10,238,,03,40,308,42,04,05,286,*73
#T1:1780970228911
$GPGSV,4,2,13,10,09,155,13,12,06,031,23,13,06,032,19,16,02,185,*74
#T1:1780970228911
$GPGSV,4,3,13,25,32,057,25,26,29,174,,28,77,051,27,31,70,236,26*7F
#T1:1780970228912
$GPGSV,4,4,13,32,48,094,11*4B
#T1:1780970228912
$GPGLL,4617.00971,N,08753.28068,W,015709.00,A,A*77
