#T1:1781057959863
$GPRMC,021920.00,A,4617.00658,N,08753.28298,W,0.263,,100626,,,A*61
#T1:1781057959864
$GPVTG,,T,,M,0.263,N,0.488,K,A*20
#T1:1781057959864
$GPGGA,021920.00,4617.00658,N,08753.28298,W,1,07,1.42,448.8,M,-35.0,M,,*62
#T1:1781057959865
$GPGSA,A,3,03,31,04,32,25,28,01,,,,,,2.05,1.42,1.48*07
#T1:1781057959866
$GPGSV,3,1,12,01,16,251,26,02,01,231,10,03,49,297,42,04,15,293,34*75
#T1:1781057959866
$GPGSV,3,2,12,06,00,346,,16,13,183,,25,25,048,28,26,42,171,26*74
#T1:1781057959866
$GPGSV,3,3,12,28,64,053,15,29,04,085,,31,82,261,23,32,39,104,24*76
#T1:1781057959866
$GPGLL,4617.00658,N,08753.28298,W,021920.00,A,A*7C
#T1:1781057960052
$GPTXT,01,01,02,u-blox ag - www.u-blox.com*50
#T1:1781057960052
$GPTXT,01,01,02,HW  UBX-G70xx   00070000 FF7FFFFFo*69
#T1:1781057960052
$GPTXT,01,01,02,ROM CORE 1.00 (59842) Jun 27 2012 17:43:52*59
#T1:1781057960052
$GPTXT,01,01,02,PROTVER 14.00*1E
#T1:1781057960052
$GPTXT,01,01,02,ANTSUPERV=AC SD PDoS SR*20
#T1:1781057960053
$GPTXT,01,01,02,ANTSTATUS=OK*3B
#T1:1781057960053
$GPTXT,01,01,02,LLC FFFFFFFF-FFFFFFFF-FFFFFFFF-FFFFFFFF-FFFFFFFD*2C
#T1:1781057960842
$GPRMC,021921.00,A,4617.00654,N,08753.28294,W,0.267,,100626,,,A*64
#T1:1781057960843
$GPVTG,,T,,M,0.267,N,0.494,K,A*29
#T1:1781057960843
$GPGGA,021921.00,4617.00654,N,08753.28294,W,1,07,1.42,448.8,M,-35.0,M,,*63
#T1:1781057960843
$GPGSA,A,3,03,31,04,32,25,28,01,,,,,,2.05,1.42,1.48*07
#T1:1781057960844
$GPGSV,3,1,12,01,16,251,25,02,01,231,10,03,49,297,42,04,15,293,34*76
#T1:1781057960844
$GPGSV,3,2,12,06,00,346,,16,13,183,,25,25,048,28,26,42,171,25*77
#T1:1781057960844
$GPGSV,3,3,12,28,64,053,16,29,04,085,,31,82,263,22,32,39,104,25*77
#T1:1781057960845
$GPGLL,4617.00654,N,08753.28294,W,021921.00,A,A*7D
#T1:1781057961833
$GPRMC,021922.00,A,4617.00644,N,08753.28287,W,0.277,,100626,,,A*65
#T1:1781057961833
$GPVTG,,T,,M,0.277,N,0.513,K,A*26
#T1:1781057961833
$GPGGA,021922.00,4617.00644,N,08753.28287,W,1,07,1.41,448.9,M,-35.0,M,,*61
#T1:1781057961833
$GPGSA,A,3,03,31,04,32,25,28,01,,,,,,2.05,1.41,1.48*04
#T1:1781057961834
$GPGSV,3,1,12,01,16,251,26,02,01,231,,03,49,297,42,04,15,293,35*75
#T1:1781057961834
$GPGSV,3,2,12,06,00,346,,16,13,183,,25,25,048,29,26,42,171,26*75
#T1:1781057961834
$GPGSV,3,3,12,28,64,053,16,29,04,085,,31,82,263,22,32,38,104,24*77
#T1:1781057961834
$GPGLL,4617.00644,N,08753.28287,W,021922.00,A,A*7D
#T1:1781057962826
$GPRMC,021923.00,A,4617.00641,N,08753.28292,W,0.070,,100626,,,A*60
#T1:1781057962826
$GPVTG,,T,,M,0.070,N,0.130,K,A*26
#T1:1781057962827
$GPGGA,021923.00,4617.00641,N,08753.28292,W,1,06,1.45,449.0,M,-35.0,M,,*6C
#T1:1781057962827
$GPGSA,A,3,03,04,32,25,28,01,,,,,,,2.37,1.45,1.88*0F
#T1:1781057962827
$GPGSV,3,1,12,01,16,251,26,02,01,231,,03,49,297,42,04,15,293,35*75
#T1:1781057962827
$GPGSV,3,2,12,06,00,346,,16,13,183,,25,25,048,30,26,42,171,26*7D
#T1:1781057962827
$GPGSV,3,3,12,28,64,053,17,29,04,085,,31,82,263,,32,38,104,25*77
#T1:1781057962827
$GPGLL,4617.00641,N,08753.28292,W,021923.00,A,A*7D
#T1:1781057963819
$GPRMC,021924.00,A,4617.00636,N,08753.28294,W,0.384,,100626,,,A*69
#T1:1781057963819
$GPVTG,,T,,M,0.384,N,0.711,K,A*2B
#T1:1781057963819
$GPGGA,021924.00,4617.00636,N,08753.28294,W,1,06,1.45,449.1,M,-35.0,M,,*6C
#T1:1781057963819
$GPGSA,A,3,03,04,32,25,28,01,,,,,,,2.37,1.45,1.88*0F
#T1:1781057963819
$GPGSV,3,1,12,01,16,251,26,02,01,231,,03,49,297,42,04,15,293,35*75
#T1:1781057963819
$GPGSV,3,2,12,06,00,346,,16,13,183,,25,25,048,30,26,42,171,26*7D
#T1:1781057963819
$GPGSV,3,3,12,28,64,053,17,29,04,085,,31,82,263,23,32,38,104,25*76
#T1:1781057963819
$GPGLL,4617.00636,N,08753.28294,W,021924.00,A,A*7C
#T1:1781057964816
$GPRMC,021925.00,A,4617.00649,N,08753.28294,W,0.582,,100626,,,A*60
#T1:1781057964816
$GPVTG,,T,,M,0.582,N,1.077,K,A*2D
#T1:1781057964816
$GPGGA,021925.00,4617.00649,N,08753.28294,W,1,06,1.45,449.2,M,-35.0,M,,*66
#T1:1781057964816
$GPGSA,A,3,03,04,32,25,28,01,,,,,,,2.37,1.45,1.88*0F
#T1:1781057964817
$GPGSV,3,1,12,01,16,251,25,02,01,231,,03,49,297,38,04,15,293,31*7F
#T1:1781057964817
$GPGSV,3,2,12,06,00,346,,16,13,183,,25,25,048,30,26,42,171,25*7E
#T1:1781057964817
$GPGSV,3,3,12,28,64,053,17,29,04,085,,31,82,263,22,32,38,104,24*76
#T1:1781057964817
$GPGLL,4617.00649,N,08753.28294,W,021925.00,A,A*75
#T1:1781057965803
$GPRMC,021926.00,A,4617.00647,N,08753.28295,W,1.103,35.59,100626,,,A*44
#T1:1781057965803
$GPVTG,35.59,T,,M,1.103,N,2.042,K,A*00
#T1:1781057965803
$GPGGA,021926.00,4617.00647,N,08753.28295,W,1,06,1.44,449.4,M,-35.0,M,,*6D
#T1:1781057965803
$GPGSA,A,3,03,04,32,25,28,01,,,,,,,2.37,1.44,1.88*0E
#T1:1781057965803
$GPGSV,3,1,12,01,16,251,25,02,01,231,,03,49,297,42,04,15,293,36*75
#T1:1781057965804
$GPGSV,3,2,12,06,00,346,,16,13,183,,25,25,048,31,26,42,171,25*7F
#T1:1781057965804
$GPGSV,3,3,12,28,64,053,17,29,04,085,,31,82,263,25,32,38,104,24*71
#T1:1781057965804
$GPGLL,4617.00647,N,08753.28295,W,021926.00,A,A*79
#T1:1781057966798
$GPRMC,021927.00,A,4617.00636,N,08753.28301,W,0.561,,100626,,,A*6A
#T1:1781057966799
$GPVTG,,T,,M,0.561,N,1.038,K,A*2B
#T1:1781057966799
$GPGGA,021927.00,4617.00636,N,08753.28301,W,1,06,1.44,449.4,M,-35.0,M,,*66
#T1:1781057966799
$GPGSA,A,3,03,04,32,25,28,01,,,,,,,2.37,1.44,1.88*0E
#T1:1781057966800
$GPGSV,3,1,12,01,16,251,25,02,01,231,04,03,49,297,43,04,15,293,36*70
#T1:1781057966800
$GPGSV,3,2,12,06,00,346,,16,13,183,,25,25,048,31,26,42,171,25*7F
#T1:1781057966800
$GPGSV,3,3,12,28,64,053,18,29,04,085,,31,82,263,24,32,38,104,24*7F
#T1:1781057966801
$GPGLL,4617.00636,N,08753.28301,W,021927.00,A,A*72
#T1:1781057967788
$GPRMC,021928.00,A,4617.00636,N,08753.28313,W,0.037,,100626,,,A*60
#T1:1781057967788
$GPVTG,,T,,M,0.037,N,0.069,K,A*28
#T1:1781057967788
$GPGGA,021928.00,4617.00636,N,08753.28313,W,1,06,1.44,449.4,M,-35.0,M,,*6A
#T1:1781057967788
$GPGSA,A,3,03,04,32,25,28,01,,,,,,,2.37,1.44,1.88*0E
#T1:1781057967788
$GPGSV,3,1,12,01,16,251,25,02,01,231,07,03,49,297,43,04,15,293,36*73
#T1:1781057967789
$GPGSV,3,2,12,06,00,346,,16,13,183,,25,25,048,32,26,42,171,25*7C
#T1:1781057967789
$GPGSV,3,3,12,28,64,053,19,29,04,085,,31,82,263,26,32,38,104,24*7C
#T1:1781057967789
$GPGLL,4617.00636,N,08753.28313,W,021928.00,A,A*7E
#T1:1781057968782
$GPRMC,021929.00,A,4617.00624,N,08753.28316,W,0.112,,100626,,,A*61
#T1:1781057968782
$GPVTG,,T,,M,0.112,N,0.207,K,A*24
#T1:1781057968782
$GPGGA,021929.00,4617.00624,N,08753.28316,W,1,06,1.44,449.4,M,-35.0,M,,*6D
#T1:1781057968782
$GPGSA,A,3,03,04,32,25,28,01,,,,,,,2.37,1.44,1.88*0E
#T1:1781057968784
$GPGSV,3,1,12,01,16,251,25,02,01,231,08,03,49,297,43,04,15,293,36*7C
#T1:1781057968784
$GPGSV,3,2,12,06,00,346,,16,13,183,,25,25,048,32,26,42,171,25*7C
#T1:1781057968784
$GPGSV,3,3,12,28,64,053,19,29,04,085,,31,82,263,24,32,38,104,23*79
#T1:1781057968784
$GPGLL,4617.00624,N,08753.28316,W,021929.00,A,A*79
#T1:1781057969769
$GPRMC,021930.00,A,4617.00609,N,08753.28314,W,0.358,,100626,,,A*68
#T1:1781057969769
$GPVTG,,T,,M,0.358,N,0.662,K,A*2F
#T1:1781057969769
$GPGGA,021930.00,4617.00609,N,08753.28314,W,1,07,1.41,449.4,M,-35.0,M,,*6C
#T1:1781057969769
$GPGSA,A,3,03,31,04,32,25,28,01,,,,,,2.04,1.41,1.48*05
#T1:1781057969770
$GPGSV,3,1,12,01,16,251,25,02,01,231,08,03,49,297,43,04,15,293,35*7F
#T1:1781057969771
$GPGSV,3,2,12,06,00,346,,16,13,183,,25,25,048,32,26,42,171,25*7C
#T1:1781057969771
$GPGSV,3,3,12,28,64,053,19,29,04,085,,31,82,263,24,32,38,104,22*78
#T1:1781057969771
$GPGLL,4617.00609,N,08753.28314,W,021930.00,A,A*7C
#T1:1781057970765
$GPRMC,021931.00,A,4617.00595,N,08753.28321,W,0.827,,100626,,,A*6A
#T1:1781057970765
$GPVTG,,T,,M,0.827,N,1.531,K,A*28
#T1:1781057970765
$GPGGA,021931.00,4617.00595,N,08753.28321,W,1,07,1.41,449.4,M,-35.0,M,,*6D
#T1:1781057970765
$GPGSA,A,3,03,31,04,32,25,28,01,,,,,,2.04,1.41,1.48*05
#T1:1781057970766
$GPGSV,3,1,12,01,16,251,25,02,01,231,08,03,49,297,43,04,15,293,35*7F
#T1:1781057970767
$GPGSV,3,2,12,06,00,346,,16,13,183,,25,25,048,31,26,42,171,24*7E
#T1:1781057970767
$GPGSV,3,3,12,28,64,053,19,29,04,085,,31,82,263,24,32,38,104,22*78
#T1:1781057970767
$GPGLL,4617.00595,N,08753.28321,W,021931.00,A,A*7D
#T1:1781057971756
$GPRMC,021932.00,A,4617.00588,N,08753.28330,W,0.193,,100626,,,A*63
#T1:1781057971756
$GPVTG,,T,,M,0.193,N,0.357,K,A*29
#T1:1781057971756
$GPGGA,021932.00,4617.00588,N,08753.28330,W,1,07,1.41,449.4,M,-35.0,M,,*62
#T1:1781057971756
$GPGSA,A,3,03,31,04,32,25,28,01,,,,,,2.04,1.41,1.48*05
#T1:1781057971759
$GPGSV,3,1,12,01,16,251,24,02,01,231,08,03,49,297,43,04,15,293,35*7E
#T1:1781057971759
$GPGSV,3,2,12,06,00,346,,16,13,183,,25,25,048,31,26,42,171,24*7E
#T1:1781057971759
$GPGSV,3,3,12,28,64,053,19,29,04,085,,31,82,263,25,32,38,104,22*79
#T1:1781057971759
$GPGLL,4617.00588,N,08753.28330,W,021932.00,A,A*72
#T1:1781057972832
$GPRMC,021933.00,A,4617.00581,N,08753.28339,W,0.510,,100626,,,A*6D
#T1:1781057972832
$GPVTG,,T,,M,0.510,N,0.944,K,A*2E
#T1:1781057972832
$GPGGA,021933.00,4617.00581,N,08753.28339,W,1,07,1.41,449.4,M,-35.0,M,,*63
#T1:1781057972832
$GPGSA,A,3,03,31,04,32,25,28,01,,,,,,2.04,1.41,1.48*05
#T1:1781057972832
$GPGSV,3,1,12,01,16,251,24,02,01,231,08,03,49,297,43,04,15,293,35*7E
#T1:1781057972833
$GPGSV,3,2,12,06,00,346,,16,13,183,,25,25,048,31,26,42,171,23*79
#T1:1781057972833
$GPGSV,3,3,12,28,64,053,19,29,04,085,,31,82,263,25,32,38,104,22*79
#T1:1781057972833
$GPGLL,4617.00581,N,08753.28339,W,021933.00,A,A*73
#T1:1781057973841
$GPRMC,021934.00,A,4617.00563,N,08753.28338,W,0.235,,100626,,,A*67
#T1:1781057973841
$GPVTG,,T,,M,0.235,N,0.435,K,A*25
#T1:1781057973841
$GPGGA,021934.00,4617.00563,N,08753.28338,W,1,07,1.41,449.4,M,-35.0,M,,*69
#T1:1781057973841
$GPGSA,A,3,03,31,04,32,25,28,01,,,,,,2.04,1.41,1.48*05
#T1:1781057973842
$GPGSV,3,1,12,01,16,251,24,02,01,231,08,03,49,297,43,04,15,293,35*7E
#T1:1781057973842
$GPGSV,3,2,12,06,00,346,,16,13,183,,25,25,048,30,26,42,171,23*78
#T1:1781057973842
$GPGSV,3,3,12,28,64,053,20,29,04,085,,31,82,263,26,32,38,104,23*71
#T1:1781057973842
$GPGLL,4617.00563,N,08753.28338,W,021934.00,A,A*79
#T1:1781057974857
$GPRMC,021935.00,A,4617.00555,N,08753.28341,W,0.443,,100626,,,A*6A
#T1:1781057974857
$GPVTG,,T,,M,0.443,N,0.820,K,A*2A
#T1:1781057974858
$GPGGA,021935.00,4617.00555,N,08753.28341,W,1,07,1.41,449.3,M,-35.0,M,,*64
#T1:1781057974858
$GPGSA,A,3,03,31,04,32,25,28,01,,,,,,2.04,1.41,1.48*05
#T1:1781057974860
$GPGSV,3,1,12,01,15,251,25,02,01,231,08,03,49,297,43,04,15,293,35*7C
#T1:1781057974860
$GPGSV,3,2,12,06,00,346,,16,13,183,,25,25,048,30,26,42,171,23*78
#T1:1781057974860
$GPGSV,3,3,12,28,64,053,20,29,04,085,,31,82,263,26,32,38,104,23*71
#T1:1781057974860
$GPGLL,4617.00555,N,08753.28341,W,021935.00,A,A*73
#T1:1781057975868
$GPRMC,021936.00,A,4617.00577,N,08753.28352,W,0.224,,100626,,,A*6C
#T1:1781057975868
$GPVTG,,T,,M,0.224,N,0.415,K,A*27
#T1:1781057975868
$GPGGA,021936.00,4617.00577,N,08753.28352,W,1,07,1.41,449.5,M,-35.0,M,,*63
#T1:1781057975868
$GPGSA,A,3,03,31,04,32,25,28,01,,,,,,2.04,1.41,1.48*05
#T1:1781057975872
$GPGSV,3,1,12,01,15,251,24,02,01,231,08,03,49,297,43,04,15,293,35*7D
#T1:1781057975872
$GPGSV,3,2,12,06,00,346,,16,13,183,,25,25,048,29,26,42,171,23*70
#T1:1781057975872
$GPGSV,3,3,12,28,64,053,19,29,04,085,,31,82,263,25,32,38,104,22*79
#T1:1781057975872
$GPGLL,4617.00577,N,08753.28352,W,021936.00,A,A*72
#T1:1781057976874
$GPRMC,021937.00,A,4617.00591,N,08753.28350,W,0.473,,100626,,,A*63
#T1:1781057976874
$GPVTG,,T,,M,0.473,N,0.876,K,A*2A
#T1:1781057976874
$GPGGA,021937.00,4617.00591,N,08753.28350,W,1,07,1.41,449.5,M,-35.0,M,,*68
#T1:1781057976875
$GPGSA,A,3,03,31,04,32,25,28,01,,,,,,2.04,1.41,1.48*05
#T1:1781057976875
$GPGSV,3,1,12,01,15,251,25,02,01,231,08,03,50,297,43,04,15,293,35*74
#T1:1781057976875
$GPGSV,3,2,12,06,00,346,,16,13,183,,25,25,048,29,26,42,171,22*71
#T1:1781057976876
$GPGSV,3,3,12,28,64,053,19,29,04,085,,31,82,263,25,32,38,104,22*79
#T1:1781057976876
$GPGLL,4617.00591,N,08753.28350,W,021937.00,A,A*79
#T1:1781057977883
$GPRMC,021938.00,A,4617.00600,N,08753.28345,W,0.252,,100626,,,A*66
#T1:1781057977883
$GPVTG,,T,,M,0.252,N,0.466,K,A*22
#T1:1781057977883
$GPGGA,021938.00,4617.00600,N,08753.28345,W,1,07,1.41,449.5,M,-35.0,M,,*68
#T1:1781057977883
$GPGSA,A,3,03,31,04,32,25,28,01,,,,,,2.04,1.41,1.48*05
#T1:1781057977883
$GPGSV,3,1,12,01,15,251,25,02,01,231,,03,50,297,44,04,15,293,35*7B
#T1:1781057977883
$GPGSV,3,2,12,06,00,346,,16,13,183,,25,25,048,29,26,42,171,22*71
#T1:1781057977884
$GPGSV,3,3,12,28,64,053,19,29,04,085,,31,82,263,25,32,38,104,22*79
#T1:1781057977884
$GPGLL,4617.00600,N,08753.28345,W,021938.00,A,A*79
#T1:1781057978891
$GPRMC,021939.00,A,4617.00607,N,08753.28340,W,0.418,,100626,,,A*6D
#T1:1781057978891
$GPVTG,,T,,M,0.418,N,0.774,K,A*2A
#T1:1781057978891
$GPGGA,021939.00,4617.00607,N,08753.28340,W,1,07,1.41,449.5,M,-35.0,M,,*6B
#T1:1781057978892
$GPGSA,A,3,03,31,04,32,25,28,01,,,,,,2.04,1.41,1.48*05
#T1:1781057978893
$GPGSV,3,1,12,01,15,251,24,02,01,231,,03,50,297,43,04,15,293,35*7D
#T1:1781057978893
$GPGSV,3,2,12,06,00,346,,16,13,183,,25,25,048,29,26,42,171,21*72
#T1:1781057978893
$GPGSV,3,3,12,28,64,053,18,29,04,085,,31,82,263,25,32,38,104,22*78
#T1:1781057978893
$GPGLL,4617.00607,N,08753.28340,W,021939.00,A,A*7A
#T1:1781057979891
$GPRMC,021940.00,A,4617.00641,N,08753.28339,W,0.606,,100626,,,A*62
#T1:1781057979891
$GPVTG,,T,,M,0.606,N,1.122,K,A*23
#T1:1781057979891
$GPGGA,021940.00,4617.00641,N,08753.28339,W,1,07,1.41,449.6,M,-35.0,M,,*6A
#T1:1781057979891
$GPGSA,A,3,03,31,04,32,25,28,01,,,,,,2.04,1.41,1.48*05
#T1:1781057979892
$GPGSV,3,1,12,01,15,251,23,02,01,231,06,03,50,297,38,04,15,293,32*77
#T1:1781057979892
$GPGSV,3,2,12,06,00,346,,16,13,183,,25,25,048,27,26,42,171,21*7C
#T1:1781057979892
$GPGSV,3,3,12,28,64,053,17,29,04,085,,31,82,263,24,32,38,104,21*75
#T1:1781057979892
$GPGLL,4617.00641,N,08753.28339,W,021940.00,A,A*78
#T1:1781057980896
$GPRMC,021941.00,A,4617.00667,N,08753.28338,W,0.184,,100626,,,A*6B
#T1:1781057980897
$GPVTG,,T,,M,0.184,N,0.340,K,A*29
#T1:1781057980897
$GPGGA,021941.00,4617.00667,N,08753.28338,W,1,07,1.41,449.6,M,-35.0,M,,*6E
#T1:1781057980897
$GPGSA,A,3,03,31,04,32,25,28,01,,,,,,2.04,1.41,1.48*05
#T1:1781057980897
$GPGSV,3,1,12,01,15,251,22,02,01,231,07,03,50,297,42,04,15,293,33*7B
#T1:1781057980897
$GPGSV,3,2,12,06,00,346,,16,13,183,,25,25,048,27,26,42,171,21*7C
#T1:1781057980897
$GPGSV,3,3,12,28,64,053,16,29,04,085,,31,82,263,24,32,38,104,21*74
#T1:1781057980898
$GPGLL,4617.00667,N,08753.28338,W,021941.00,A,A*7C
#T1:1781057981894
$GPRMC,021942.00,A,4617.00709,N,08753.28342,W,0.616,,100626,,,A*60
#T1:1781057981894
$GPVTG,,T,,M,0.616,N,1.140,K,A*26
#T1:1781057981894
$GPGGA,021942.00,4617.00709,N,08753.28342,W,1,07,1.41,449.8,M,-35.0,M,,*67
#T1:1781057981894
$GPGSA,A,3,03,31,04,32,25,28,01,,,,,,2.04,1.41,1.47*0A
#T1:1781057981894
$GPGSV,3,1,12,01,15,251,22,02,01,231,07,03,50,297,42,04,15,293,34*7C
#T1:1781057981895
$GPGSV,3,2,12,06,00,346,,16,13,183,,25,25,048,27,26,42,171,21*7C
#T1:1781057981895
$GPGSV,3,3,12,28,64,053,16,29,04,085,,31,82,263,25,32,38,104,20*74
#T1:1781057981895
$GPGLL,4617.00709,N,08753.28342,W,021942.00,A,A*7B
#T1:1781057982895
$GPRMC,021943.00,A,4617.00735,N,08753.28343,W,1.264,10.77,100626,,,A*40
#T1:1781057982895
$GPVTG,10.77,T,,M,1.264,N,2.341,K,A*09
#T1:1781057982895
$GPGGA,021943.00,4617.00735,N,08753.28343,W,1,06,1.93,449.9,M,-35.0,M,,*67
#T1:1781057982895
$GPGSA,A,3,03,31,04,32,25,28,,,,,,,2.66,1.93,1.82*09
#T1:1781057982896
$GPGSV,3,1,12,01,15,251,,02,01,231,07,03,50,297,42,04,15,293,34*7C
#T1:1781057982896
$GPGSV,3,2,12,06,00,346,,16,13,183,,25,25,048,27,26,42,171,20*7D
#T1:1781057982896
$GPGSV,3,3,12,28,64,053,16,29,04,085,,31,82,263,25,32,38,104,20*74
#T1:1781057982897
$GPGLL,4617.00735,N,08753.28343,W,021943.00,A,A*74
#T1:1781057983889
$GPRMC,021944.00,A,4617.00753,N,08753.28343,W,1.743,356.22,100626,,,A*76
#T1:1781057983890
$GPVTG,356.22,T,,M,1.743,N,3.228,K,A*37
#T1:1781057983890
$GPGGA,021944.00,4617.00753,N,08753.28343,W,1,06,1.93,449.9,M,-35.0,M,,*60
#T1:1781057983890
$GPGSA,A,3,03,31,04,32,25,28,,,,,,,2.66,1.93,1.82*09
#T1:1781057983890
$GPGSV,3,1,12,01,15,251,,02,01,231,07,03,50,297,42,04,15,293,34*7C
#T1:1781057983890
$GPGSV,3,2,12,06,00,346,,16,13,183,,25,25,048,27,26,42,171,20*7D
#T1:1781057983890
$GPGSV,3,3,12,28,64,053,15,29,04,085,,31,82,263,24,32,38,104,20*76
#T1:1781057983890
$GPGLL,4617.00753,N,08753.28343,W,021944.00,A,A*73
#T1:1781057984890
$GPRMC,021945.00,A,4617.00750,N,08753.28335,W,1.043,356.20,100626,,,A*70
#T1:1781057984890
$GPVTG,356.20,T,,M,1.043,N,1.931,K,A*33
#T1:1781057984890
$GPGGA,021945.00,4617.00750,N,08753.28335,W,1,06,1.93,450.0,M,-35.0,M,,*62
#T1:1781057984890
$GPGSA,A,3,03,31,04,32,25,28,,,,,,,2.66,1.93,1.82*09
#T1:1781057984891
$GPGSV,3,1,12,01,15,251,,02,01,231,07,03,50,297,42,04,15,293,34*7C
#T1:1781057984891
$GPGSV,3,2,12,06,00,346,,16,13,183,,25,25,048,27,26,42,171,20*7D
#T1:1781057984892
$GPGSV,3,3,12,28,64,053,15,29,04,085,,31,82,263,24,32,38,104,20*76
#T1:1781057984892
$GPGLL,4617.00750,N,08753.28335,W,021945.00,A,A*70
#T1:1781057985884
$GPRMC,021946.00,A,4617.00722,N,08753.28322,W,0.144,,100626,,,A*6B
#T1:1781057985884
$GPVTG,,T,,M,0.144,N,0.267,K,A*21
#T1:1781057985884
$GPGGA,021946.00,4617.00722,N,08753.28322,W,1,06,1.93,449.8,M,-35.0,M,,*62
#T1:1781057985884
$GPGSA,A,3,03,31,04,32,25,28,,,,,,,2.66,1.93,1.82*09
#T1:1781057985884
$GPGSV,3,1,12,01,15,251,,02,01,231,07,03,50,297,42,04,15,293,34*7C
#T1:1781057985885
$GPGSV,3,2,12,06,00,346,,16,13,183,,25,25,048,27,26,42,171,20*7D
#T1:1781057985885
$GPGSV,3,3,12,28,64,053,15,29,04,085,,31,82,263,24,32,38,104,20*76
#T1:1781057985885
$GPGLL,4617.00722,N,08753.28322,W,021946.00,A,A*70
#T1:1781057986884
$GPRMC,021947.00,A,4617.00698,N,08753.28311,W,0.462,,100626,,,A*6B
#T1:1781057986884
$GPVTG,,T,,M,0.462,N,0.856,K,A*28
#T1:1781057986884
$GPGGA,021947.00,4617.00698,N,08753.28311,W,1,06,1.93,449.7,M,-35.0,M,,*6C
#T1:1781057986884
$GPGSA,A,3,03,31,04,32,25,28,,,,,,,2.66,1.93,1.82*09
#T1:1781057986884
$GPGSV,3,1,12,01,15,251,22,02,01,231,07,03,50,297,42,04,15,293,34*7C
#T1:1781057986884
$GPGSV,3,2,12,06,00,346,,16,13,183,,25,25,048,27,26,42,171,20*7D
#T1:1781057986884
$GPGSV,3,3,12,28,64,053,15,29,04,085,,31,82,263,24,32,38,104,20*76
#T1:1781057986884
$GPGLL,4617.00698,N,08753.28311,W,021947.00,A,A*71
#T1:1781057987868
$GPRMC,021948.00,A,4617.00714,N,08753.28309,W,1.471,350.99,100626,,,A*73
#T1:1781057987868
$GPVTG,350.99,T,,M,1.471,N,2.725,K,A*3A
#T1:1781057987869
$GPGGA,021948.00,4617.00714,N,08753.28309,W,1,06,1.93,449.8,M,-35.0,M,,*60
#T1:1781057987869
$GPGSA,A,3,03,31,04,32,25,28,,,,,,,2.66,1.93,1.82*09
#T1:1781057987869
$GPGSV,3,1,12,01,15,251,,02,01,231,,03,50,297,43,04,15,293,35*7B
#T1:1781057987869
$GPGSV,3,2,12,06,00,346,,16,13,183,,25,25,048,28,26,42,171,21*73
#T1:1781057987869
$GPGSV,3,3,12,28,64,053,16,29,04,085,,31,82,263,25,32,38,104,20*74
#T1:1781057987870
$GPGLL,4617.00714,N,08753.28309,W,021948.00,A,A*72
#T1:1781057988869
$GPRMC,021949.00,A,4617.00667,N,08753.28292,W,1.010,351.79,100626,,,A*78
#T1:1781057988869
$GPVTG,351.79,T,,M,1.010,N,1.870,K,A*3A
#T1:1781057988869
$GPGGA,021949.00,4617.00667,N,08753.28292,W,1,06,1.93,449.5,M,-35.0,M,,*6A
#T1:1781057988869
$GPGSA,A,3,03,31,04,32,25,28,,,,,,,2.66,1.93,1.82*09
#T1:1781057988869
$GPGSV,3,1,12,01,15,251,,02,01,231,,03,50,297,43,04,15,293,35*7B
#T1:1781057988870
$GPGSV,3,2,12,06,00,346,,16,13,183,,25,25,048,27,26,42,171,21*7C
#T1:1781057988870
$GPGSV,3,3,12,28,64,053,16,29,04,085,,31,82,263,25,32,38,104,21*75
#T1:1781057988870
$GPGLL,4617.00667,N,08753.28292,W,021949.00,A,A*75
