$GPTXT,01,01,02,u-blox ag - www.u-blox.com*50
$GPTXT,01,01,02,HW  UBX-G70xx   00070000 FF7FFFFFo*69
$GPTXT,01,01,02,ROM CORE 1.00 (59842) Jun 27 2012 17:43:52*59
$GPTXT,01,01,02,PROTVER 14.00*1E
$GPTXT,01,01,02,ANTSUPERV=AC SD PDoS SR*20
$GPTXT,01,01,02,ANTSTATUS=OK*3B
$GPTXT,01,01,02,LLC FFFFFFFF-FFFFFFFF-FFFFFFFF-FFFFFFFF-FFFFFFFD*2C
$GPRMC,041926.00,A,4616.99894,N,08753.28864,W,0.852,,240526,,,A*6B
$GPVTG,,T,,M,0.852,N,1.579,K,A*26
$GPGGA,041926.00,4616.99894,N,08753.28864,W,1,05,1.53,428.7,M,-35.0,M,,*6F
$GPGSA,A,3,03,32,06,04,28,,,,,,,,2.45,1.53,1.91*05
$GPGSV,4,1,14,01,00,236,,03,54,259,25,04,34,302,35,06,05,328,33*7A
$GPGSV,4,2,14,09,03,302,19,16,36,181,,25,07,039,08,26,65,150,*72
$GPGSV,4,3,14,28,44,064,19,29,14,065,20,31,73,045,,32,18,119,16*75
$GPGSV,4,4,14,46,23,231,,48,26,226,*71
$GPGLL,4616.99894,N,08753.28864,W,041926.00,A,A*7A
$GPRMC,041927.00,A,4616.99901,N,08753.28859,W,0.534,,240526,,,A*64
$GPVTG,,T,,M,0.534,N,0.990,K,A*21
$GPGGA,041927.00,4616.99901,N,08753.28859,W,1,05,1.53,429.0,M,-35.0,M,,*6B
$GPGSA,A,3,03,32,06,04,28,,,,,,,,2.45,1.53,1.91*05
$GPGSV,4,1,14,01,00,236,,03,54,259,25,04,34,302,35,06,05,328,33*7A
$GPGSV,4,2,14,09,03,302,20,16,36,181,,25,07,039,08,26,65,150,*78
$GPGSV,4,3,14,28,44,064,20,29,14,065,20,31,73,045,,32,18,119,17*7E
$GPGSV,4,4,14,46,23,231,,48,26,226,*71
$GPGLL,4616.99901,N,08753.28859,W,041927.00,A,A*78
$GPRMC,041928.00,A,4616.99927,N,08753.28862,W,0.414,,240526,,,A*64
$GPVTG,,T,,M,0.414,N,0.767,K,A*24
$GPGGA,041928.00,4616.99927,N,08753.28862,W,1,05,1.53,429.5,M,-35.0,M,,*6D
$GPGSA,A,3,03,32,06,04,28,,,,,,,,2.45,1.53,1.91*05
$GPGSV,4,1,14,01,00,236,,03,54,259,26,04,34,302,35,06,05,328,34*7E
$GPGSV,4,2,14,09,03,302,20,16,36,181,,25,07,039,08,26,65,150,17*7E
$GPGSV,4,3,14,28,44,064,21,29,14,065,20,31,73,045,,32,18,119,18*70
$GPGSV,4,4,14,46,23,231,,48,26,226,*71
$GPGLL,4616.99927,N,08753.28862,W,041928.00,A,A*7B
$GPRMC,041929.00,A,4616.99946,N,08753.28886,W,1.006,,240526,,,A*6E
$GPVTG,,T,,M,1.006,N,1.863,K,A*28
$GPGGA,041929.00,4616.99946,N,08753.28886,W,1,05,1.53,429.9,M,-35.0,M,,*6D
$GPGSA,A,3,03,32,06,04,28,,,,,,,,2.45,1.53,1.91*05
$GPGSV,4,1,14,01,00,236,,03,54,259,27,04,34,302,35,06,05,328,34*7F
$GPGSV,4,2,14,09,03,302,20,16,36,181,,25,07,039,08,26,65,150,17*7E
$GPGSV,4,3,14,28,44,064,21,29,14,065,20,31,73,045,,32,18,119,17*7F
$GPGSV,4,4,14,46,23,231,,48,26,226,*71
$GPGLL,4616.99946,N,08753.28886,W,041929.00,A,A*77
$GPRMC,041930.00,A,4616.99952,N,08753.28856,W,1.290,,240526,,,A*63
$GPVTG,,T,,M,1.290,N,2.388,K,A*28
$GPGGA,041930.00,4616.99952,N,08753.28856,W,1,05,1.53,430.2,M,-35.0,M,,*6E
$GPGSA,A,3,03,32,06,04,28,,,,,,,,2.45,1.53,1.91*05
$GPGSV,4,1,14,01,00,236,,03,54,259,27,04,34,302,35,06,05,328,32*79
$GPGSV,4,2,14,09,03,302,19,16,36,181,,25,07,039,08,26,65,150,17*74
$GPGSV,4,3,14,28,44,064,21,29,14,065,20,31,73,045,,32,18,119,17*7F
$GPGSV,4,4,14,46,23,231,,48,26,226,*71
$GPGLL,4616.99952,N,08753.28856,W,041930.00,A,A*77
$GPRMC,041931.00,A,4616.99965,N,08753.28838,W,1.037,,240526,,,A*61
$GPVTG,,T,,M,1.037,N,1.921,K,A*2D
$GPGGA,041931.00,4616.99965,N,08753.28838,W,1,05,1.53,430.5,M,-35.0,M,,*64
$GPGSA,A,3,03,32,06,04,28,,,,,,,,2.45,1.53,1.91*05
$GPGSV,4,1,14,01,00,236,,03,54,259,27,04,34,302,35,06,05,328,33*78
$GPGSV,4,2,14,09,03,302,20,16,36,181,,25,07,039,08,26,65,150,18*71
$GPGSV,4,3,14,28,44,064,22,29,14,065,19,31,73,045,,32,18,119,17*76
$GPGSV,4,4,14,46,23,231,,48,26,226,*71
$GPGLL,4616.99965,N,08753.28838,W,041931.00,A,A*7A
$GPRMC,041932.00,A,4616.99966,N,08753.28833,W,0.496,,240526,,,A*64
$GPVTG,,T,,M,0.496,N,0.918,K,A*28
$GPGGA,041932.00,4616.99966,N,08753.28833,W,1,06,1.33,430.6,M,-35.0,M,,*69
$GPGSA,A,3,03,32,25,06,04,28,,,,,,,2.30,1.33,1.88*0E
$GPGSV,4,1,14,01,00,236,,03,54,259,26,04,34,302,33,06,05,328,33*7F
$GPGSV,4,2,14,09,03,302,20,16,36,181,,25,07,039,08,26,65,150,18*71
$GPGSV,4,3,14,28,44,064,21,29,14,065,19,31,73,045,17,32,18,119,18*7C
$GPGSV,4,4,14,46,23,231,,48,26,226,*71
$GPGLL,4616.99966,N,08753.28833,W,041932.00,A,A*71
$GPRMC,041933.00,A,4616.99982,N,08753.28834,W,0.352,,240526,,,A*67
$GPVTG,,T,,M,0.352,N,0.652,K,A*26
$GPGGA,041933.00,4616.99982,N,08753.28834,W,1,06,1.33,431.0,M,-35.0,M,,*62
$GPGSA,A,3,03,32,25,06,04,28,,,,,,,2.30,1.33,1.88*0E
$GPGSV,4,1,14,01,00,236,,03,54,259,26,04,34,302,35,06,05,328,33*79
$GPGSV,4,2,14,09,03,302,19,16,36,181,,25,07,039,08,26,65,150,19*7A
$GPGSV,4,3,14,28,44,064,21,29,14,065,18,31,73,045,16,32,18,119,18*7C
$GPGSV,4,4,14,46,23,231,,48,26,226,*71
$GPGLL,4616.99982,N,08753.28834,W,041933.00,A,A*7D
$GPRMC,041934.00,A,4616.99997,N,08753.28820,W,0.520,,240526,,,A*62
$GPVTG,,T,,M,0.520,N,0.963,K,A*28
$GPGGA,041934.00,4616.99997,N,08753.28820,W,1,05,1.53,431.3,M,-35.0,M,,*62
$GPGSA,A,3,03,32,06,04,28,,,,,,,,2.45,1.53,1.91*05
$GPGSV,4,1,14,01,00,236,,03,54,258,26,04,34,302,35,06,05,328,33*78
$GPGSV,4,2,14,09,03,302,19,16,36,181,,25,07,039,08,26,65,150,18*7B
$GPGSV,4,3,14,28,44,064,22,29,14,065,19,31,73,045,16,32,18,119,19*7F
$GPGSV,4,4,14,46,23,231,,48,26,226,*71
$GPGLL,4616.99997,N,08753.28820,W,041934.00,A,A*7B
$GPRMC,041935.00,A,4616.99998,N,08753.28798,W,0.484,,240526,,,A*6F
$GPVTG,,T,,M,0.484,N,0.896,K,A*2C
$GPGGA,041935.00,4616.99998,N,08753.28798,W,1,05,1.53,431.5,M,-35.0,M,,*66
$GPGSA,A,3,03,32,06,04,28,,,,,,,,2.45,1.53,1.91*05
$GPGSV,4,1,14,01,00,236,,03,54,258,26,04,34,302,35,06,05,328,33*78
$GPGSV,4,2,14,09,03,302,20,16,36,181,,25,07,039,07,26,65,150,19*7F
$GPGSV,4,3,14,28,44,064,22,29,14,065,20,31,73,045,15,32,18,119,19*76
$GPGSV,4,4,14,46,23,231,,48,26,226,*71
$GPGLL,4616.99998,N,08753.28798,W,041935.00,A,A*79
$GPRMC,041936.00,A,4617.00002,N,08753.28809,W,0.295,,240526,,,A*66
$GPVTG,,T,,M,0.295,N,0.546,K,A*2A
$GPGGA,041936.00,4617.00002,N,08753.28809,W,1,06,1.44,431.3,M,-35.0,M,,*6A
$GPGSA,A,3,03,32,31,06,04,28,,,,,,,2.04,1.44,1.45*0D
$GPGSV,4,1,14,01,00,236,,03,54,258,26,04,34,302,35,06,05,328,33*78
$GPGSV,4,2,14,09,03,302,19,16,36,181,,25,07,039,07,26,65,150,20*7F
$GPGSV,4,3,14,28,44,064,22,29,14,065,21,31,73,045,15,32,18,119,20*7D
$GPGSV,4,4,14,46,23,231,,48,26,226,*71
$GPGLL,4617.00002,N,08753.28809,W,041936.00,A,A*76
$GPRMC,041937.00,A,4616.99991,N,08753.28799,W,0.465,,240526,,,A*6A
$GPVTG,,T,,M,0.465,N,0.862,K,A*28
$GPGGA,041937.00,4616.99991,N,08753.28799,W,1,06,1.44,430.9,M,-35.0,M,,*64
$GPGSA,A,3,03,32,31,06,04,28,,,,,,,2.04,1.44,1.45*0D
$GPGSV,4,1,14,01,00,236,,03,54,258,26,04,34,302,35,06,05,328,33*78
$GPGSV,4,2,14,09,03,302,18,16,36,181,,25,07,039,07,26,65,150,20*7E
$GPGSV,4,3,14,28,44,064,21,29,14,065,22,31,73,045,16,32,18,119,19*74
$GPGSV,4,4,14,46,23,231,,48,26,226,*71
$GPGLL,4616.99991,N,08753.28799,W,041937.00,A,A*73
$GPRMC,041938.00,A,4616.99982,N,08753.28787,W,0.540,,240526,,,A*6E
$GPVTG,,T,,M,0.540,N,1.000,K,A*23
$GPGGA,041938.00,4616.99982,N,08753.28787,W,1,06,1.44,430.7,M,-35.0,M,,*68
$GPGSA,A,3,03,32,31,06,04,28,,,,,,,2.04,1.44,1.45*0D
$GPGSV,4,1,14,01,00,236,,03,54,258,26,04,34,302,35,06,05,328,34*7F
$GPGSV,4,2,14,09,03,302,18,16,36,181,,25,07,039,08,26,65,150,21*70
$GPGSV,4,3,14,28,44,064,21,29,14,065,22,31,73,045,17,32,18,119,20*7F
$GPGSV,4,4,14,46,23,231,,48,26,226,*71
$GPGLL,4616.99982,N,08753.28787,W,041938.00,A,A*71
$GPRMC,041939.00,A,4616.99977,N,08753.28768,W,0.386,,240526,,,A*68
$GPVTG,,T,,M,0.386,N,0.715,K,A*2D
$GPGGA,041939.00,4616.99977,N,08753.28768,W,1,06,1.44,430.6,M,-35.0,M,,*63
$GPGSA,A,3,03,32,31,06,04,28,,,,,,,2.04,1.44,1.45*0D
$GPGSV,4,1,14,01,00,236,,03,54,258,26,04,34,302,35,06,05,328,34*7F
$GPGSV,4,2,14,09,03,302,18,16,36,181,,25,07,039,08,26,65,150,21*70
$GPGSV,4,3,14,28,44,064,22,29,14,065,23,31,73,045,16,32,18,119,20*7C
$GPGSV,4,4,14,46,23,231,,48,26,226,*71
$GPGLL,4616.99977,N,08753.28768,W,041939.00,A,A*7B
$GPRMC,041940.00,A,4616.99980,N,08753.28744,W,0.622,,240526,,,A*6B
$GPVTG,,T,,M,0.622,N,1.151,K,A*21
$GPGGA,041940.00,4616.99980,N,08753.28744,W,1,06,1.44,430.6,M,-35.0,M,,*6B
$GPGSA,A,3,03,32,31,06,04,28,,,,,,,2.04,1.44,1.45*0D
$GPGSV,4,1,14,01,00,236,,03,54,258,26,04,34,302,35,06,05,328,33*78
$GPGSV,4,2,14,09,03,302,17,16,36,181,,25,07,039,,26,65,150,21*77
$GPGSV,4,3,14,28,44,064,21,29,14,065,23,31,73,045,16,32,18,119,20*7F
$GPGSV,4,4,14,46,23,231,,48,26,226,*71
$GPGLL,4616.99980,N,08753.28744,W,041940.00,A,A*73
$GPRMC,041941.00,A,4616.99992,N,08753.28733,W,0.884,,240526,,,A*6B
$GPVTG,,T,,M,0.884,N,1.637,K,A*24
$GPGGA,041941.00,4616.99992,N,08753.28733,W,1,06,1.44,430.9,M,-35.0,M,,*66
$GPGSA,A,3,03,32,31,06,04,28,,,,,,,2.04,1.44,1.45*0D
$GPGSV,4,1,14,01,00,236,,03,54,258,27,04,34,302,35,06,05,328,33*79
$GPGSV,4,2,14,09,03,302,17,16,36,181,,25,07,039,,26,65,150,20*76
$GPGSV,4,3,14,28,44,064,22,29,14,065,22,31,73,045,17,32,18,119,19*76
$GPGSV,4,4,14,46,23,231,,48,26,226,*71
$GPGLL,4616.99992,N,08753.28733,W,041941.00,A,A*71
$GPRMC,041942.00,A,4616.99972,N,08753.28745,W,0.831,,240526,,,A*69
$GPVTG,,T,,M,0.831,N,1.539,K,A*27
$GPGGA,041942.00,4616.99972,N,08753.28745,W,1,06,1.43,430.4,M,-35.0,M,,*60
$GPGSA,A,3,03,32,31,06,04,28,,,,,,,2.04,1.43,1.45*0A
$GPGSV,4,1,14,01,00,236,,03,54,258,26,04,34,302,35,06,05,328,32*79
$GPGSV,4,2,14,09,03,302,18,16,36,181,,25,07,039,,26,65,150,19*73
$GPGSV,4,3,14,28,44,064,22,29,14,065,22,31,73,045,18,32,18,119,18*78
$GPGSV,4,4,14,46,23,231,,48,26,226,*71
$GPGLL,4616.99972,N,08753.28745,W,041942.00,A,A*7D
$GPRMC,041943.00,A,4616.99969,N,08753.28732,W,0.521,,240526,,,A*6E
$GPVTG,,T,,M,0.521,N,0.964,K,A*2E
$GPGGA,041943.00,4616.99969,N,08753.28732,W,1,06,1.43,430.3,M,-35.0,M,,*6C
$GPGSA,A,3,03,32,31,06,04,28,,,,,,,2.04,1.43,1.45*0A
$GPGSV,4,1,14,01,00,236,,03,54,258,26,04,34,302,35,06,05,328,33*78
$GPGSV,4,2,14,09,03,302,17,16,36,181,,25,07,039,,26,65,150,20*76
$GPGSV,4,3,14,28,44,064,22,29,14,065,21,31,73,045,18,32,18,119,18*7B
$GPGSV,4,4,14,46,23,231,,48,26,226,*71
$GPGLL,4616.99969,N,08753.28732,W,041943.00,A,A*76
$GPRMC,041944.00,A,4616.99976,N,08753.28772,W,0.362,,240526,,,A*62
$GPVTG,,T,,M,0.362,N,0.670,K,A*25
$GPGGA,041944.00,4616.99976,N,08753.28772,W,1,06,1.43,430.3,M,-35.0,M,,*61
$GPGSA,A,3,03,32,31,06,04,28,,,,,,,2.04,1.43,1.45*0A
$GPGSV,4,1,14,01,00,236,,03,54,258,26,04,34,302,35,06,05,328,33*78
$GPGSV,4,2,14,09,03,302,18,16,36,181,,25,07,039,,26,65,150,20*79
$GPGSV,4,3,14,28,44,064,22,29,14,065,20,31,73,045,18,32,18,119,18*7A
$GPGSV,4,4,14,46,23,231,,48,26,226,*71
$GPGLL,4616.99976,N,08753.28772,W,041944.00,A,A*7B
$GPRMC,041945.00,A,4616.99971,N,08753.28783,W,0.145,,240526,,,A*6D
$GPVTG,,T,,M,0.145,N,0.269,K,A*2E
$GPGGA,041945.00,4616.99971,N,08753.28783,W,1,06,1.43,430.1,M,-35.0,M,,*6B
$GPGSA,A,3,03,32,31,06,04,28,,,,,,,2.04,1.43,1.45*0A
$GPGSV,4,1,14,01,00,236,,03,54,258,26,04,34,302,35,06,05,328,33*78
$GPGSV,4,2,14,09,03,302,18,16,36,181,,25,07,039,,26,65,150,19*73
$GPGSV,4,3,14,28,44,064,22,29,14,065,20,31,73,045,19,32,18,119,18*7B
$GPGSV,4,4,14,46,23,231,,48,26,226,*71
$GPGLL,4616.99971,N,08753.28783,W,041945.00,A,A*73
$GPRMC,041946.00,A,4616.99966,N,08753.28787,W,0.193,,240526,,,A*67
$GPVTG,,T,,M,0.193,N,0.357,K,A*29
$GPGGA,041946.00,4616.99966,N,08753.28787,W,1,06,1.43,429.9,M,-35.0,M,,*6A
$GPGSA,A,3,03,32,31,06,04,28,,,,,,,2.04,1.43,1.45*0A
$GPGSV,4,1,14,01,00,236,,03,54,258,26,04,34,302,35,06,05,328,33*78
$GPGSV,4,2,14,09,03,302,17,16,36,181,,25,07,039,,26,65,150,18*7D
$GPGSV,4,3,14,28,44,064,22,29,14,065,20,31,73,045,20,32,18,119,18*71
$GPGSV,4,4,14,46,23,231,,48,26,226,*71
$GPGLL,4616.99966,N,08753.28787,W,041946.00,A,A*72
$GPRMC,041947.00,A,4616.99944,N,08753.28795,W,0.021,,240526,,,A*6D
$GPVTG,,T,,M,0.021,N,0.039,K,A*2A
$GPGGA,041947.00,4616.99944,N,08753.28795,W,1,06,1.43,429.4,M,-35.0,M,,*65
$GPGSA,A,3,03,32,31,06,04,28,,,,,,,2.04,1.43,1.45*0A
$GPGSV,4,1,14,01,00,236,,03,54,258,26,04,34,302,34,06,05,328,32*78
$GPGSV,4,2,14,09,03,302,17,16,36,180,,25,07,039,,26,65,150,18*7C
$GPGSV,4,3,14,28,44,064,22,29,14,065,20,31,73,045,20,32,18,119,18*71
$GPGSV,4,4,14,46,23,231,,48,26,226,*71
$GPGLL,4616.99944,N,08753.28795,W,041947.00,A,A*70
$GPRMC,041948.00,A,4616.99936,N,08753.28816,W,0.552,,240526,,,A*62
$GPVTG,,T,,M,0.552,N,1.022,K,A*20
$GPGGA,041948.00,4616.99936,N,08753.28816,W,1,06,1.43,429.2,M,-35.0,M,,*6D
$GPGSA,A,3,03,32,31,06,04,28,,,,,,,2.04,1.43,1.45*0A
$GPGSV,4,1,14,01,00,236,,03,54,258,26,04,34,302,34,06,05,328,33*79
$GPGSV,4,2,14,09,03,302,18,16,36,180,,25,07,039,,26,65,150,18*73
$GPGSV,4,3,14,28,44,064,23,29,14,065,20,31,73,045,21,32,18,119,17*7E
$GPGSV,4,4,14,46,23,231,,48,26,226,*71
$GPGLL,4616.99936,N,08753.28816,W,041948.00,A,A*7E
$GPRMC,041949.00,A,4616.99926,N,08753.28812,W,0.362,,240526,,,A*63
$GPVTG,,T,,M,0.362,N,0.671,K,A*24
$GPGGA,041949.00,4616.99926,N,08753.28812,W,1,06,1.43,428.9,M,-35.0,M,,*63
$GPGSA,A,3,03,32,31,06,04,28,,,,,,,2.04,1.43,1.45*0A
$GPGSV,4,1,14,01,00,236,,03,54,258,26,04,34,302,35,06,05,328,33*78
$GPGSV,4,2,14,09,03,302,19,16,36,180,,25,07,039,,26,65,150,18*72
$GPGSV,4,3,14,28,44,064,24,29,14,065,20,31,73,045,21,32,18,119,18*76
$GPGSV,4,4,14,46,23,231,,48,26,226,*71
$GPGLL,4616.99926,N,08753.28812,W,041949.00,A,A*7A
$GPRMC,041950.00,A,4616.99921,N,08753.28817,W,0.077,,240526,,,A*6E
$GPVTG,,T,,M,0.077,N,0.143,K,A*25
$GPGGA,041950.00,4616.99921,N,08753.28817,W,1,06,1.43,428.7,M,-35.0,M,,*67
$GPGSA,A,3,03,32,31,06,04,28,,,,,,,2.04,1.43,1.45*0A
$GPGSV,4,1,14,01,00,236,,03,54,258,26,04,34,302,34,06,05,328,33*79
$GPGSV,4,2,14,09,03,302,20,16,36,180,,25,07,039,,26,65,150,18*78
$GPGSV,4,3,14,28,44,064,24,29,14,065,19,31,73,045,21,32,18,119,18*7C
$GPGSV,4,4,14,46,23,231,,48,26,226,*71
$GPGLL,4616.99921,N,08753.28817,W,041950.00,A,A*70
$GPRMC,041951.00,A,4616.99902,N,08753.28855,W,0.152,,240526,,,A*6E
$GPVTG,,T,,M,0.152,N,0.281,K,A*2E
$GPGGA,041951.00,4616.99902,N,08753.28855,W,1,06,1.43,428.1,M,-35.0,M,,*67
$GPGSA,A,3,03,32,31,06,04,28,,,,,,,2.04,1.43,1.45*0A
$GPGSV,4,1,14,01,00,236,,03,54,258,27,04,34,302,34,06,05,328,33*78
$GPGSV,4,2,14,09,03,302,20,16,36,180,,25,07,039,,26,65,150,19*79
$GPGSV,4,3,14,28,44,064,24,29,14,065,18,31,73,045,21,32,18,119,19*7C
$GPGSV,4,4,14,46,23,231,,48,26,226,*71
$GPGLL,4616.99902,N,08753.28855,W,041951.00,A,A*76
$GPRMC,041952.00,A,4616.99900,N,08753.28862,W,0.101,,240526,,,A*6D
$GPVTG,,T,,M,0.101,N,0.187,K,A*2D
$GPGGA,041952.00,4616.99900,N,08753.28862,W,1,06,1.43,427.9,M,-35.0,M,,*65
$GPGSA,A,3,03,32,31,06,04,28,,,,,,,2.04,1.43,1.45*0A
$GPGSV,4,1,14,01,00,236,,03,54,258,27,04,34,302,34,06,05,328,33*78
$GPGSV,4,2,14,09,03,302,20,16,36,180,,25,07,039,15,26,65,150,19*7D
$GPGSV,4,3,14,28,44,064,25,29,14,065,18,31,73,045,21,32,18,119,19*7D
$GPGSV,4,4,14,46,23,231,,48,26,226,*71
$GPGLL,4616.99900,N,08753.28862,W,041952.00,A,A*73
$GPRMC,041953.00,A,4616.99909,N,08753.28873,W,0.580,,240526,,,A*68
$GPVTG,,T,,M,0.580,N,1.073,K,A*2B
$GPGGA,041953.00,4616.99909,N,08753.28873,W,1,06,1.43,427.9,M,-35.0,M,,*6D
$GPGSA,A,3,03,32,31,06,04,28,,,,,,,2.04,1.43,1.45*0A
$GPGSV,4,1,14,01,00,236,,03,54,258,26,04,34,302,35,06,05,328,33*78
$GPGSV,4,2,14,09,03,302,20,16,36,180,,25,07,039,13,26,65,150,18*7A
$GPGSV,4,3,14,28,44,064,26,29,14,065,18,31,73,045,20,32,18,119,19*7F
$GPGSV,4,4,14,46,23,231,,48,26,226,*71
$GPGLL,4616.99909,N,08753.28873,W,041953.00,A,A*7B
$GPRMC,041954.00,A,4616.99905,N,08753.28877,W,0.208,,240526,,,A*60
$GPVTG,,T,,M,0.208,N,0.385,K,A*27
$GPGGA,041954.00,4616.99905,N,08753.28877,W,1,06,1.43,427.8,M,-35.0,M,,*63
$GPGSA,A,3,03,32,31,06,04,28,,,,,,,2.04,1.43,1.45*0A
$GPGSV,4,1,14,01,00,236,,03,54,258,26,04,34,302,35,06,05,328,34*7F
$GPGSV,4,2,14,09,03,302,20,16,36,180,,25,07,039,10,26,65,150,17*76
$GPGSV,4,3,14,28,44,064,26,29,14,065,18,31,73,045,19,32,18,119,18*74
$GPGSV,4,4,14,46,23,231,,48,26,226,*71
$GPGLL,4616.99905,N,08753.28877,W,041954.00,A,A*74
$GPRMC,041955.00,A,4616.99895,N,08753.28880,W,0.229,,240526,,,A*62
$GPVTG,,T,,M,0.229,N,0.425,K,A*29
$GPGGA,041955.00,4616.99895,N,08753.28880,W,1,06,1.43,427.4,M,-35.0,M,,*6E
$GPGSA,A,3,03,32,31,06,04,28,,,,,,,2.04,1.43,1.45*0A
$GPGSV,4,1,14,01,00,236,,03,54,258,26,04,34,302,35,06,05,328,33*78
$GPGSV,4,2,14,09,03,302,20,16,36,180,,25,07,039,10,26,65,150,18*79
$GPGSV,4,3,14,28,44,064,25,29,14,065,19,31,73,045,17,32,18,119,18*78
$GPGSV,4,4,14,46,23,231,,48,26,226,*71
$GPGLL,4616.99895,N,08753.28880,W,041955.00,A,A*75
$GPRMC,041956.00,A,4616.99875,N,08753.28868,W,0.398,,240526,,,A*62
$GPVTG,,T,,M,0.398,N,0.737,K,A*22
$GPGGA,041956.00,4616.99875,N,08753.28868,W,1,06,1.43,427.0,M,-35.0,M,,*61
$GPGSA,A,3,03,32,31,06,04,28,,,,,,,2.04,1.43,1.45*0A
$GPGSV,4,1,14,01,00,236,,03,54,258,26,04,34,302,35,06,05,328,34*7F
$GPGSV,4,2,14,09,03,302,21,16,36,180,,25,06,039,09,26,65,150,18*71
$GPGSV,4,3,14,28,44,064,25,29,14,065,19,31,73,045,17,32,18,119,19*79
$GPGSV,4,4,14,46,23,231,,48,26,226,*71
$GPGLL,4616.99875,N,08753.28868,W,041956.00,A,A*7E
$GPRMC,041957.00,A,4616.99874,N,08753.28860,W,0.203,,240526,,,A*69
$GPVTG,,T,,M,0.203,N,0.376,K,A*20
$GPGGA,041957.00,4616.99874,N,08753.28860,W,1,07,1.24,427.0,M,-35.0,M,,*69
$GPGSA,A,3,03,32,31,25,06,04,28,,,,,,1.86,1.24,1.39*0E
$GPGSV,4,1,14,01,00,236,,03,54,258,26,04,34,302,35,06,05,328,33*78
$GPGSV,4,2,14,09,03,302,20,16,36,180,,25,06,039,10,26,65,149,17*7F
$GPGSV,4,3,14,28,44,064,26,29,14,065,19,31,73,045,16,32,18,119,19*7B
$GPGSV,4,4,14,46,23,231,,48,26,226,*71
$GPGLL,4616.99874,N,08753.28860,W,041957.00,A,A*76
$GPRMC,041958.00,A,4616.99883,N,08753.28866,W,0.149,,240526,,,A*65
$GPVTG,,T,,M,0.149,N,0.277,K,A*2D
$GPGGA,041958.00,4616.99883,N,08753.28866,W,1,07,1.24,427.2,M,-35.0,M,,*6A
$GPGSA,A,3,03,32,31,25,06,04,28,,,,,,1.86,1.24,1.39*0E
$GPGSV,4,1,14,01,00,236,,03,54,258,26,04,34,302,35,06,05,328,33*78
$GPGSV,4,2,14,09,03,302,20,16,36,180,,25,06,039,11,26,65,149,16*7F
$GPGSV,4,3,14,28,44,064,26,29,14,065,19,31,73,045,13,32,18,119,20*74
$GPGSV,4,4,14,46,23,231,,48,26,226,*71
$GPGLL,4616.99883,N,08753.28866,W,041958.00,A,A*77
$GPRMC,041959.00,A,4616.99903,N,08753.28875,W,0.486,,240526,,,A*69
$GPVTG,,T,,M,0.486,N,0.899,K,A*21
$GPGGA,041959.00,4616.99903,N,08753.28875,W,1,07,1.24,427.6,M,-35.0,M,,*64
$GPGSA,A,3,03,32,31,25,06,04,28,,,,,,1.86,1.24,1.39*0E
$GPGSV,4,1,14,01,00,236,,03,54,258,26,04,34,302,35,06,05,328,33*78
$GPGSV,4,2,14,09,03,302,20,16,36,180,,25,06,039,11,26,65,149,16*7F
$GPGSV,4,3,14,28,43,064,26,29,14,065,17,31,73,045,12,32,18,119,19*76
$GPGSV,4,4,14,46,23,231,,48,26,226,*71
$GPGLL,4616.99903,N,08753.28875,W,041959.00,A,A*7D
$GPRMC,042000.00,A,4616.99915,N,08753.28893,W,0.549,,240526,,,A*62
$GPVTG,,T,,M,0.549,N,1.017,K,A*2C
$GPGGA,042000.00,4616.99915,N,08753.28893,W,1,07,1.24,427.9,M,-35.0,M,,*62
$GPGSA,A,3,03,32,31,25,06,04,28,,,,,,1.86,1.24,1.39*0E
$GPGSV,4,1,14,01,00,236,,03,54,258,26,04,34,302,33,06,05,328,32*7F
$GPGSV,4,2,14,09,03,302,20,16,36,180,,25,06,039,11,26,65,149,17*7E
$GPGSV,4,3,14,28,43,064,26,29,14,065,18,31,73,045,12,32,18,119,19*79
$GPGSV,4,4,14,46,23,231,,48,26,226,*71
$GPGLL,4616.99915,N,08753.28893,W,042000.00,A,A*74
$GPRMC,042001.00,A,4616.99927,N,08753.28893,W,0.346,,240526,,,A*6B
$GPVTG,,T,,M,0.346,N,0.640,K,A*20
$GPGGA,042001.00,4616.99927,N,08753.28893,W,1,07,1.24,428.2,M,-35.0,M,,*66
$GPGSA,A,3,03,32,31,25,06,04,28,,,,,,1.86,1.24,1.39*0E
$GPGSV,4,1,14,01,00,236,,03,54,258,26,04,34,302,34,06,05,328,33*79
$GPGSV,4,2,14,09,03,302,19,16,36,180,,25,06,039,12,26,65,149,17*77
$GPGSV,4,3,14,28,43,064,25,29,14,065,18,31,73,045,12,32,18,119,19*7A
$GPGSV,4,4,14,46,23,231,,48,26,226,*71
$GPGLL,4616.99927,N,08753.28893,W,042001.00,A,A*74
$GPRMC,042002.00,A,4616.99937,N,08753.28893,W,0.036,,240526,,,A*6D
$GPVTG,,T,,M,0.036,N,0.066,K,A*26
$GPGGA,042002.00,4616.99937,N,08753.28893,W,1,06,1.32,428.5,M,-35.0,M,,*65
$GPGSA,A,3,03,32,25,06,04,28,,,,,,,2.30,1.32,1.88*0F
$GPGSV,4,1,14,01,00,236,,03,54,258,26,04,34,302,31,06,05,328,33*7C
$GPGSV,4,2,14,09,03,302,19,16,36,180,,25,06,039,14,26,65,149,16*70
$GPGSV,4,3,14,28,43,064,25,29,14,065,17,31,72,046,,32,18,119,18*75
$GPGSV,4,4,14,46,23,231,,48,26,226,*71
$GPGLL,4616.99937,N,08753.28893,W,042002.00,A,A*76
$GPRMC,042003.00,A,4616.99946,N,08753.28902,W,0.158,,240526,,,A*6A
$GPVTG,,T,,M,0.158,N,0.292,K,A*26
$GPGGA,042003.00,4616.99946,N,08753.28902,W,1,06,1.32,428.8,M,-35.0,M,,*66
$GPGSA,A,3,03,32,25,06,04,28,,,,,,,2.30,1.32,1.88*0F
$GPGSV,4,1,14,01,00,236,,03,54,258,26,04,34,302,34,06,05,328,33*79
$GPGSV,4,2,14,09,03,302,19,16,36,180,,25,06,039,14,26,65,149,16*70
$GPGSV,4,3,14,28,43,064,26,29,14,065,16,31,72,046,,32,18,120,18*7D
$GPGSV,4,4,14,46,23,231,,48,26,226,*71
$GPGLL,4616.99946,N,08753.28902,W,042003.00,A,A*78
$GPRMC,042004.00,A,4616.99970,N,08753.28898,W,0.395,,240526,,,A*69
$GPVTG,,T,,M,0.395,N,0.731,K,A*29
$GPGGA,042004.00,4616.99970,N,08753.28898,W,1,06,1.32,429.2,M,-35.0,M,,*6D
$GPGSA,A,3,03,32,25,06,04,28,,,,,,,2.30,1.32,1.88*0F
$GPGSV,4,1,14,01,00,236,,03,54,258,25,04,34,302,34,06,05,328,34*7D
$GPGSV,4,2,14,09,03,302,20,16,36,180,,25,06,039,14,26,65,149,16*7A
$GPGSV,4,3,14,28,43,064,25,29,14,065,15,31,72,046,,32,18,120,19*7C
$GPGSV,4,4,14,46,23,231,,48,26,226,*71
$GPGLL,4616.99970,N,08753.28898,W,042004.00,A,A*78
$GPRMC,042005.00,A,4616.99981,N,08753.28900,W,0.058,,240526,,,A*64
$GPVTG,,T,,M,0.058,N,0.107,K,A*28
$GPGGA,042005.00,4616.99981,N,08753.28900,W,1,06,1.32,429.5,M,-35.0,M,,*65
$GPGSA,A,3,03,32,25,06,04,28,,,,,,,2.30,1.32,1.88*0F
$GPGSV,4,1,14,01,00,236,,03,54,258,26,04,34,302,34,06,05,328,33*79
$GPGSV,4,2,14,09,03,302,21,16,36,180,,25,06,039,13,26,65,149,16*7C
$GPGSV,4,3,14,28,43,064,25,29,14,065,15,31,72,046,,32,18,120,19*7C
$GPGSV,4,4,14,46,23,231,,48,26,226,*71
$GPGLL,4616.99981,N,08753.28900,W,042005.00,A,A*77
$GPRMC,042006.00,A,4616.99992,N,08753.28881,W,0.400,,240526,,,A*64
$GPVTG,,T,,M,0.400,N,0.741,K,A*25
$GPGGA,042006.00,4616.99992,N,08753.28881,W,1,06,1.32,429.7,M,-35.0,M,,*6E
$GPGSA,A,3,03,32,25,06,04,28,,,,,,,2.30,1.32,1.88*0F
$GPGSV,4,1,14,01,00,236,,03,54,258,25,04,34,302,34,06,05,328,33*7A
$GPGSV,4,2,14,09,03,302,21,16,36,180,,25,06,039,14,26,65,149,16*7B
$GPGSV,4,3,14,28,43,064,25,29,14,065,16,31,72,046,,32,18,120,19*7F
$GPGSV,4,4,14,46,23,231,,48,26,226,*71
$GPGLL,4616.99992,N,08753.28881,W,042006.00,A,A*7E
$GPRMC,042007.00,A,4617.00009,N,08753.28877,W,0.299,,240526,,,A*60
$GPVTG,,T,,M,0.299,N,0.554,K,A*25
$GPGGA,042007.00,4617.00009,N,08753.28877,W,1,06,1.32,430.0,M,-35.0,M,,*63
$GPGSA,A,3,03,32,25,06,04,28,,,,,,,2.30,1.32,1.88*0F
$GPGSV,4,1,14,01,00,236,,03,54,258,26,04,34,302,34,06,05,328,33*79
$GPGSV,4,2,14,09,03,302,21,16,36,180,,25,06,039,15,26,65,149,16*7A
$GPGSV,4,3,14,28,43,064,25,29,14,065,17,31,72,046,,32,18,120,19*7E
$GPGSV,4,4,14,46,23,231,,48,26,226,*71
$GPGLL,4617.00009,N,08753.28877,W,042007.00,A,A*7C
$GPRMC,042008.00,A,4617.00013,N,08753.28861,W,0.221,,240526,,,A*60
$GPVTG,,T,,M,0.221,N,0.410,K,A*27
$GPGGA,042008.00,4617.00013,N,08753.28861,W,1,06,1.32,430.2,M,-35.0,M,,*62
$GPGSA,A,3,03,32,25,06,04,28,,,,,,,2.30,1.32,1.88*0F
$GPGSV,4,1,14,01,00,236,,03,54,258,27,04,34,302,35,06,05,328,33*79
$GPGSV,4,2,14,09,03,302,21,16,36,180,,25,06,039,16,26,65,149,16*79
$GPGSV,4,3,14,28,43,064,25,29,14,065,18,31,72,046,17,32,18,120,19*77
$GPGSV,4,4,14,46,23,231,,48,26,226,*71
$GPGLL,4617.00013,N,08753.28861,W,042008.00,A,A*7F
$GPRMC,042009.00,A,4617.00018,N,08753.28858,W,0.180,,240526,,,A*68
$GPVTG,,T,,M,0.180,N,0.333,K,A*29
$GPGGA,042009.00,4617.00018,N,08753.28858,W,1,06,1.32,430.3,M,-35.0,M,,*63
$GPGSA,A,3,03,32,25,06,04,28,,,,,,,2.30,1.32,1.88*0F
$GPGSV,4,1,14,01,00,236,,03,54,258,27,04,34,302,35,06,05,328,33*79
$GPGSV,4,2,14,09,03,302,22,16,36,180,,25,06,039,15,26,65,149,16*79
$GPGSV,4,3,14,28,43,064,25,29,14,065,19,31,72,046,17,32,18,120,17*78
$GPGSV,4,4,14,46,23,231,,48,26,226,*71
$GPGLL,4617.00018,N,08753.28858,W,042009.00,A,A*7F
$GPRMC,042010.00,A,4617.00020,N,08753.28858,W,0.209,,240526,,,A*69
$GPVTG,,T,,M,0.209,N,0.388,K,A*2B
$GPGGA,042010.00,4617.00020,N,08753.28858,W,1,06,1.32,430.4,M,-35.0,M,,*67
$GPGSA,A,3,03,32,25,06,04,28,,,,,,,2.30,1.32,1.88*0F
$GPGSV,4,1,14,01,00,236,,03,54,258,26,04,34,302,35,06,05,328,34*7F
$GPGSV,4,2,14,09,03,302,22,16,36,180,,25,06,039,15,26,65,149,15*7A
$GPGSV,4,3,14,28,43,064,24,29,14,065,20,31,72,046,17,32,18,120,18*7C
$GPGSV,4,4,14,46,23,231,,48,26,226,*71
$GPGLL,4617.00020,N,08753.28858,W,042010.00,A,A*7C
$GPRMC,042011.00,A,4617.00039,N,08753.28858,W,0.524,,240526,,,A*68
$GPVTG,,T,,M,0.524,N,0.970,K,A*2E
$GPGGA,042011.00,4617.00039,N,08753.28858,W,1,06,1.32,430.8,M,-35.0,M,,*62
$GPGSA,A,3,03,32,25,06,04,28,,,,,,,2.30,1.32,1.88*0F
$GPGSV,4,1,14,01,00,236,,03,54,258,26,04,34,302,35,06,05,328,34*7F
$GPGSV,4,2,14,09,03,302,23,16,36,180,,25,06,039,15,26,65,149,15*7B
$GPGSV,4,3,14,28,43,064,24,29,14,065,20,31,72,046,16,32,18,120,18*7D
$GPGSV,4,4,14,46,23,231,,48,26,226,*71
$GPGLL,4617.00039,N,08753.28858,W,042011.00,A,A*75
$GPRMC,042012.00,A,4617.00049,N,08753.28832,W,0.101,,240526,,,A*63
$GPVTG,,T,,M,0.101,N,0.187,K,A*2D
$GPGGA,042012.00,4617.00049,N,08753.28832,W,1,06,1.32,431.1,M,-35.0,M,,*62
$GPGSA,A,3,03,32,25,06,04,28,,,,,,,2.30,1.32,1.88*0F
$GPGSV,4,1,14,01,00,236,,03,54,258,26,04,34,302,35,06,05,328,34*7F
$GPGSV,4,2,14,09,03,302,23,16,36,180,,25,06,039,15,26,65,149,15*7B
$GPGSV,4,3,14,28,43,064,24,29,14,065,20,31,72,046,14,32,18,120,18*7F
$GPGSV,4,4,14,46,23,231,,48,26,226,*71
$GPGLL,4617.00049,N,08753.28832,W,042012.00,A,A*7D
$GPRMC,042013.00,A,4617.00045,N,08753.28816,W,0.570,,240526,,,A*6A
$GPVTG,,T,,M,0.570,N,1.055,K,A*20
$GPGGA,042013.00,4617.00045,N,08753.28816,W,1,07,1.24,430.9,M,-35.0,M,,*66
$GPGSA,A,3,03,32,31,25,06,04,28,,,,,,1.86,1.24,1.39*0E
$GPGSV,4,1,14,01,00,236,,03,54,258,27,04,34,302,35,06,05,328,34*7E
$GPGSV,4,2,14,09,03,302,22,16,36,180,,25,06,039,15,26,65,149,16*79
$GPGSV,4,3,14,28,43,064,24,29,14,065,20,31,72,046,15,32,18,120,19*7F
$GPGSV,4,4,14,46,23,231,,48,26,226,*71
$GPGLL,4617.00045,N,08753.28816,W,042013.00,A,A*76
$GPRMC,042014.00,A,4617.00042,N,08753.28822,W,0.192,,240526,,,A*65
$GPVTG,,T,,M,0.192,N,0.356,K,A*29
$GPGGA,042014.00,4617.00042,N,08753.28822,W,1,07,1.24,430.8,M,-35.0,M,,*60
$GPGSA,A,3,03,32,31,25,06,04,28,,,,,,1.86,1.24,1.39*0E
$GPGSV,4,1,14,01,00,236,,03,54,258,26,04,34,302,35,06,05,328,34*7F
$GPGSV,4,2,14,09,03,302,23,16,36,180,,25,06,039,14,26,65,149,16*79
$GPGSV,4,3,14,28,43,064,24,29,14,065,20,31,72,046,14,32,18,120,19*7E
$GPGSV,4,4,14,46,23,231,,48,26,226,*71
$GPGLL,4617.00042,N,08753.28822,W,042014.00,A,A*71
$GPRMC,042015.00,A,4617.00045,N,08753.28815,W,0.172,,240526,,,A*69
$GPVTG,,T,,M,0.172,N,0.319,K,A*2C
$GPGGA,042015.00,4617.00045,N,08753.28815,W,1,06,1.32,431.0,M,-35.0,M,,*6D
$GPGSA,A,3,03,32,25,06,04,28,,,,,,,2.30,1.32,1.88*0F
$GPGSV,4,1,14,01,00,236,,03,54,258,26,04,34,302,35,06,05,328,34*7F
$GPGSV,4,2,14,09,03,302,22,16,36,180,,25,06,039,15,26,65,149,15*7A
$GPGSV,4,3,14,28,43,064,24,29,14,065,20,31,72,046,14,32,18,120,18*7F
$GPGSV,4,4,14,46,23,231,,48,26,226,*71
$GPGLL,4617.00045,N,08753.28815,W,042015.00,A,A*73
$GPRMC,042016.00,A,4617.00038,N,08753.28830,W,0.201,,240526,,,A*60
$GPVTG,,T,,M,0.201,N,0.372,K,A*26
$GPGGA,042016.00,4617.00038,N,08753.28830,W,1,07,1.24,430.8,M,-35.0,M,,*6C
$GPGSA,A,3,03,32,31,25,06,04,28,,,,,,1.86,1.24,1.39*0E
$GPGSV,4,1,14,01,00,236,,03,54,258,26,04,34,302,35,06,05,328,34*7F
$GPGSV,4,2,14,09,03,302,22,16,36,180,,25,06,039,15,26,65,149,15*7A
$GPGSV,4,3,14,28,43,064,24,29,14,065,20,31,72,046,14,32,18,120,17*70
$GPGSV,4,4,14,46,23,231,,48,26,226,*71
$GPGLL,4617.00038,N,08753.28830,W,042016.00,A,A*7D
$GPRMC,042017.00,A,4617.00033,N,08753.28792,W,0.575,,240526,,,A*69
$GPVTG,,T,,M,0.575,N,1.065,K,A*26
$GPGGA,042017.00,4617.00033,N,08753.28792,W,1,07,1.23,430.7,M,-35.0,M,,*69
$GPGSA,A,3,03,32,31,25,06,04,28,,,,,,1.86,1.23,1.39*09
$GPGSV,4,1,14,01,00,236,,03,54,258,26,04,34,302,32,06,05,328,34*78
$GPGSV,4,2,14,09,03,302,22,16,36,180,,25,06,039,15,26,65,149,16*79
$GPGSV,4,3,14,28,43,064,24,29,14,065,20,31,72,046,13,32,18,120,15*75
$GPGSV,4,4,14,46,23,231,,48,26,226,*71
$GPGLL,4617.00033,N,08753.28792,W,042017.00,A,A*70
$GPRMC,042018.00,A,4617.00022,N,08753.28765,W,0.751,,240526,,,A*6A
$GPVTG,,T,,M,0.751,N,1.390,K,A*2B
$GPGGA,042018.00,4617.00022,N,08753.28765,W,1,07,1.23,430.5,M,-35.0,M,,*6C
$GPGSA,A,3,03,32,31,25,06,04,28,,,,,,1.86,1.23,1.39*09
$GPGSV,4,1,14,01,00,236,,03,54,258,26,04,34,302,35,06,05,328,34*7F
$GPGSV,4,2,14,09,03,302,23,16,36,180,,25,06,039,15,26,65,149,16*78
$GPGSV,4,3,14,28,43,064,24,29,14,065,20,31,72,046,15,32,18,120,16*70
$GPGSV,4,4,14,46,23,231,,48,26,226,*71
$GPGLL,4617.00022,N,08753.28765,W,042018.00,A,A*77
$GPRMC,042019.00,A,4617.00023,N,08753.28748,W,0.410,,240526,,,A*63
$GPVTG,,T,,M,0.410,N,0.760,K,A*27
$GPGGA,042019.00,4617.00023,N,08753.28748,W,1,07,1.23,430.5,M,-35.0,M,,*63
$GPGSA,A,3,03,32,31,25,06,04,28,,,,,,1.86,1.23,1.39*09
$GPGSV,4,1,14,01,00,236,,03,54,258,27,04,34,302,35,06,05,328,34*7E
$GPGSV,4,2,14,09,03,302,23,16,36,180,,25,06,039,15,26,65,149,16*78
$GPGSV,4,3,14,28,43,064,25,29,14,065,19,31,72,046,13,32,18,120,16*7D
$GPGSV,4,4,14,46,23,231,,48,26,226,*71
$GPGLL,4617.00023,N,08753.28748,W,042019.00,A,A*78
$GPRMC,042020.00,A,4617.00026,N,08753.28727,W,0.382,,240526,,,A*69
$GPVTG,,T,,M,0.382,N,0.708,K,A*25
$GPGGA,042020.00,4617.00026,N,08753.28727,W,1,07,1.23,430.6,M,-35.0,M,,*66
$GPGSA,A,3,03,32,31,25,06,04,28,,,,,,1.86,1.23,1.39*09
$GPGSV,4,1,14,01,00,236,,03,54,258,27,04,34,302,35,06,05,328,34*7E
$GPGSV,4,2,14,09,03,302,22,16,36,180,,25,06,039,15,26,65,149,16*79
$GPGSV,4,3,14,28,43,064,25,29,14,065,20,31,72,046,12,32,18,120,15*75
$GPGSV,4,4,14,46,23,231,,48,26,226,*71
$GPGLL,4617.00026,N,08753.28727,W,042020.00,A,A*7E
$GPRMC,042021.00,A,4617.00047,N,08753.28747,W,0.222,,240526,,,A*62
$GPVTG,,T,,M,0.222,N,0.412,K,A*26
$GPGGA,042021.00,4617.00047,N,08753.28747,W,1,06,1.32,431.0,M,-35.0,M,,*60
$GPGSA,A,3,03,32,25,06,04,28,,,,,,,2.29,1.32,1.87*08
$GPGSV,4,1,14,01,00,236,,03,54,258,26,04,34,302,35,06,05,328,34*7F
$GPGSV,4,2,14,09,03,302,22,16,36,180,18,25,06,039,14,26,65,149,15*72
$GPGSV,4,3,14,28,43,064,25,29,14,065,20,31,72,046,09,32,18,120,15*7F
$GPGSV,4,4,14,46,23,231,,48,26,226,*71
$GPGLL,4617.00047,N,08753.28747,W,042021.00,A,A*7E
$GPRMC,042022.00,A,4617.00055,N,08753.28721,W,0.422,,240526,,,A*64
$GPVTG,,T,,M,0.422,N,0.781,K,A*29
$GPGGA,042022.00,4617.00055,N,08753.28721,W,1,06,1.32,431.2,M,-35.0,M,,*62
$GPGSA,A,3,03,32,25,06,04,28,,,,,,,2.29,1.32,1.87*08
$GPGSV,4,1,14,01,00,236,,03,54,258,26,04,34,302,35,06,05,327,34*70
$GPGSV,4,2,14,09,03,302,21,16,36,180,18,25,06,039,16,26,65,149,14*72
$GPGSV,4,3,14,28,43,064,25,29,14,065,20,31,72,046,08,32,18,120,15*7E
$GPGSV,4,4,14,46,23,231,,48,26,226,*71
$GPGLL,4617.00055,N,08753.28721,W,042022.00,A,A*7E
$GPRMC,042023.00,A,4617.00057,N,08753.28712,W,0.130,,240526,,,A*61
$GPVTG,,T,,M,0.130,N,0.240,K,A*27
$GPGGA,042023.00,4617.00057,N,08753.28712,W,1,06,1.32,431.3,M,-35.0,M,,*60
$GPGSA,A,3,03,32,25,06,04,28,,,,,,,2.29,1.32,1.87*08
$GPGSV,4,1,14,01,00,236,,03,54,258,26,04,34,302,35,06,05,327,34*70
$GPGSV,4,2,14,09,03,302,20,16,36,180,19,25,06,039,16,26,65,149,16*70
$GPGSV,4,3,14,28,43,064,25,29,14,065,21,31,72,046,08,32,18,120,15*7F
$GPGSV,4,4,14,46,23,231,,48,26,226,*71
$GPGLL,4617.00057,N,08753.28712,W,042023.00,A,A*7D
$GPRMC,042024.00,A,4617.00057,N,08753.28673,W,0.251,,240526,,,A*64
$GPVTG,,T,,M,0.251,N,0.465,K,A*22
$GPGGA,042024.00,4617.00057,N,08753.28673,W,1,06,1.32,431.4,M,-35.0,M,,*66
$GPGSA,A,3,03,32,25,06,04,28,,,,,,,2.29,1.32,1.87*08
$GPGSV,4,1,14,01,00,236,,03,54,258,26,04,34,302,35,06,05,327,34*70
$GPGSV,4,2,14,09,03,302,20,16,36,180,19,25,06,039,15,26,65,149,18*7D
$GPGSV,4,3,14,28,43,064,25,29,14,065,20,31,72,046,08,32,18,120,15*7E
$GPGSV,4,4,14,46,23,231,,48,26,226,*71
$GPGLL,4617.00057,N,08753.28673,W,042024.00,A,A*7C
$GPRMC,042025.00,A,4617.00066,N,08753.28654,W,0.153,,240526,,,A*63
$GPVTG,,T,,M,0.153,N,0.284,K,A*2A
$GPGGA,042025.00,4617.00066,N,08753.28654,W,1,06,1.32,431.6,M,-35.0,M,,*62
$GPGSA,A,3,03,32,25,06,04,28,,,,,,,2.29,1.32,1.87*08
$GPGSV,4,1,14,01,00,236,,03,54,258,26,04,34,302,35,06,05,327,34*70
$GPGSV,4,2,14,09,03,302,20,16,36,180,20,25,06,039,16,26,65,149,17*7B
$GPGSV,4,3,14,28,43,064,26,29,14,065,20,31,72,046,08,32,18,120,15*7D
$GPGSV,4,4,14,46,23,231,,48,26,226,*71
$GPGLL,4617.00066,N,08753.28654,W,042025.00,A,A*7A
$GPRMC,042026.00,A,4617.00058,N,08753.28625,W,0.748,,240526,,,A*67
$GPVTG,,T,,M,0.748,N,1.385,K,A*27
$GPGGA,042026.00,4617.00058,N,08753.28625,W,1,07,1.23,431.4,M,-35.0,M,,*69
$GPGSA,A,3,03,32,31,25,06,04,28,,,,,,1.86,1.23,1.39*09
$GPGSV,4,1,14,01,00,236,,03,54,258,26,04,34,302,35,06,05,327,33*77
$GPGSV,4,2,14,09,03,302,20,16,36,180,19,25,06,039,16,26,65,149,16*70
$GPGSV,4,3,14,28,43,064,25,29,14,065,20,31,72,046,17,32,18,120,16*73
$GPGSV,4,4,14,46,23,231,,48,26,226,*71
$GPGLL,4617.00058,N,08753.28625,W,042026.00,A,A*72
$GPRMC,042027.00,A,4617.00057,N,08753.28620,W,0.303,,240526,,,A*67
$GPVTG,,T,,M,0.303,N,0.561,K,A*21
$GPGGA,042027.00,4617.00057,N,08753.28620,W,1,07,1.23,431.4,M,-35.0,M,,*62
$GPGSA,A,3,03,32,31,25,06,04,28,,,,,,1.86,1.23,1.39*09
$GPGSV,4,1,14,01,00,236,,03,54,258,26,04,34,302,35,06,05,327,34*70
$GPGSV,4,2,14,09,03,302,20,16,36,180,19,25,06,039,15,26,65,149,15*70
$GPGSV,4,3,14,28,43,064,25,29,14,065,19,31,72,046,15,32,18,120,16*7B
$GPGSV,4,4,14,46,23,231,,48,26,226,*71
$GPGLL,4617.00057,N,08753.28620,W,042027.00,A,A*79
$GPRMC,042028.00,A,4617.00049,N,08753.28586,W,0.371,,240526,,,A*6D
$GPVTG,,T,,M,0.371,N,0.687,K,A*2F
$GPGGA,042028.00,4617.00049,N,08753.28586,W,1,07,1.23,431.3,M,-35.0,M,,*6A
$GPGSA,A,3,03,32,31,25,06,04,28,,,,,,1.86,1.23,1.39*09
$GPGSV,4,1,14,01,00,236,,03,54,258,26,04,34,302,35,06,05,327,33*77
$GPGSV,4,2,14,09,03,302,20,16,36,180,20,25,06,039,15,26,65,149,15*7A
$GPGSV,4,3,14,28,43,064,25,29,14,065,19,31,72,046,17,32,18,120,16*79
$GPGSV,4,4,14,46,23,231,,48,26,226,*71
$GPGLL,4617.00049,N,08753.28586,W,042028.00,A,A*76
$GPRMC,042029.00,A,4617.00039,N,08753.28577,W,0.316,,240526,,,A*64
$GPVTG,,T,,M,0.316,N,0.586,K,A*2C
$GPGGA,042029.00,4617.00039,N,08753.28577,W,1,07,1.23,431.0,M,-35.0,M,,*61
$GPGSA,A,3,03,32,31,25,06,04,28,,,,,,1.86,1.23,1.39*09
$GPGSV,4,1,14,01,00,236,,03,54,258,26,04,34,302,35,06,05,327,34*70
$GPGSV,4,2,14,09,03,302,20,16,36,180,21,25,06,039,14,26,65,149,15*7A
$GPGSV,4,3,14,28,43,064,25,29,14,065,19,31,72,046,19,32,18,120,16*77
$GPGSV,4,4,14,46,23,231,,48,26,226,*71
$GPGLL,4617.00039,N,08753.28577,W,042029.00,A,A*7E
$GPRMC,042030.00,A,4617.00037,N,08753.28561,W,0.620,,240526,,,A*65
$GPVTG,,T,,M,0.620,N,1.148,K,A*2B
$GPGGA,042030.00,4617.00037,N,08753.28561,W,1,07,1.23,430.9,M,-35.0,M,,*68
$GPGSA,A,3,03,32,31,25,06,04,28,,,,,,1.86,1.23,1.39*09
$GPGSV,4,1,14,01,00,236,,03,54,258,26,04,34,302,35,06,05,327,33*77
$GPGSV,4,2,14,09,03,302,20,16,36,180,21,25,06,039,14,26,65,149,16*79
$GPGSV,4,3,14,28,43,064,25,29,14,065,19,31,72,046,19,32,18,120,17*76
$GPGSV,4,4,14,46,23,231,,48,26,226,*71
$GPGLL,4617.00037,N,08753.28561,W,042030.00,A,A*7F
$GPRMC,042031.00,A,4617.00029,N,08753.28545,W,0.637,,240526,,,A*6B
$GPVTG,,T,,M,0.637,N,1.179,K,A*2F
$GPGGA,042031.00,4617.00029,N,08753.28545,W,1,07,1.23,430.7,M,-35.0,M,,*6E
$GPGSA,A,3,03,32,31,25,06,04,28,,,,,,1.86,1.23,1.39*09
$GPGSV,4,1,14,01,00,236,,03,54,258,26,04,34,302,35,06,05,327,33*77
$GPGSV,4,2,14,09,03,302,19,16,36,180,20,25,06,039,15,26,65,149,16*73
$GPGSV,4,3,14,28,43,064,25,29,14,065,19,31,72,046,19,32,18,120,17*76
$GPGSV,4,4,14,46,23,231,,48,26,226,*71
$GPGLL,4617.00029,N,08753.28545,W,042031.00,A,A*77
$GPRMC,042032.00,A,4617.00023,N,08753.28528,W,0.358,,240526,,,A*65
$GPVTG,,T,,M,0.358,N,0.664,K,A*29
$GPGGA,042032.00,4617.00023,N,08753.28528,W,1,07,1.23,430.4,M,-35.0,M,,*6F
$GPGSA,A,3,03,32,31,25,06,04,28,,,,,,1.86,1.23,1.39*09
$GPGSV,4,1,14,01,00,236,,03,54,258,26,04,34,302,35,06,05,327,32*76
$GPGSV,4,2,14,09,03,302,19,16,37,180,20,25,06,039,15,26,65,149,16*72
$GPGSV,4,3,14,28,43,064,24,29,14,065,18,31,72,046,19,32,18,120,16*77
$GPGSV,4,4,14,46,23,231,,48,26,226,*71
$GPGLL,4617.00023,N,08753.28528,W,042032.00,A,A*75
$GPRMC,042033.00,A,4617.00025,N,08753.28511,W,0.216,,240526,,,A*63
$GPVTG,,T,,M,0.216,N,0.399,K,A*25
$GPGGA,042033.00,4617.00025,N,08753.28511,W,1,07,1.23,430.4,M,-35.0,M,,*62
$GPGSA,A,3,03,32,31,25,06,04,28,,,,,,1.86,1.23,1.39*09
$GPGSV,4,1,14,01,00,236,,03,54,258,26,04,34,302,35,06,05,327,32*76
$GPGSV,4,2,14,09,03,302,19,16,37,180,20,25,06,039,14,26,65,149,16*73
$GPGSV,4,3,14,28,43,064,25,29,14,065,18,31,72,046,19,32,18,120,16*76
$GPGSV,4,4,14,46,23,231,,48,26,226,*71
$GPGLL,4617.00025,N,08753.28511,W,042033.00,A,A*78
$GPRMC,042034.00,A,4617.00028,N,08753.28508,W,0.308,,240526,,,A*6F
$GPVTG,,T,,M,0.308,N,0.571,K,A*2B
$GPGGA,042034.00,4617.00028,N,08753.28508,W,1,07,1.23,430.2,M,-35.0,M,,*66
$GPGSA,A,3,03,32,31,25,06,04,28,,,,,,1.86,1.23,1.39*09
$GPGSV,4,1,14,01,00,236,,03,54,258,26,04,34,302,35,06,05,327,32*76
$GPGSV,4,2,14,09,03,302,19,16,37,180,19,25,06,039,16,26,65,149,15*78
$GPGSV,4,3,14,28,43,064,25,29,14,065,17,31,72,046,18,32,18,120,18*76
$GPGSV,4,4,14,46,23,231,,48,26,226,*71
$GPGLL,4617.00028,N,08753.28508,W,042034.00,A,A*7A
$GPRMC,042035.00,A,4617.00020,N,08753.28482,W,0.563,,240526,,,A*6E
$GPVTG,,T,,M,0.563,N,1.044,K,A*22
$GPGGA,042035.00,4617.00020,N,08753.28482,W,1,07,1.23,429.9,M,-35.0,M,,*6F
$GPGSA,A,3,03,32,31,25,06,04,28,,,,,,1.86,1.23,1.39*09
$GPGSV,4,1,14,01,00,236,,03,54,258,26,04,34,302,36,06,05,327,33*74
$GPGSV,4,2,14,09,03,302,20,16,37,180,19,25,06,039,17,26,65,149,16*70
$GPGSV,4,3,14,28,43,064,25,29,14,065,17,31,72,046,18,32,18,120,18*76
$GPGSV,4,4,14,46,23,231,,48,26,226,*71
$GPGLL,4617.00020,N,08753.28482,W,042035.00,A,A*70
$GPRMC,042036.00,A,4617.00008,N,08753.28460,W,0.307,,240526,,,A*6F
$GPVTG,,T,,M,0.307,N,0.568,K,A*2C
$GPGGA,042036.00,4617.00008,N,08753.28460,W,1,07,1.23,429.7,M,-35.0,M,,*64
$GPGSA,A,3,03,32,31,25,06,04,28,,,,,,1.86,1.23,1.39*09
$GPGSV,4,1,14,01,00,236,,03,54,258,26,04,34,302,35,06,05,327,33*77
$GPGSV,4,2,14,09,03,302,19,16,37,180,19,25,06,039,17,26,65,149,16*7A
$GPGSV,4,3,14,28,43,064,25,29,14,065,17,31,72,046,17,32,18,120,18*79
$GPGSV,4,4,14,46,23,231,,48,26,226,*71
$GPGLL,4617.00008,N,08753.28460,W,042036.00,A,A*75
$GPRMC,042037.00,A,4617.00006,N,08753.28447,W,0.132,,240526,,,A*61
$GPVTG,,T,,M,0.132,N,0.244,K,A*21
$GPGGA,042037.00,4617.00006,N,08753.28447,W,1,07,1.23,429.5,M,-35.0,M,,*6C
$GPGSA,A,3,03,32,31,25,06,04,28,,,,,,1.86,1.23,1.39*09
$GPGSV,4,1,14,01,00,236,,03,54,258,26,04,34,302,35,06,05,327,33*77
$GPGSV,4,2,14,09,03,302,19,16,37,180,18,25,06,039,16,26,65,149,16*7A
$GPGSV,4,3,14,28,43,064,25,29,14,065,18,31,72,046,17,32,18,120,18*76
$GPGSV,4,4,14,46,23,231,,48,26,226,*71
$GPGLL,4617.00006,N,08753.28447,W,042037.00,A,A*7F
$GPRMC,042038.00,A,4616.99992,N,08753.28461,W,0.184,,240526,,,A*62
$GPVTG,,T,,M,0.184,N,0.341,K,A*28
$GPGGA,042038.00,4616.99992,N,08753.28461,W,1,07,1.23,429.1,M,-35.0,M,,*66
$GPGSA,A,3,03,32,31,25,06,04,28,,,,,,1.86,1.23,1.39*09
$GPGSV,4,1,14,01,00,236,,03,54,258,26,04,34,302,35,06,05,327,32*76
$GPGSV,4,2,14,09,03,302,20,16,37,180,19,25,06,039,15,26,65,149,15*71
$GPGSV,4,3,14,28,43,064,25,29,14,065,17,31,72,046,16,32,18,120,18*78
$GPGSV,4,4,14,46,23,231,,48,26,226,*71
$GPGLL,4616.99992,N,08753.28461,W,042038.00,A,A*71
$GPRMC,042039.00,A,4616.99989,N,08753.28447,W,0.418,,240526,,,A*6D
$GPVTG,,T,,M,0.418,N,0.774,K,A*2A
$GPGGA,042039.00,4616.99989,N,08753.28447,W,1,07,1.23,429.0,M,-35.0,M,,*68
$GPGSA,A,3,03,32,31,25,06,04,28,,,,,,1.86,1.23,1.39*09
$GPGSV,4,1,14,01,00,236,,03,54,258,26,04,34,302,35,06,05,327,32*76
$GPGSV,4,2,14,09,03,302,21,16,37,180,18,25,06,039,14,26,65,149,14*71
$GPGSV,4,3,14,28,43,064,25,29,14,065,17,31,72,046,15,32,18,120,18*7B
$GPGSV,4,4,14,46,23,231,,48,26,226,*71
$GPGLL,4616.99989,N,08753.28447,W,042039.00,A,A*7E
$GPRMC,042040.00,A,4616.99980,N,08753.28437,W,0.227,,240526,,,A*67
$GPVTG,,T,,M,0.227,N,0.420,K,A*22
$GPGGA,042040.00,4616.99980,N,08753.28437,W,1,07,1.23,428.9,M,-35.0,M,,*60
$GPGSA,A,3,03,32,31,25,06,04,28,,,,,,1.86,1.23,1.39*09
$GPGSV,4,1,14,01,00,236,,03,54,258,26,04,34,302,35,06,05,327,32*76
$GPGSV,4,2,14,09,03,302,21,16,37,180,18,25,06,039,16,26,65,149,14*73
$GPGSV,4,3,14,28,43,064,25,29,14,065,17,31,72,046,14,32,18,120,19*7B
$GPGSV,4,4,14,46,23,231,,48,26,226,*71
$GPGLL,4616.99980,N,08753.28437,W,042040.00,A,A*7E
$GPRMC,042041.00,A,4616.99991,N,08753.28425,W,0.051,,240526,,,A*66
$GPVTG,,T,,M,0.051,N,0.094,K,A*2A
$GPGGA,042041.00,4616.99991,N,08753.28425,W,1,07,1.23,429.2,M,-35.0,M,,*68
$GPGSA,A,3,03,32,31,25,06,04,28,,,,,,1.86,1.23,1.39*09
$GPGSV,4,1,14,01,00,236,,03,54,258,26,04,34,302,35,06,05,327,32*76
$GPGSV,4,2,14,09,03,302,21,16,37,180,17,25,06,039,16,26,65,149,14*7C
$GPGSV,4,3,14,28,43,064,25,29,14,065,16,31,72,046,10,32,18,120,19*7E
$GPGSV,4,4,14,46,23,231,,48,26,226,*71
$GPGLL,4616.99991,N,08753.28425,W,042041.00,A,A*7C
$GPRMC,042042.00,A,4617.00004,N,08753.28405,W,0.208,,240526,,,A*6D
$GPVTG,,T,,M,0.208,N,0.386,K,A*24
$GPGGA,042042.00,4617.00004,N,08753.28405,W,1,07,1.23,429.5,M,-35.0,M,,*6A
$GPGSA,A,3,03,32,31,25,06,04,28,,,,,,1.86,1.23,1.39*09
$GPGSV,4,1,14,01,00,236,,03,54,258,26,04,34,302,35,06,05,327,32*76
$GPGSV,4,2,14,09,03,302,20,16,37,180,18,25,06,039,16,26,65,149,15*73
$GPGSV,4,3,14,28,43,064,25,29,14,065,17,31,72,046,10,32,18,120,19*7F
$GPGSV,4,4,14,46,23,231,,48,26,226,*71
$GPGLL,4617.00004,N,08753.28405,W,042042.00,A,A*79
$GPRMC,042043.00,A,4617.00004,N,08753.28386,W,0.480,,240526,,,A*66
$GPVTG,,T,,M,0.480,N,0.889,K,A*26
$GPGGA,042043.00,4617.00004,N,08753.28386,W,1,07,1.23,429.7,M,-35.0,M,,*65
$GPGSA,A,3,03,32,31,25,06,04,28,,,,,,1.85,1.23,1.39*0A
$GPGSV,4,1,14,01,00,236,,03,54,258,26,04,34,302,35,06,05,327,33*77
$GPGSV,4,2,14,09,03,302,19,16,37,180,17,25,06,039,17,26,65,149,13*71
$GPGSV,4,3,14,28,43,064,25,29,14,065,17,31,72,046,11,32,18,120,20*74
$GPGSV,4,4,14,46,23,231,,48,26,226,*71
$GPGLL,4617.00004,N,08753.28386,W,042043.00,A,A*74
$GPRMC,042044.00,A,4617.00006,N,08753.28370,W,0.327,,240526,,,A*60
$GPVTG,,T,,M,0.327,N,0.605,K,A*26
$GPGGA,042044.00,4617.00006,N,08753.28370,W,1,06,1.32,429.8,M,-35.0,M,,*67
$GPGSA,A,3,03,32,25,06,04,28,,,,,,,2.29,1.32,1.87*08
$GPGSV,4,1,14,01,00,236,,03,54,258,26,04,34,302,35,06,05,327,32*76
$GPGSV,4,2,14,09,03,302,19,16,37,180,18,25,06,039,17,26,65,149,12*7F
$GPGSV,4,3,14,28,43,064,25,29,14,065,17,31,72,046,,32,18,120,20*74
$GPGSV,4,4,14,46,23,231,,48,26,226,*71
$GPGLL,4617.00006,N,08753.28370,W,042044.00,A,A*78
$GPRMC,042045.00,A,4617.00012,N,08753.28346,W,0.258,,240526,,,A*68
$GPVTG,,T,,M,0.258,N,0.479,K,A*26
$GPGGA,042045.00,4617.00012,N,08753.28346,W,1,06,1.32,430.0,M,-35.0,M,,*66
$GPGSA,A,3,03,32,25,06,04,28,,,,,,,2.29,1.32,1.87*08
$GPGSV,4,1,14,01,00,236,,03,54,258,26,04,34,302,35,06,05,327,32*76
$GPGSV,4,2,14,09,03,302,19,16,37,180,18,25,06,039,16,26,65,149,14*78
$GPGSV,4,3,14,28,43,064,25,29,14,064,17,31,72,046,,32,18,120,20*75
$GPGSV,4,4,14,46,23,231,,48,26,226,*71
$GPGLL,4617.00012,N,08753.28346,W,042045.00,A,A*79
$GPRMC,042046.00,A,4617.00017,N,08753.28342,W,0.049,,240526,,,A*68
$GPVTG,,T,,M,0.049,N,0.091,K,A*26
$GPGGA,042046.00,4617.00017,N,08753.28342,W,1,06,1.32,430.2,M,-35.0,M,,*66
$GPGSA,A,3,03,32,25,06,04,28,,,,,,,2.29,1.32,1.87*08
$GPGSV,4,1,14,01,00,236,,03,54,258,26,04,34,302,35,06,05,327,32*76
$GPGSV,4,2,14,09,03,302,19,16,37,180,18,25,06,039,16,26,65,149,15*79
$GPGSV,4,3,14,28,43,064,25,29,14,064,17,31,72,046,,32,18,120,20*75
$GPGSV,4,4,14,46,23,231,,48,26,226,*71
$GPGLL,4617.00017,N,08753.28342,W,042046.00,A,A*7B
$GPRMC,042047.00,A,4617.00012,N,08753.28326,W,0.356,,240526,,,A*63
$GPVTG,,T,,M,0.356,N,0.660,K,A*23
$GPGGA,042047.00,4617.00012,N,08753.28326,W,1,06,1.32,430.2,M,-35.0,M,,*60
$GPGSA,A,3,03,32,25,06,04,28,,,,,,,2.29,1.32,1.87*08
$GPGSV,4,1,14,01,00,236,,03,54,258,25,04,34,302,32,06,05,327,32*72
$GPGSV,4,2,14,09,03,302,18,16,37,180,17,25,06,039,15,26,65,149,13*72
$GPGSV,4,3,14,28,43,064,26,29,14,064,18,31,72,046,,32,18,120,19*73
$GPGSV,4,4,14,46,23,231,,48,26,226,*71
$GPGLL,4617.00012,N,08753.28326,W,042047.00,A,A*7D
$GPRMC,042048.00,A,4617.00003,N,08753.28333,W,0.526,,240526,,,A*69
$GPVTG,,T,,M,0.526,N,0.974,K,A*28
$GPGGA,042048.00,4617.00003,N,08753.28333,W,1,06,1.32,430.3,M,-35.0,M,,*6A
$GPGSA,A,3,03,32,25,06,04,28,,,,,,,2.29,1.32,1.87*08
$GPGSV,4,1,14,01,00,236,,03,54,258,25,04,34,302,35,06,05,327,32*75
$GPGSV,4,2,14,09,03,302,19,16,37,180,17,25,06,039,14,26,65,149,11*70
$GPGSV,4,3,14,28,43,064,26,29,14,064,18,31,72,046,,32,18,120,19*73
$GPGSV,4,4,14,46,23,231,,48,26,226,*71
$GPGLL,4617.00003,N,08753.28333,W,042048.00,A,A*76
$GPRMC,042049.00,A,4617.00002,N,08753.28324,W,0.160,,240526,,,A*69
$GPVTG,,T,,M,0.160,N,0.296,K,A*29
$GPGGA,042049.00,4617.00002,N,08753.28324,W,1,06,1.32,430.4,M,-35.0,M,,*6B
$GPGSA,A,3,03,32,25,06,04,28,,,,,,,2.29,1.32,1.87*08
$GPGSV,4,1,14,01,00,236,,03,54,258,25,04,34,302,35,06,05,327,33*74
$GPGSV,4,2,14,09,03,302,19,16,37,180,17,25,06,039,15,26,65,149,11*71
$GPGSV,4,3,14,28,43,064,25,29,14,064,18,31,72,046,,32,18,120,19*70
$GPGSV,4,4,14,46,23,231,,48,26,226,*71
$GPGLL,4617.00002,N,08753.28324,W,042049.00,A,A*70
$GPRMC,042050.00,A,4616.99998,N,08753.28317,W,0.319,,240526,,,A*66
$GPVTG,,T,,M,0.319,N,0.591,K,A*25
$GPGGA,042050.00,4616.99998,N,08753.28317,W,1,06,1.32,430.5,M,-35.0,M,,*69
$GPGSA,A,3,03,32,25,06,04,28,,,,,,,2.29,1.32,1.87*08
$GPGSV,4,1,14,01,00,236,,03,54,258,24,04,34,302,35,06,05,327,33*75
$GPGSV,4,2,14,09,03,302,19,16,37,180,17,25,06,039,17,26,65,149,09*7A
$GPGSV,4,3,14,28,43,064,26,29,14,064,19,31,72,046,12,32,18,120,20*7B
$GPGSV,4,4,14,46,23,231,,48,26,226,*71
$GPGLL,4616.99998,N,08753.28317,W,042050.00,A,A*73
$GPRMC,042051.00,A,4617.00001,N,08753.28327,W,0.356,,240526,,,A*67
$GPVTG,,T,,M,0.356,N,0.659,K,A*29
$GPGGA,042051.00,4617.00001,N,08753.28327,W,1,06,1.32,430.7,M,-35.0,M,,*61
$GPGSA,A,3,03,32,25,06,04,28,,,,,,,2.29,1.32,1.87*08
$GPGSV,4,1,14,01,00,236,,03,54,258,25,04,34,302,35,06,05,327,33*74
$GPGSV,4,2,14,09,03,302,18,16,37,180,18,25,06,039,16,26,65,149,09*75
$GPGSV,4,3,14,28,43,064,25,29,14,064,19,31,72,046,09,32,18,120,20*72
$GPGSV,4,4,14,46,23,231,,48,26,226,*71
$GPGLL,4617.00001,N,08753.28327,W,042051.00,A,A*79
$GPRMC,042052.00,A,4616.99991,N,08753.28317,W,0.138,,240526,,,A*6C
$GPVTG,,T,,M,0.138,N,0.256,K,A*28
$GPGGA,042052.00,4616.99991,N,08753.28317,W,1,06,1.32,430.7,M,-35.0,M,,*60
$GPGSA,A,3,03,32,25,06,04,28,,,,,,,2.29,1.32,1.87*08
$GPGSV,4,1,14,01,00,236,,03,54,258,24,04,34,302,35,06,05,327,33*75
$GPGSV,4,2,14,09,03,302,18,16,37,180,16,25,06,039,16,26,65,149,09*7B
$GPGSV,4,3,14,28,43,064,26,29,14,064,19,31,72,046,08,32,18,120,20*70
$GPGSV,4,4,14,46,23,231,,48,26,226,*71
$GPGLL,4616.99991,N,08753.28317,W,042052.00,A,A*78
$GPRMC,042053.00,A,4616.99996,N,08753.28319,W,0.052,,240526,,,A*69
$GPVTG,,T,,M,0.052,N,0.097,K,A*2A
$GPGGA,042053.00,4616.99996,N,08753.28319,W,1,06,1.32,430.9,M,-35.0,M,,*66
$GPGSA,A,3,03,32,25,06,04,28,,,,,,,2.29,1.32,1.87*08
$GPGSV,4,1,14,01,00,236,,03,54,258,25,04,34,302,36,06,05,327,33*77
$GPGSV,4,2,14,09,03,302,18,16,37,180,15,25,06,039,16,26,65,149,09*78
$GPGSV,4,3,14,28,43,064,26,29,14,064,19,31,72,046,08,32,18,120,21*71
$GPGSV,4,4,14,46,23,231,,48,26,226,*71
$GPGLL,4616.99996,N,08753.28319,W,042053.00,A,A*70
$GPRMC,042054.00,A,4617.00003,N,08753.28327,W,0.370,,240526,,,A*64
$GPVTG,,T,,M,0.370,N,0.686,K,A*2F
$GPGGA,042054.00,4617.00003,N,08753.28327,W,1,06,1.32,431.0,M,-35.0,M,,*60
$GPGSA,A,3,03,32,25,06,04,28,,,,,,,2.29,1.32,1.87*08
$GPGSV,4,1,14,01,00,236,,03,54,258,25,04,34,302,35,06,05,327,33*74
$GPGSV,4,2,14,09,03,302,19,16,37,180,15,25,06,039,16,26,65,149,09*79
$GPGSV,4,3,14,28,43,064,25,29,14,064,19,31,72,046,08,32,18,120,20*73
$GPGSV,4,4,14,46,23,231,,48,26,226,*71
$GPGLL,4617.00003,N,08753.28327,W,042054.00,A,A*7E
$GPRMC,042055.00,A,4617.00001,N,08753.28328,W,0.236,,240526,,,A*6B
$GPVTG,,T,,M,0.236,N,0.438,K,A*2B
$GPGGA,042055.00,4617.00001,N,08753.28328,W,1,06,1.32,431.2,M,-35.0,M,,*6E
$GPGSA,A,3,03,32,25,06,04,28,,,,,,,2.29,1.32,1.87*08
$GPGSV,4,1,14,01,00,236,,03,54,258,25,04,34,302,36,06,05,327,33*77
$GPGSV,4,2,14,09,03,302,20,16,37,180,14,25,06,039,15,26,65,149,09*71
$GPGSV,4,3,14,28,43,064,25,29,14,064,19,31,72,046,08,32,18,120,21*72
$GPGSV,4,4,14,46,23,231,,48,26,226,*71
$GPGLL,4617.00001,N,08753.28328,W,042055.00,A,A*72
$GPRMC,042056.00,A,4617.00011,N,08753.28333,W,0.075,,240526,,,A*66
$GPVTG,,T,,M,0.075,N,0.139,K,A*2A
$GPGGA,042056.00,4617.00011,N,08753.28333,W,1,06,1.32,431.5,M,-35.0,M,,*61
$GPGSA,A,3,03,32,25,06,04,28,,,,,,,2.29,1.32,1.87*08
$GPGSV,4,1,14,01,00,236,,03,54,258,25,04,34,302,35,06,05,327,34*73
$GPGSV,4,2,14,09,03,302,20,16,37,180,14,25,06,039,15,26,65,149,08*70
$GPGSV,4,3,14,28,43,064,25,29,14,064,18,31,72,046,,32,18,120,21*7B
$GPGSV,4,4,14,46,23,231,,48,26,226,*71
$GPGLL,4617.00011,N,08753.28333,W,042056.00,A,A*7A
$GPRMC,042057.00,A,4617.00029,N,08753.28335,W,0.205,,240526,,,A*6F
$GPVTG,,T,,M,0.205,N,0.380,K,A*2F
$GPGGA,042057.00,4617.00029,N,08753.28335,W,1,06,1.32,431.8,M,-35.0,M,,*60
$GPGSA,A,3,03,32,25,06,04,28,,,,,,,2.29,1.32,1.87*08
$GPGSV,4,1,14,01,00,236,,03,54,258,25,04,34,302,36,06,05,327,34*70
$GPGSV,4,2,14,09,03,302,20,16,37,180,13,25,06,039,16,26,65,149,08*74
$GPGSV,4,3,14,28,43,064,25,29,14,064,18,31,72,046,,32,18,120,21*7B
$GPGSV,4,4,14,46,23,231,,48,26,226,*71
$GPGLL,4617.00029,N,08753.28335,W,042057.00,A,A*76
$GPRMC,042058.00,A,4617.00013,N,08753.28313,W,0.203,,240526,,,A*6B
$GPVTG,,T,,M,0.203,N,0.376,K,A*20
$GPGGA,042058.00,4617.00013,N,08753.28313,W,1,06,1.32,431.7,M,-35.0,M,,*6D
$GPGSA,A,3,03,32,25,06,04,28,,,,,,,2.29,1.32,1.87*08
$GPGSV,4,1,14,01,00,236,,03,54,258,25,04,34,302,36,06,05,327,33*77
$GPGSV,4,2,14,09,03,302,20,16,37,180,14,25,06,039,16,26,65,149,08*73
$GPGSV,4,3,14,28,43,064,25,29,14,064,18,31,72,046,,32,18,120,21*7B
$GPGSV,4,4,14,46,23,231,,48,26,226,*71
$GPGLL,4617.00013,N,08753.28313,W,042058.00,A,A*74
$GPRMC,042059.00,A,4617.00010,N,08753.28284,W,0.439,,240526,,,A*69
$GPVTG,,T,,M,0.439,N,0.812,K,A*26
$GPGGA,042059.00,4617.00010,N,08753.28284,W,1,06,1.32,432.1,M,-35.0,M,,*65
$GPGSA,A,3,03,32,25,06,04,28,,,,,,,2.29,1.32,1.87*08
$GPGSV,4,1,14,01,00,236,,03,54,258,25,04,34,302,35,06,05,327,33*74
$GPGSV,4,2,14,09,03,302,20,16,37,180,15,25,06,039,15,26,65,149,08*71
$GPGSV,4,3,14,28,43,064,24,29,14,064,17,31,72,046,,32,18,120,21*75
$GPGSV,4,4,14,46,23,231,,48,26,226,*71
$GPGLL,4617.00010,N,08753.28284,W,042059.00,A,A*79
$GPRMC,042100.00,A,4617.00025,N,08753.28262,W,0.499,,240526,,,A*60
$GPVTG,,T,,M,0.499,N,0.924,K,A*28
$GPGGA,042100.00,4617.00025,N,08753.28262,W,1,06,1.32,432.6,M,-35.0,M,,*61
$GPGSA,A,3,03,32,25,06,04,28,,,,,,,2.29,1.32,1.87*08
$GPGSV,4,1,14,01,00,236,,03,54,258,24,04,34,302,36,06,05,327,33*76
$GPGSV,4,2,14,09,03,302,21,16,37,180,16,25,06,039,15,26,65,149,08*73
