$GPRMC,031910.00,A,4617.00272,N,08753.28369,W,0.194,,240526,,,A*6F
$GPVTG,,T,,M,0.194,N,0.360,K,A*2A
$GPGGA,031910.00,4617.00272,N,08753.28369,W,1,07,1.54,445.4,M,-35.0,M,,*65
$GPGSA,A,3,03,32,31,25,04,28,01,,,,,,2.18,1.54,1.55*00
$GPGSV,4,1,16,01,18,255,15,02,04,233,12,03,46,302,35,04,11,290,26*7F
$GPGSV,4,2,16,10,02,156,,12,00,028,,13,00,030,,16,09,184,*72
$GPGSV,4,3,16,25,28,051,25,26,37,172,12,28,70,052,15,29,02,088,*77
$GPGSV,4,4,16,31,77,247,20,32,42,100,30,46,23,231,,48,26,226,*77
$GPGLL,4617.00272,N,08753.28369,W,031910.00,A,A*7D
$GPTXT,01,01,02,u-blox ag - www.u-blox.com*50
$GPTXT,01,01,02,HW  UBX-G70xx   00070000 FF7FFFFFo*69
$GPTXT,01,01,02,ROM CORE 1.00 (59842) Jun 27 2012 17:43:52*59
$GPTXT,01,01,02,PROTVER 14.00*1E
$GPTXT,01,01,02,ANTSUPERV=AC SD PDoS SR*20
$GPTXT,01,01,02,ANTSTATUS=OK*3B
$GPTXT,01,01,02,LLC FFFFFFFF-FFFFFFFF-FFFFFFFF-FFFFFFFF-FFFFFFFD*2C
$GPRMC,031911.00,A,4617.00276,N,08753.28358,W,0.094,,240526,,,A*69
$GPVTG,,T,,M,0.094,N,0.173,K,A*2B
$GPGGA,031911.00,4617.00276,N,08753.28358,W,1,07,1.54,445.4,M,-35.0,M,,*62
$GPGSA,A,3,03,32,31,25,04,28,01,,,,,,2.18,1.54,1.55*00
$GPGSV,4,1,16,01,18,255,15,02,04,233,11,03,46,302,38,04,11,290,26*71
$GPGSV,4,2,16,10,02,156,,12,00,028,,13,00,030,,16,09,184,*72
$GPGSV,4,3,16,25,28,050,25,26,37,172,12,28,70,052,16,29,02,088,*75
$GPGSV,4,4,16,31,77,247,19,32,42,100,30,46,23,231,,48,26,226,*7D
$GPGLL,4617.00276,N,08753.28358,W,031911.00,A,A*7A
$GPRMC,031912.00,A,4617.00274,N,08753.28349,W,0.246,,240526,,,A*65
$GPVTG,,T,,M,0.246,N,0.456,K,A*24
$GPGGA,031912.00,4617.00274,N,08753.28349,W,1,06,1.56,445.4,M,-35.0,M,,*60
$GPGSA,A,3,03,32,31,25,04,01,,,,,,,2.34,1.56,1.75*04
$GPGSV,4,1,16,01,18,255,15,02,04,233,12,03,46,302,38,04,11,290,26*72
$GPGSV,4,2,16,10,02,156,,12,00,028,,13,00,030,,16,09,184,*72
$GPGSV,4,3,16,25,28,050,25,26,38,172,12,28,70,052,16,29,02,088,*7A
$GPGSV,4,4,16,31,77,247,20,32,42,100,30,46,23,231,,48,26,226,*77
$GPGLL,4617.00274,N,08753.28349,W,031912.00,A,A*7B
$GPRMC,031913.00,A,4617.00283,N,08753.28345,W,0.745,,240526,,,A*66
$GPVTG,,T,,M,0.745,N,1.379,K,A*29
$GPGGA,031913.00,4617.00283,N,08753.28345,W,1,06,1.56,445.1,M,-35.0,M,,*60
$GPGSA,A,3,03,32,31,25,04,01,,,,,,,2.34,1.56,1.75*04
$GPGSV,4,1,16,01,18,255,15,02,04,233,13,03,46,302,38,04,11,290,26*73
$GPGSV,4,2,16,10,02,156,,12,00,028,,13,00,030,,16,09,184,*72
$GPGSV,4,3,16,25,28,050,25,26,38,172,12,28,70,052,16,29,02,088,*7A
$GPGSV,4,4,16,31,77,247,20,32,42,100,30,46,23,231,,48,26,226,*77
$GPGLL,4617.00283,N,08753.28345,W,031913.00,A,A*7E
$GPRMC,031914.00,A,4617.00298,N,08753.28335,W,0.456,,240526,,,A*6D
$GPVTG,,T,,M,0.456,N,0.845,K,A*2D
$GPGGA,031914.00,4617.00298,N,08753.28335,W,1,07,1.54,445.2,M,-35.0,M,,*6A
$GPGSA,A,3,03,32,31,25,04,28,01,,,,,,2.18,1.54,1.55*00
$GPGSV,4,1,16,01,18,255,15,02,04,233,14,03,46,302,38,04,11,290,26*74
$GPGSV,4,2,16,10,02,156,,12,00,028,,13,00,030,,16,09,184,*72
$GPGSV,4,3,16,25,28,050,25,26,38,172,14,28,70,052,16,29,02,088,*7C
$GPGSV,4,4,16,31,77,247,20,32,42,100,31,46,23,231,,48,26,226,*76
$GPGLL,4617.00298,N,08753.28335,W,031914.00,A,A*74
$GPRMC,031915.00,A,4617.00318,N,08753.28324,W,0.402,,240526,,,A*64
$GPVTG,,T,,M,0.402,N,0.744,K,A*22
$GPGGA,031915.00,4617.00318,N,08753.28324,W,1,07,1.54,445.1,M,-35.0,M,,*61
$GPGSA,A,3,03,32,31,25,04,28,01,,,,,,2.18,1.54,1.55*00
$GPGSV,4,1,16,01,18,255,13,02,04,233,13,03,46,302,38,04,11,290,26*75
$GPGSV,4,2,16,10,02,156,,12,00,028,,13,00,030,,16,09,184,*72
$GPGSV,4,3,16,25,28,050,25,26,38,172,14,28,70,052,16,29,02,088,*7C
$GPGSV,4,4,16,31,77,247,21,32,42,100,31,46,23,231,,48,26,226,*77
$GPGLL,4617.00318,N,08753.28324,W,031915.00,A,A*7C
$GPRMC,031916.00,A,4617.00298,N,08753.28332,W,0.317,,240526,,,A*6A
$GPVTG,,T,,M,0.317,N,0.587,K,A*2C
$GPGGA,031916.00,4617.00298,N,08753.28332,W,1,07,1.54,444.8,M,-35.0,M,,*64
$GPGSA,A,3,03,32,31,25,04,28,01,,,,,,2.18,1.54,1.55*00
$GPGSV,4,1,16,01,18,255,13,02,04,233,14,03,46,302,38,04,11,290,26*72
$GPGSV,4,2,16,10,02,156,,12,00,028,,13,00,030,,16,09,184,*72
$GPGSV,4,3,16,25,28,050,25,26,38,172,14,28,70,052,16,29,02,088,*7C
$GPGSV,4,4,16,31,77,247,22,32,42,100,31,46,23,231,,48,26,226,*74
$GPGLL,4617.00298,N,08753.28332,W,031916.00,A,A*71
$GPRMC,031917.00,A,4617.00315,N,08753.28321,W,0.666,,240526,,,A*6E
$GPVTG,,T,,M,0.666,N,1.233,K,A*26
$GPGGA,031917.00,4617.00315,N,08753.28321,W,1,07,1.54,444.8,M,-35.0,M,,*63
$GPGSA,A,3,03,32,31,25,04,28,01,,,,,,2.18,1.54,1.55*00
$GPGSV,4,1,16,01,18,255,14,02,04,233,14,03,46,302,38,04,11,290,26*75
$GPGSV,4,2,16,10,02,156,,12,00,028,,13,00,030,,16,09,184,*72
$GPGSV,4,3,16,25,28,050,26,26,38,172,14,28,70,052,17,29,02,088,*7E
$GPGSV,4,4,16,31,77,247,22,32,42,100,31,46,23,231,,48,26,226,*74
$GPGLL,4617.00315,N,08753.28321,W,031917.00,A,A*76
$GPRMC,031918.00,A,4617.00313,N,08753.28317,W,0.153,,240526,,,A*63
$GPVTG,,T,,M,0.153,N,0.284,K,A*2A
$GPGGA,031918.00,4617.00313,N,08753.28317,W,1,07,1.53,444.8,M,-35.0,M,,*68
$GPGSA,A,3,03,32,31,25,04,28,01,,,,,,2.18,1.53,1.55*07
$GPGSV,4,1,16,01,18,255,15,02,04,233,16,03,46,302,37,04,11,290,26*79
$GPGSV,4,2,16,10,02,156,,12,00,028,,13,00,030,,16,09,184,*72
$GPGSV,4,3,16,25,28,050,26,26,38,172,14,28,70,052,16,29,02,088,*7F
$GPGSV,4,4,16,31,77,247,22,32,41,101,31,46,23,231,,48,26,226,*76
$GPGLL,4617.00313,N,08753.28317,W,031918.00,A,A*7A
$GPRMC,031919.00,A,4617.00322,N,08753.28310,W,0.080,,240526,,,A*68
$GPVTG,,T,,M,0.080,N,0.147,K,A*29
$GPGGA,031919.00,4617.00322,N,08753.28310,W,1,07,1.53,444.7,M,-35.0,M,,*63
$GPGSA,A,3,03,32,31,25,04,28,01,,,,,,2.18,1.53,1.55*07
$GPGSV,4,1,16,01,18,255,14,02,04,233,15,03,46,302,38,04,11,290,26*74
$GPGSV,4,2,16,10,02,156,,12,00,028,,13,00,030,,16,09,184,*72
$GPGSV,4,3,16,25,28,050,26,26,38,172,14,28,70,052,16,29,02,088,*7F
$GPGSV,4,4,16,31,77,247,22,32,41,101,31,46,23,231,,48,26,226,*76
$GPGLL,4617.00322,N,08753.28310,W,031919.00,A,A*7E
$GPRMC,031920.00,A,4617.00320,N,08753.28308,W,0.312,,240526,,,A*61
$GPVTG,,T,,M,0.312,N,0.578,K,A*29
$GPGGA,031920.00,4617.00320,N,08753.28308,W,1,07,1.53,444.9,M,-35.0,M,,*6C
$GPGSA,A,3,03,32,31,25,04,28,01,,,,,,2.18,1.53,1.55*07
$GPGSV,4,1,16,01,18,255,15,02,04,233,14,03,46,302,38,04,11,290,26*74
$GPGSV,4,2,16,10,02,156,,12,00,028,,13,00,030,,16,09,184,*72
$GPGSV,4,3,16,25,28,050,26,26,38,172,10,28,70,052,18,29,02,088,*75
$GPGSV,4,4,16,31,77,247,23,32,41,101,31,46,23,231,,48,26,226,*77
$GPGLL,4617.00320,N,08753.28308,W,031920.00,A,A*7F
$GPRMC,031921.00,A,4617.00314,N,08753.28303,W,0.010,,240526,,,A*6D
$GPVTG,,T,,M,0.010,N,0.019,K,A*2A
$GPGGA,031921.00,4617.00314,N,08753.28303,W,1,07,1.53,444.8,M,-35.0,M,,*60
$GPGSA,A,3,03,32,31,25,04,28,01,,,,,,2.18,1.53,1.55*07
$GPGSV,4,1,16,01,18,255,16,02,04,233,12,03,46,302,38,04,11,290,27*70
$GPGSV,4,2,16,10,02,156,,12,00,028,,13,00,030,,16,09,184,*72
$GPGSV,4,3,16,25,28,050,26,26,38,172,10,28,70,052,18,29,02,088,*75
$GPGSV,4,4,16,31,77,247,23,32,41,101,32,46,23,231,,48,26,226,*74
$GPGLL,4617.00314,N,08753.28303,W,031921.00,A,A*72
$GPRMC,031922.00,A,4617.00318,N,08753.28297,W,0.381,,240526,,,A*65
$GPVTG,,T,,M,0.381,N,0.705,K,A*2B
$GPGGA,031922.00,4617.00318,N,08753.28297,W,1,07,1.53,444.5,M,-35.0,M,,*6E
$GPGSA,A,3,03,32,31,25,04,28,01,,,,,,2.18,1.53,1.55*07
$GPGSV,4,1,16,01,18,255,16,02,04,233,09,03,46,302,38,04,11,290,27*7A
$GPGSV,4,2,16,10,02,156,,12,00,028,,13,00,030,,16,09,184,*72
$GPGSV,4,3,16,25,28,050,26,26,38,172,10,28,70,052,19,29,02,088,*74
$GPGSV,4,4,16,31,77,247,23,32,41,101,32,46,23,231,,48,26,226,*74
$GPGLL,4617.00318,N,08753.28297,W,031922.00,A,A*71
$GPRMC,031923.00,A,4617.00314,N,08753.28297,W,0.302,,240526,,,A*63
$GPVTG,,T,,M,0.302,N,0.559,K,A*2B
$GPGGA,031923.00,4617.00314,N,08753.28297,W,1,07,1.53,444.5,M,-35.0,M,,*63
$GPGSA,A,3,03,32,31,25,04,28,01,,,,,,2.18,1.53,1.55*07
$GPGSV,4,1,16,01,18,255,17,02,04,233,08,03,46,302,38,04,11,290,27*7A
$GPGSV,4,2,16,10,02,156,,12,00,028,,13,00,030,,16,09,184,*72
$GPGSV,4,3,16,25,28,050,26,26,38,172,10,28,70,052,18,29,02,088,*75
$GPGSV,4,4,16,31,77,247,24,32,41,101,32,46,23,231,,48,26,226,*73
$GPGLL,4617.00314,N,08753.28297,W,031923.00,A,A*7C
$GPRMC,031924.00,A,4617.00331,N,08753.28296,W,0.268,,240526,,,A*6F
$GPVTG,,T,,M,0.268,N,0.497,K,A*25
$GPGGA,031924.00,4617.00331,N,08753.28296,W,1,07,1.53,444.4,M,-35.0,M,,*63
$GPGSA,A,3,03,32,31,25,04,28,01,,,,,,2.18,1.53,1.55*07
$GPGSV,4,1,16,01,18,255,16,02,04,233,08,03,46,302,35,04,11,290,26*77
$GPGSV,4,2,16,10,02,156,,12,00,028,13,13,00,030,,16,09,184,*70
$GPGSV,4,3,16,25,28,050,25,26,38,172,10,28,70,052,17,29,02,088,*79
$GPGSV,4,4,16,31,77,247,24,32,41,101,31,46,23,231,,48,26,226,*70
$GPGLL,4617.00331,N,08753.28296,W,031924.00,A,A*7D
$GPRMC,031925.00,A,4617.00319,N,08753.28302,W,0.664,,240526,,,A*60
$GPVTG,,T,,M,0.664,N,1.230,K,A*27
$GPGGA,031925.00,4617.00319,N,08753.28302,W,1,07,1.53,444.1,M,-35.0,M,,*61
$GPGSA,A,3,03,32,31,25,04,28,01,,,,,,2.18,1.53,1.55*07
$GPGSV,4,1,16,01,18,255,15,02,04,233,08,03,46,302,38,04,11,290,26*79
$GPGSV,4,2,16,10,02,156,,12,00,028,10,13,00,030,,16,09,184,*73
$GPGSV,4,3,16,25,28,050,25,26,38,172,10,28,70,052,17,29,02,088,*79
$GPGSV,4,4,16,31,77,247,24,32,41,101,31,46,23,231,,48,26,226,*70
$GPGLL,4617.00319,N,08753.28302,W,031925.00,A,A*7A
$GPRMC,031926.00,A,4617.00322,N,08753.28301,W,0.067,,240526,,,A*6D
$GPVTG,,T,,M,0.067,N,0.124,K,A*25
$GPGGA,031926.00,4617.00322,N,08753.28301,W,1,07,1.53,443.8,M,-35.0,M,,*67
$GPGSA,A,3,03,32,31,25,04,28,01,,,,,,2.18,1.53,1.55*07
$GPGSV,4,1,16,01,18,255,15,02,04,233,10,03,46,302,38,04,11,290,26*70
$GPGSV,4,2,16,10,02,156,,12,00,028,09,13,00,030,,16,09,184,*7B
$GPGSV,4,3,16,25,28,050,25,26,38,172,17,28,70,052,16,29,02,088,*7F
$GPGSV,4,4,16,31,77,247,24,32,41,101,31,46,23,231,,48,26,226,*70
$GPGLL,4617.00322,N,08753.28301,W,031926.00,A,A*72
$GPRMC,031927.00,A,4617.00331,N,08753.28295,W,0.041,,240526,,,A*66
$GPVTG,,T,,M,0.041,N,0.076,K,A*27
$GPGGA,031927.00,4617.00331,N,08753.28295,W,1,06,1.56,443.7,M,-35.0,M,,*63
$GPGSA,A,3,03,32,31,25,04,01,,,,,,,2.34,1.56,1.74*05
$GPGSV,4,1,16,01,18,255,15,02,04,233,10,03,46,302,38,04,11,290,26*70
$GPGSV,4,2,16,10,02,156,,12,00,028,08,13,00,030,,16,09,184,*7A
$GPGSV,4,3,16,25,28,050,25,26,38,172,10,28,70,052,,29,02,088,*7F
$GPGSV,4,4,16,31,77,247,24,32,41,101,31,46,23,231,,48,26,226,*70
$GPGLL,4617.00331,N,08753.28295,W,031927.00,A,A*7D
$GPRMC,031928.00,A,4617.00346,N,08753.28283,W,0.128,,240526,,,A*60
$GPVTG,,T,,M,0.128,N,0.238,K,A*21
$GPGGA,031928.00,4617.00346,N,08753.28283,W,1,06,1.56,443.5,M,-35.0,M,,*69
$GPGSA,A,3,03,32,31,25,04,01,,,,,,,2.34,1.56,1.74*05
$GPGSV,4,1,16,01,18,255,14,02,04,233,10,03,46,302,38,04,11,290,26*71
$GPGSV,4,2,16,10,02,156,,12,00,028,08,13,00,030,,16,09,184,*7A
$GPGSV,4,3,16,25,28,050,24,26,38,172,16,28,70,052,17,29,02,088,*7E
$GPGSV,4,4,16,31,77,247,24,32,41,101,31,46,23,231,,48,26,226,*70
$GPGLL,4617.00346,N,08753.28283,W,031928.00,A,A*75
$GPRMC,031929.00,A,4617.00385,N,08753.28263,W,0.534,,240526,,,A*69
$GPVTG,,T,,M,0.534,N,0.989,K,A*29
$GPGGA,031929.00,4617.00385,N,08753.28263,W,1,06,1.55,443.4,M,-35.0,M,,*6B
$GPGSA,A,3,03,32,31,25,04,01,,,,,,,2.33,1.55,1.74*01
$GPGSV,4,1,16,01,18,255,12,02,04,233,10,03,46,302,36,04,11,290,25*7A
$GPGSV,4,2,16,10,02,156,,12,00,028,08,13,00,030,,16,09,184,*7A
$GPGSV,4,3,16,25,28,050,23,26,38,172,16,28,70,052,17,29,02,088,*79
$GPGSV,4,4,16,31,77,247,24,32,41,101,30,46,23,231,,48,26,226,*71
$GPGLL,4617.00385,N,08753.28263,W,031929.00,A,A*75
$GPRMC,031930.00,A,4617.00396,N,08753.28256,W,0.496,,240526,,,A*6C
$GPVTG,,T,,M,0.496,N,0.918,K,A*28
$GPGGA,031930.00,4617.00396,N,08753.28256,W,1,05,2.14,443.3,M,-35.0,M,,*65
$GPGSA,A,3,03,32,31,25,04,,,,,,,,3.04,2.14,2.15*07
$GPGSV,4,1,16,01,18,255,09,02,04,233,10,03,46,302,38,04,11,290,26*7D
$GPGSV,4,2,16,10,02,156,,12,00,028,08,13,00,030,,16,09,184,*7A
$GPGSV,4,3,16,25,28,050,24,26,38,172,18,28,70,052,,29,02,088,*76
$GPGSV,4,4,16,31,77,247,23,32,41,101,30,46,23,231,,48,26,226,*76
$GPGLL,4617.00396,N,08753.28256,W,031930.00,A,A*79
$GPRMC,031931.00,A,4617.00394,N,08753.28250,W,0.672,,240526,,,A*61
$GPVTG,,T,,M,0.672,N,1.245,K,A*22
$GPGGA,031931.00,4617.00394,N,08753.28250,W,1,05,2.14,443.1,M,-35.0,M,,*62
$GPGSA,A,3,03,32,31,25,04,,,,,,,,3.04,2.14,2.15*07
$GPGSV,4,1,16,01,18,255,08,02,04,233,10,03,46,302,38,04,11,290,26*7C
$GPGSV,4,2,16,10,02,156,,12,00,028,,13,00,030,,16,09,184,*72
$GPGSV,4,3,16,25,28,050,24,26,38,172,18,28,70,052,,29,02,088,*76
$GPGSV,4,4,16,31,77,247,23,32,41,101,30,46,23,231,,48,26,226,*76
$GPGLL,4617.00394,N,08753.28250,W,031931.00,A,A*7C
$GPRMC,031932.00,A,4617.00397,N,08753.28245,W,0.267,,240526,,,A*65
$GPVTG,,T,,M,0.267,N,0.495,K,A*28
$GPGGA,031932.00,4617.00397,N,08753.28245,W,1,05,2.14,442.9,M,-35.0,M,,*6F
$GPGSA,A,3,03,32,31,25,04,,,,,,,,3.04,2.14,2.15*07
$GPGSV,4,1,16,01,18,255,08,02,04,233,08,03,46,302,38,04,11,290,26*75
$GPGSV,4,2,16,10,02,156,,12,00,028,,13,00,030,,16,09,184,*72
$GPGSV,4,3,16,25,28,050,25,26,38,172,18,28,70,052,,29,02,088,*77
$GPGSV,4,4,16,31,77,247,25,32,41,101,31,46,23,231,,48,26,226,*71
$GPGLL,4617.00397,N,08753.28245,W,031932.00,A,A*78
$GPRMC,031933.00,A,4617.00404,N,08753.28234,W,0.111,,240526,,,A*6D
$GPVTG,,T,,M,0.111,N,0.206,K,A*26
$GPGGA,031933.00,4617.00404,N,08753.28234,W,1,05,2.14,442.6,M,-35.0,M,,*6A
$GPGSA,A,3,03,32,31,25,04,,,,,,,,3.04,2.14,2.15*07
$GPGSV,4,1,16,01,18,255,08,02,04,233,08,03,46,302,38,04,11,290,26*75
$GPGSV,4,2,16,10,02,156,,12,00,028,,13,00,030,,16,09,184,*72
$GPGSV,4,3,16,25,28,050,25,26,38,172,18,28,70,052,,29,02,088,*77
$GPGSV,4,4,16,31,77,247,25,32,41,101,30,46,23,231,,48,26,226,*70
$GPGLL,4617.00404,N,08753.28234,W,031933.00,A,A*72
$GPRMC,031934.00,A,4617.00408,N,08753.28223,W,0.115,,240526,,,A*64
$GPVTG,,T,,M,0.115,N,0.213,K,A*26
$GPGGA,031934.00,4617.00408,N,08753.28223,W,1,05,2.14,442.3,M,-35.0,M,,*62
$GPGSA,A,3,03,32,31,25,04,,,,,,,,3.04,2.14,2.15*07
$GPGSV,4,1,16,01,18,255,08,02,04,233,08,03,46,302,39,04,11,290,26*74
$GPGSV,4,2,16,10,02,156,,12,00,028,,13,00,030,,16,09,184,*72
$GPGSV,4,3,16,25,28,050,25,26,38,172,18,28,70,052,,29,02,088,*77
$GPGSV,4,4,16,31,77,247,25,32,41,101,30,46,23,231,,48,26,226,*70
$GPGLL,4617.00408,N,08753.28223,W,031934.00,A,A*7F
$GPRMC,031935.00,A,4617.00414,N,08753.28217,W,0.339,,240526,,,A*63
$GPVTG,,T,,M,0.339,N,0.627,K,A*29
$GPGGA,031935.00,4617.00414,N,08753.28217,W,1,05,2.14,442.1,M,-35.0,M,,*6B
$GPGSA,A,3,03,32,31,25,04,,,,,,,,3.04,2.14,2.15*07
$GPGSV,4,1,16,01,18,255,08,02,04,233,08,03,46,302,38,04,12,291,26*77
$GPGSV,4,2,16,10,02,156,,12,00,028,,13,00,030,,16,09,184,*72
$GPGSV,4,3,16,25,28,050,25,26,38,172,17,28,70,052,,29,02,088,*78
$GPGSV,4,4,16,31,77,247,25,32,41,101,30,46,23,231,,48,26,226,*70
$GPGLL,4617.00414,N,08753.28217,W,031935.00,A,A*74
$GPRMC,031936.00,A,4617.00424,N,08753.28206,W,0.445,,240526,,,A*6F
$GPVTG,,T,,M,0.445,N,0.825,K,A*29
$GPGGA,031936.00,4617.00424,N,08753.28206,W,1,05,2.14,441.7,M,-35.0,M,,*6E
$GPGSA,A,3,03,32,31,25,04,,,,,,,,3.04,2.14,2.15*07
$GPGSV,4,1,16,01,18,255,08,02,04,233,08,03,46,302,39,04,12,291,26*76
$GPGSV,4,2,16,10,02,156,,12,00,028,,13,00,030,,16,09,184,*72
$GPGSV,4,3,16,25,28,050,25,26,38,172,16,28,70,052,,29,02,088,*79
$GPGSV,4,4,16,31,77,247,25,32,41,101,30,46,23,231,,48,26,226,*70
$GPGLL,4617.00424,N,08753.28206,W,031936.00,A,A*74
$GPRMC,031937.00,A,4617.00430,N,08753.28197,W,0.127,,240526,,,A*61
$GPVTG,,T,,M,0.127,N,0.236,K,A*20
$GPGGA,031937.00,4617.00430,N,08753.28197,W,1,05,2.14,441.2,M,-35.0,M,,*64
$GPGSA,A,3,03,32,31,25,04,,,,,,,,3.04,2.14,2.15*07
$GPGSV,4,1,16,01,18,255,08,02,04,233,08,03,46,302,39,04,12,291,26*76
$GPGSV,4,2,16,10,02,156,,12,00,028,,13,00,030,,16,09,184,*72
$GPGSV,4,3,16,25,28,050,25,26,38,172,16,28,70,052,,29,02,088,*79
$GPGSV,4,4,16,31,77,247,25,32,41,101,30,46,23,231,,48,26,226,*70
$GPGLL,4617.00430,N,08753.28197,W,031937.00,A,A*7B
$GPRMC,031938.00,A,4617.00439,N,08753.28188,W,0.038,,240526,,,A*66
$GPVTG,,T,,M,0.038,N,0.071,K,A*2E
$GPGGA,031938.00,4617.00439,N,08753.28188,W,1,06,1.55,440.9,M,-35.0,M,,*63
$GPGSA,A,3,03,32,31,25,04,01,,,,,,,2.33,1.55,1.74*01
$GPGSV,4,1,16,01,18,255,11,02,04,233,10,03,46,302,39,04,12,291,26*77
$GPGSV,4,2,16,10,02,156,,12,00,028,,13,00,030,,16,09,184,*72
$GPGSV,4,3,16,25,28,050,25,26,38,172,15,28,70,052,,29,02,088,*7A
$GPGSV,4,4,16,31,77,247,26,32,41,101,31,46,23,231,,48,26,226,*72
$GPGLL,4617.00439,N,08753.28188,W,031938.00,A,A*73
$GPRMC,031939.00,A,4617.00445,N,08753.28182,W,0.171,,240526,,,A*6A
$GPVTG,,T,,M,0.171,N,0.318,K,A*2E
$GPGGA,031939.00,4617.00445,N,08753.28182,W,1,06,1.55,440.6,M,-35.0,M,,*6C
$GPGSA,A,3,03,32,31,25,04,01,,,,,,,2.33,1.55,1.74*01
$GPGSV,4,1,16,01,18,255,11,02,04,233,10,03,46,302,39,04,12,291,26*77
$GPGSV,4,2,16,10,02,156,,12,00,028,,13,00,030,,16,09,184,*72
$GPGSV,4,3,16,25,28,050,24,26,38,172,16,28,70,052,,29,02,088,*78
$GPGSV,4,4,16,31,77,247,25,32,41,101,30,46,23,231,,48,26,226,*70
$GPGLL,4617.00445,N,08753.28182,W,031939.00,A,A*73
$GPRMC,031940.00,A,4617.00447,N,08753.28174,W,0.329,,240526,,,A*60
$GPVTG,,T,,M,0.329,N,0.608,K,A*25
$GPGGA,031940.00,4617.00447,N,08753.28174,W,1,06,1.55,440.3,M,-35.0,M,,*6C
$GPGSA,A,3,03,32,31,25,04,01,,,,,,,2.33,1.55,1.74*01
$GPGSV,4,1,16,01,18,255,11,02,04,233,10,03,46,302,39,04,12,291,26*77
$GPGSV,4,2,16,10,02,156,,12,00,028,,13,00,030,,16,09,184,*72
$GPGSV,4,3,16,25,28,050,25,26,38,172,16,28,70,052,,29,02,088,*79
$GPGSV,4,4,16,31,77,247,25,32,41,101,31,46,23,231,,48,26,226,*71
$GPGLL,4617.00447,N,08753.28174,W,031940.00,A,A*76
$GPRMC,031941.00,A,4617.00464,N,08753.28166,W,0.097,,240526,,,A*65
$GPVTG,,T,,M,0.097,N,0.181,K,A*25
$GPGGA,031941.00,4617.00464,N,08753.28166,W,1,06,1.55,440.1,M,-35.0,M,,*6D
$GPGSA,A,3,03,32,31,25,04,01,,,,,,,2.33,1.55,1.74*01
$GPGSV,4,1,16,01,18,255,11,02,04,233,10,03,46,302,39,04,12,291,26*77
$GPGSV,4,2,16,10,02,156,,12,00,028,,13,00,030,,16,09,184,*72
$GPGSV,4,3,16,25,28,050,25,26,38,172,16,28,70,052,,29,02,088,*79
$GPGSV,4,4,16,31,77,247,25,32,41,101,31,46,23,231,,48,26,226,*71
$GPGLL,4617.00464,N,08753.28166,W,031941.00,A,A*75
$GPRMC,031942.00,A,4617.00470,N,08753.28165,W,0.269,,240526,,,A*63
$GPVTG,,T,,M,0.269,N,0.498,K,A*2B
$GPGGA,031942.00,4617.00470,N,08753.28165,W,1,06,1.55,439.9,M,-35.0,M,,*6E
$GPGSA,A,3,03,32,31,25,04,01,,,,,,,2.33,1.55,1.74*01
$GPGSV,4,1,16,01,18,255,11,02,04,233,10,03,46,302,39,04,12,291,25*74
$GPGSV,4,2,16,10,02,156,,12,00,028,,13,00,030,,16,09,184,07*75
$GPGSV,4,3,16,25,28,050,25,26,38,172,16,28,70,052,16,29,02,088,*7E
$GPGSV,4,4,16,31,77,247,25,32,41,101,31,46,23,231,,48,26,226,*71
$GPGLL,4617.00470,N,08753.28165,W,031942.00,A,A*70
$GPRMC,031943.00,A,4617.00470,N,08753.28162,W,0.117,,240526,,,A*6F
$GPVTG,,T,,M,0.117,N,0.217,K,A*20
$GPGGA,031943.00,4617.00470,N,08753.28162,W,1,05,2.14,439.7,M,-35.0,M,,*63
$GPGSA,A,3,03,32,31,25,04,,,,,,,,3.04,2.14,2.15*07
$GPGSV,4,1,16,01,18,255,,02,04,233,10,03,46,302,39,04,12,291,26*77
$GPGSV,4,2,16,10,02,156,,12,00,028,,13,00,030,,16,09,184,09*7B
$GPGSV,4,3,16,25,28,050,25,26,38,172,15,28,70,052,,29,02,088,*7A
$GPGSV,4,4,16,31,77,247,26,32,41,101,31,46,23,231,,48,26,226,*72
$GPGLL,4617.00470,N,08753.28162,W,031943.00,A,A*76
$GPRMC,031944.00,A,4617.00476,N,08753.28163,W,0.166,,240526,,,A*69
$GPVTG,,T,,M,0.166,N,0.307,K,A*26
$GPGGA,031944.00,4617.00476,N,08753.28163,W,1,05,2.14,439.6,M,-35.0,M,,*62
$GPGSA,A,3,03,32,31,25,04,,,,,,,,3.04,2.14,2.15*07
$GPGSV,4,1,16,01,18,255,,02,04,233,16,03,46,302,39,04,12,291,26*71
$GPGSV,4,2,16,10,02,156,,12,00,028,,13,00,030,,16,09,184,11*72
$GPGSV,4,3,16,25,28,050,26,26,38,172,14,28,70,052,,29,02,088,*78
$GPGSV,4,4,16,31,77,247,26,32,41,101,31,46,23,231,,48,26,226,*72
$GPGLL,4617.00476,N,08753.28163,W,031944.00,A,A*76
$GPRMC,031945.00,A,4617.00479,N,08753.28164,W,0.308,,240526,,,A*6A
$GPVTG,,T,,M,0.308,N,0.571,K,A*2B
$GPGGA,031945.00,4617.00479,N,08753.28164,W,1,05,2.14,439.5,M,-35.0,M,,*68
$GPGSA,A,3,03,32,31,25,04,,,,,,,,3.04,2.14,2.15*07
$GPGSV,4,1,16,01,18,255,06,02,04,233,16,03,46,302,39,04,12,291,26*77
$GPGSV,4,2,16,10,02,156,,12,00,028,,13,00,030,,16,09,184,13*70
$GPGSV,4,3,16,25,28,050,26,26,38,172,12,28,70,052,,29,02,088,*7E
$GPGSV,4,4,16,31,77,247,26,32,41,101,31,46,23,231,,48,26,226,*72
$GPGLL,4617.00479,N,08753.28164,W,031945.00,A,A*7F
$GPRMC,031946.00,A,4617.00479,N,08753.28161,W,0.018,,240526,,,A*6E
$GPVTG,,T,,M,0.018,N,0.033,K,A*2A
$GPGGA,031946.00,4617.00479,N,08753.28161,W,1,05,2.14,439.4,M,-35.0,M,,*6F
$GPGSA,A,3,03,32,31,25,04,,,,,,,,3.04,2.14,2.15*07
$GPGSV,4,1,16,01,18,255,09,02,04,233,16,03,46,302,39,04,12,291,26*78
$GPGSV,4,2,16,10,02,156,,12,00,028,,13,00,030,,16,09,184,11*72
$GPGSV,4,3,16,25,28,050,26,26,38,172,13,28,70,052,,29,02,088,*7F
$GPGSV,4,4,16,31,77,247,26,32,41,101,31,46,23,231,,48,26,226,*72
$GPGLL,4617.00479,N,08753.28161,W,031946.00,A,A*79
$GPRMC,031947.00,A,4617.00476,N,08753.28159,W,0.109,,240526,,,A*6A
$GPVTG,,T,,M,0.109,N,0.203,K,A*2A
$GPGGA,031947.00,4617.00476,N,08753.28159,W,1,05,2.14,439.2,M,-35.0,M,,*6C
$GPGSA,A,3,03,32,31,25,04,,,,,,,,3.04,2.14,2.15*07
$GPGSV,4,1,16,01,18,255,12,02,04,233,16,03,46,302,39,04,12,291,26*72
$GPGSV,4,2,16,10,02,156,,12,00,028,,13,00,030,,16,09,184,11*72
$GPGSV,4,3,16,25,28,050,26,26,38,172,14,28,70,052,,29,02,088,*78
$GPGSV,4,4,16,31,77,247,26,32,41,101,31,46,23,231,,48,26,226,*72
$GPGLL,4617.00476,N,08753.28159,W,031947.00,A,A*7C
$GPRMC,031948.00,A,4617.00479,N,08753.28154,W,0.094,,240526,,,A*62
$GPVTG,,T,,M,0.094,N,0.174,K,A*2C
$GPGGA,031948.00,4617.00479,N,08753.28154,W,1,05,2.14,439.2,M,-35.0,M,,*61
$GPGSA,A,3,03,32,31,25,04,,,,,,,,3.04,2.14,2.15*07
$GPGSV,4,1,16,01,18,255,13,02,04,233,16,03,46,302,39,04,12,291,26*73
$GPGSV,4,2,16,10,02,156,,12,00,028,,13,00,030,,16,09,184,12*71
$GPGSV,4,3,16,25,28,050,26,26,38,172,15,28,70,052,,29,02,088,*79
$GPGSV,4,4,16,31,77,247,26,32,41,101,31,46,23,231,,48,26,226,*72
$GPGLL,4617.00479,N,08753.28154,W,031948.00,A,A*71
$GPRMC,031949.00,A,4617.00530,N,08753.28128,W,0.704,,240526,,,A*6A
$GPVTG,,T,,M,0.704,N,1.304,K,A*26
$GPGGA,031949.00,4617.00530,N,08753.28128,W,1,06,1.55,439.3,M,-35.0,M,,*63
$GPGSA,A,3,03,32,31,25,04,01,,,,,,,2.33,1.55,1.74*01
$GPGSV,4,1,16,01,18,255,13,02,04,233,16,03,46,302,39,04,12,291,26*73
$GPGSV,4,2,16,10,02,156,,12,00,028,,13,00,030,,16,09,184,12*71
$GPGSV,4,3,16,25,28,050,26,26,38,172,14,28,70,052,17,29,02,088,*7E
$GPGSV,4,4,16,31,77,247,26,32,41,101,31,46,23,231,,48,26,226,*72
$GPGLL,4617.00530,N,08753.28128,W,031949.00,A,A*77
$GPRMC,031950.00,A,4617.00549,N,08753.28112,W,0.029,,240526,,,A*6D
$GPVTG,,T,,M,0.029,N,0.054,K,A*29
$GPGGA,031950.00,4617.00549,N,08753.28112,W,1,06,1.55,439.4,M,-35.0,M,,*6B
$GPGSA,A,3,03,32,31,25,04,01,,,,,,,2.33,1.55,1.74*01
$GPGSV,4,1,16,01,18,255,11,02,04,233,13,03,46,302,39,04,12,291,26*74
$GPGSV,4,2,16,10,02,156,,12,00,028,,13,00,030,,16,09,184,12*71
$GPGSV,4,3,16,25,28,050,27,26,38,172,14,28,70,052,,29,02,088,*79
$GPGSV,4,4,16,31,77,247,26,32,41,101,31,46,23,231,,48,26,226,*72
$GPGLL,4617.00549,N,08753.28112,W,031950.00,A,A*78
$GPRMC,031951.00,A,4617.00540,N,08753.28109,W,0.136,,240526,,,A*60
$GPVTG,,T,,M,0.136,N,0.252,K,A*22
$GPGGA,031951.00,4617.00540,N,08753.28109,W,1,05,2.14,439.3,M,-35.0,M,,*6B
$GPGSA,A,3,03,32,31,25,04,,,,,,,,3.04,2.14,2.15*07
$GPGSV,4,1,16,01,18,255,09,02,04,233,13,03,46,302,39,04,12,291,26*7D
$GPGSV,4,2,16,10,02,156,,12,00,028,,13,00,030,,16,09,184,10*73
$GPGSV,4,3,16,25,28,050,26,26,38,172,13,28,70,052,,29,02,088,*7F
$GPGSV,4,4,16,31,77,247,27,32,41,101,31,46,23,231,,48,26,226,*73
$GPGLL,4617.00540,N,08753.28109,W,031951.00,A,A*7A
$GPRMC,031952.00,A,4617.00526,N,08753.28107,W,0.302,,240526,,,A*68
$GPVTG,,T,,M,0.302,N,0.560,K,A*21
$GPGGA,031952.00,4617.00526,N,08753.28107,W,1,05,2.14,439.3,M,-35.0,M,,*66
$GPGSA,A,3,03,32,31,25,04,,,,,,,,3.04,2.14,2.15*07
$GPGSV,4,1,16,01,18,255,09,02,04,233,13,03,46,302,37,04,12,291,26*73
$GPGSV,4,2,16,10,02,156,,12,00,028,,13,00,030,,16,09,184,10*73
$GPGSV,4,3,16,25,28,050,26,26,38,172,13,28,70,052,,29,02,088,*7F
$GPGSV,4,4,16,31,77,247,26,32,41,101,30,46,23,231,,48,26,226,*73
$GPGLL,4617.00526,N,08753.28107,W,031952.00,A,A*77
$GPRMC,031953.00,A,4617.00515,N,08753.28109,W,0.153,,240526,,,A*61
$GPVTG,,T,,M,0.153,N,0.284,K,A*2A
$GPGGA,031953.00,4617.00515,N,08753.28109,W,1,05,2.14,439.2,M,-35.0,M,,*68
$GPGSA,A,3,03,32,31,25,04,,,,,,,,3.04,2.14,2.15*07
$GPGSV,4,1,16,01,18,255,09,02,04,233,13,03,46,302,39,04,12,291,26*7D
$GPGSV,4,2,16,10,02,156,,12,00,028,,13,00,030,,16,09,184,10*73
$GPGSV,4,3,16,25,28,050,26,26,38,172,10,28,70,052,,29,02,088,*7C
$GPGSV,4,4,16,31,77,247,26,32,41,101,29,46,23,231,,48,26,226,*7B
$GPGLL,4617.00515,N,08753.28109,W,031953.00,A,A*78
$GPRMC,031954.00,A,4617.00512,N,08753.28110,W,0.054,,240526,,,A*6F
$GPVTG,,T,,M,0.054,N,0.099,K,A*22
$GPGGA,031954.00,4617.00512,N,08753.28110,W,1,05,2.14,439.4,M,-35.0,M,,*66
$GPGSA,A,3,03,32,31,25,04,,,,,,,,3.04,2.14,2.15*07
$GPGSV,4,1,16,01,18,255,08,02,04,233,13,03,46,302,39,04,12,291,26*7C
$GPGSV,4,2,16,10,02,156,,12,00,028,,13,00,030,,16,09,184,11*72
$GPGSV,4,3,16,25,28,050,26,26,38,172,09,28,70,052,15,29,02,088,*70
$GPGSV,4,4,16,31,77,247,26,32,41,101,29,46,23,231,,48,26,226,*7B
$GPGLL,4617.00512,N,08753.28110,W,031954.00,A,A*70
$GPRMC,031955.00,A,4617.00516,N,08753.28108,W,0.046,,240526,,,A*60
$GPVTG,,T,,M,0.046,N,0.085,K,A*2C
$GPGGA,031955.00,4617.00516,N,08753.28108,W,1,05,2.14,439.6,M,-35.0,M,,*68
$GPGSA,A,3,03,32,31,25,04,,,,,,,,3.04,2.14,2.15*07
$GPGSV,4,1,16,01,18,255,08,02,04,233,13,03,46,302,37,04,12,291,26*72
$GPGSV,4,2,16,10,02,156,,12,00,028,,13,00,030,,16,09,184,10*73
$GPGSV,4,3,16,25,28,050,26,26,38,172,09,28,70,052,,29,02,088,*74
$GPGSV,4,4,16,31,77,247,27,32,41,101,30,46,23,231,,48,26,226,*72
$GPGLL,4617.00516,N,08753.28108,W,031955.00,A,A*7C
$GPRMC,031956.00,A,4617.00519,N,08753.28102,W,0.288,,240526,,,A*66
$GPVTG,,T,,M,0.288,N,0.533,K,A*24
$GPGGA,031956.00,4617.00519,N,08753.28102,W,1,06,1.55,439.7,M,-35.0,M,,*6A
$GPGSA,A,3,03,32,31,25,04,01,,,,,,,2.33,1.55,1.74*01
$GPGSV,4,1,16,01,18,255,08,02,04,233,10,03,46,302,38,04,12,291,26*7E
$GPGSV,4,2,16,10,02,156,,12,00,028,,13,00,030,,16,09,184,09*7B
$GPGSV,4,3,16,25,27,050,27,26,38,172,09,28,70,052,,29,02,088,*7A
$GPGSV,4,4,16,31,77,247,27,32,41,101,30,46,23,231,,48,26,226,*72
$GPGLL,4617.00519,N,08753.28102,W,031956.00,A,A*7A
$GPRMC,031957.00,A,4617.00516,N,08753.28101,W,0.206,,240526,,,A*6D
$GPVTG,,T,,M,0.206,N,0.382,K,A*2E
$GPGGA,031957.00,4617.00516,N,08753.28101,W,1,06,1.55,439.8,M,-35.0,M,,*68
$GPGSA,A,3,03,32,31,25,04,01,,,,,,,2.33,1.55,1.74*01
$GPGSV,4,1,16,01,18,255,08,02,04,233,10,03,46,302,39,04,12,291,26*7F
$GPGSV,4,2,16,10,02,156,,12,00,028,,13,00,030,,16,09,184,09*7B
$GPGSV,4,3,16,25,27,050,27,26,38,172,09,28,70,052,,29,02,088,*7A
$GPGSV,4,4,16,31,77,247,27,32,41,101,30,46,23,231,,48,26,226,*72
$GPGLL,4617.00516,N,08753.28101,W,031957.00,A,A*77
$GPRMC,031958.00,A,4617.00510,N,08753.28101,W,0.092,,240526,,,A*6B
$GPVTG,,T,,M,0.092,N,0.171,K,A*2F
$GPGGA,031958.00,4617.00510,N,08753.28101,W,1,06,1.55,439.9,M,-35.0,M,,*60
$GPGSA,A,3,03,32,31,25,04,01,,,,,,,2.32,1.55,1.73*07
$GPGSV,4,1,16,01,18,255,08,02,04,233,10,03,46,302,39,04,12,291,27*7E
$GPGSV,4,2,16,10,02,156,,12,00,028,,13,00,030,,16,09,184,09*7B
$GPGSV,4,3,16,25,27,050,27,26,38,172,09,28,70,052,,29,02,088,*7A
$GPGSV,4,4,16,31,77,247,27,32,41,101,30,46,23,231,,48,26,226,*72
$GPGLL,4617.00510,N,08753.28101,W,031958.00,A,A*7E
$GPRMC,031959.00,A,4617.00503,N,08753.28102,W,0.137,,240526,,,A*65
$GPVTG,,T,,M,0.137,N,0.254,K,A*25
$GPGGA,031959.00,4617.00503,N,08753.28102,W,1,06,1.55,439.9,M,-35.0,M,,*60
$GPGSA,A,3,03,32,31,25,04,01,,,,,,,2.32,1.55,1.73*07
$GPGSV,4,1,16,01,18,255,08,02,04,233,10,03,46,302,39,04,12,291,27*7E
$GPGSV,4,2,16,10,02,156,,12,00,028,,13,00,030,,16,09,184,11*72
$GPGSV,4,3,16,25,27,050,27,26,38,172,09,28,69,052,,29,02,088,*72
$GPGSV,4,4,16,31,77,247,27,32,41,101,30,46,23,231,,48,26,226,*72
$GPGLL,4617.00503,N,08753.28102,W,031959.00,A,A*7E
$GPRMC,032000.00,A,4617.00485,N,08753.28107,W,0.277,,240526,,,A*6E
$GPVTG,,T,,M,0.277,N,0.514,K,A*21
$GPGGA,032000.00,4617.00485,N,08753.28107,W,1,06,1.55,439.7,M,-35.0,M,,*62
$GPGSA,A,3,03,32,31,25,04,01,,,,,,,2.32,1.55,1.73*07
$GPGSV,4,1,16,01,18,255,08,02,04,233,10,03,46,302,39,04,12,291,27*7E
$GPGSV,4,2,16,10,02,156,,12,00,028,,13,00,030,,16,09,184,11*72
$GPGSV,4,3,16,25,27,050,28,26,38,172,09,28,69,052,,29,02,087,*72
$GPGSV,4,4,16,31,77,247,27,32,41,101,30,46,23,231,,48,26,226,*72
$GPGLL,4617.00485,N,08753.28107,W,032000.00,A,A*72
$GPRMC,032001.00,A,4617.00466,N,08753.28113,W,0.295,,240526,,,A*6B
$GPVTG,,T,,M,0.295,N,0.547,K,A*2B
$GPGGA,032001.00,4617.00466,N,08753.28113,W,1,06,1.55,439.6,M,-35.0,M,,*6A
$GPGSA,A,3,03,32,31,25,04,01,,,,,,,2.32,1.55,1.73*07
$GPGSV,4,1,16,01,18,255,08,02,04,233,10,03,46,302,39,04,12,291,27*7E
$GPGSV,4,2,16,10,02,156,,12,00,028,,13,00,030,,16,09,184,12*71
$GPGSV,4,3,16,25,27,050,28,26,38,172,09,28,69,052,,29,02,087,*72
$GPGSV,4,4,16,31,77,247,27,32,41,101,30,46,23,231,,48,26,226,*72
$GPGLL,4617.00466,N,08753.28113,W,032001.00,A,A*7B
$GPRMC,032002.00,A,4617.00462,N,08753.28118,W,0.038,,240526,,,A*62
$GPVTG,,T,,M,0.038,N,0.071,K,A*2E
$GPGGA,032002.00,4617.00462,N,08753.28118,W,1,05,2.14,439.8,M,-35.0,M,,*6D
$GPGSA,A,3,03,32,31,25,04,,,,,,,,3.04,2.14,2.15*07
$GPGSV,4,1,16,01,18,255,,02,04,233,14,03,46,302,39,04,12,291,26*73
$GPGSV,4,2,16,10,02,156,,12,00,028,,13,00,030,,16,09,184,13*70
$GPGSV,4,3,16,25,27,050,28,26,38,172,07,28,69,052,,29,02,087,*7C
$GPGSV,4,4,16,31,78,248,27,32,41,101,30,46,23,231,,48,26,226,*72
$GPGLL,4617.00462,N,08753.28118,W,032002.00,A,A*77
$GPRMC,032003.00,A,4617.00454,N,08753.28121,W,0.152,,240526,,,A*61
$GPVTG,,T,,M,0.152,N,0.282,K,A*2D
$GPGGA,032003.00,4617.00454,N,08753.28121,W,1,05,2.14,440.0,M,-35.0,M,,*65
$GPGSA,A,3,03,32,31,25,04,,,,,,,,3.04,2.14,2.15*07
$GPGSV,4,1,16,01,18,255,16,02,04,233,14,03,46,302,39,04,12,291,26*74
$GPGSV,4,2,16,10,02,156,,12,00,028,,13,00,030,,16,09,184,13*70
$GPGSV,4,3,16,25,27,050,28,26,38,172,07,28,69,052,,29,02,087,*7C
$GPGSV,4,4,16,31,78,248,28,32,41,101,31,46,23,231,,48,26,226,*7C
$GPGLL,4617.00454,N,08753.28121,W,032003.00,A,A*79
$GPRMC,032004.00,A,4617.00452,N,08753.28127,W,0.018,,240526,,,A*69
$GPVTG,,T,,M,0.018,N,0.033,K,A*2A
$GPGGA,032004.00,4617.00452,N,08753.28127,W,1,05,2.14,440.2,M,-35.0,M,,*60
$GPGSA,A,3,03,32,31,25,04,,,,,,,,3.04,2.14,2.15*07
$GPGSV,4,1,16,01,18,255,14,02,04,233,14,03,46,302,39,04,12,291,26*76
$GPGSV,4,2,16,10,02,156,,12,00,028,,13,00,030,,16,09,184,14*77
$GPGSV,4,3,16,25,27,050,28,26,38,172,07,28,69,052,,29,02,087,*7C
$GPGSV,4,4,16,31,78,248,28,32,41,101,30,46,23,231,,48,26,226,*7D
$GPGLL,4617.00452,N,08753.28127,W,032004.00,A,A*7E
$GPRMC,032005.00,A,4617.00455,N,08753.28131,W,0.045,,240526,,,A*60
$GPVTG,,T,,M,0.045,N,0.083,K,A*29
$GPGGA,032005.00,4617.00455,N,08753.28131,W,1,05,2.14,440.4,M,-35.0,M,,*67
$GPGSA,A,3,03,32,31,25,04,,,,,,,,3.04,2.14,2.15*07
$GPGSV,4,1,16,01,18,255,12,02,04,233,14,03,46,302,39,04,12,291,26*70
$GPGSV,4,2,16,10,02,156,,12,00,028,,13,00,030,,16,09,184,13*70
$GPGSV,4,3,16,25,27,050,28,26,38,172,07,28,69,052,,29,02,087,*7C
$GPGSV,4,4,16,31,78,248,28,32,41,101,30,46,23,231,,48,26,226,*7D
$GPGLL,4617.00455,N,08753.28131,W,032005.00,A,A*7F
$GPRMC,032006.00,A,4617.00452,N,08753.28136,W,0.103,,240526,,,A*60
$GPVTG,,T,,M,0.103,N,0.191,K,A*28
$GPGGA,032006.00,4617.00452,N,08753.28136,W,1,05,2.14,440.4,M,-35.0,M,,*64
$GPGSA,A,3,03,32,31,25,04,,,,,,,,3.04,2.14,2.15*07
$GPGSV,4,1,16,01,18,255,10,02,04,233,14,03,46,302,39,04,12,291,26*72
$GPGSV,4,2,16,10,02,156,,12,00,028,,13,00,030,,16,09,184,12*71
$GPGSV,4,3,16,25,27,050,29,26,38,172,07,28,69,052,,29,02,087,*7D
$GPGSV,4,4,16,31,78,248,28,32,41,101,31,46,23,231,,48,26,226,*7C
$GPGLL,4617.00452,N,08753.28136,W,032006.00,A,A*7C
$GPRMC,032007.00,A,4617.00441,N,08753.28141,W,0.023,,240526,,,A*60
$GPVTG,,T,,M,0.023,N,0.043,K,A*25
$GPGGA,032007.00,4617.00441,N,08753.28141,W,1,05,2.14,440.4,M,-35.0,M,,*67
$GPGSA,A,3,03,32,31,25,04,,,,,,,,3.04,2.14,2.15*07
$GPGSV,4,1,16,01,18,255,10,02,04,233,14,03,46,302,39,04,12,291,26*72
$GPGSV,4,2,16,10,02,156,,12,00,028,,13,00,030,,16,09,184,11*72
$GPGSV,4,3,16,25,27,050,29,26,38,172,07,28,69,052,17,29,02,087,*7B
$GPGSV,4,4,16,31,78,248,28,32,41,101,31,46,23,231,,48,26,226,*7C
$GPGLL,4617.00441,N,08753.28141,W,032007.00,A,A*7F
$GPRMC,032008.00,A,4617.00441,N,08753.28144,W,0.061,,240526,,,A*6C
$GPVTG,,T,,M,0.061,N,0.112,K,A*26
$GPGGA,032008.00,4617.00441,N,08753.28144,W,1,05,2.14,440.5,M,-35.0,M,,*6C
$GPGSA,A,3,03,32,31,25,04,,,,,,,,3.04,2.14,2.15*07
$GPGSV,4,1,16,01,18,255,09,02,04,233,15,03,46,302,39,04,12,291,26*7B
$GPGSV,4,2,16,10,02,156,,12,00,028,,13,00,030,,16,09,184,11*72
$GPGSV,4,3,16,25,27,050,29,26,38,172,08,28,69,052,,29,02,087,*72
$GPGSV,4,4,16,31,78,248,28,32,41,101,32,46,23,231,,48,26,226,*7F
$GPGLL,4617.00441,N,08753.28144,W,032008.00,A,A*75
$GPRMC,032009.00,A,4617.00445,N,08753.28147,W,0.072,,240526,,,A*68
$GPVTG,,T,,M,0.072,N,0.133,K,A*27
$GPGGA,032009.00,4617.00445,N,08753.28147,W,1,06,1.54,440.4,M,-35.0,M,,*6F
$GPGSA,A,3,03,32,31,25,04,01,,,,,,,2.32,1.54,1.73*06
$GPGSV,4,1,16,01,18,255,10,02,04,233,15,03,46,302,38,04,12,291,25*71
$GPGSV,4,2,16,10,02,156,,12,00,028,,13,00,030,,16,09,184,10*73
$GPGSV,4,3,16,25,27,050,28,26,38,172,08,28,69,052,17,29,02,087,*75
$GPGSV,4,4,16,31,78,248,28,32,41,101,31,46,23,231,,48,26,226,*7C
$GPGLL,4617.00445,N,08753.28147,W,032009.00,A,A*73
$GPRMC,032010.00,A,4617.00453,N,08753.28152,W,0.146,,240526,,,A*65
$GPVTG,,T,,M,0.146,N,0.271,K,A*24
$GPGGA,032010.00,4617.00453,N,08753.28152,W,1,06,1.54,440.4,M,-35.0,M,,*64
$GPGSA,A,3,03,32,31,25,04,01,,,,,,,2.32,1.54,1.73*06
$GPGSV,4,1,16,01,18,255,12,02,04,233,15,03,46,302,39,04,12,291,25*72
$GPGSV,4,2,16,10,02,156,,12,00,028,,13,00,030,,16,09,184,10*73
$GPGSV,4,3,16,25,27,050,28,26,38,172,08,28,69,052,,29,02,087,*73
$GPGSV,4,4,16,31,78,248,28,32,41,101,31,46,23,231,,48,26,226,*7C
$GPGLL,4617.00453,N,08753.28152,W,032010.00,A,A*78
$GPRMC,032011.00,A,4617.00455,N,08753.28156,W,0.026,,240526,,,A*61
$GPVTG,,T,,M,0.026,N,0.048,K,A*2B
$GPGGA,032011.00,4617.00455,N,08753.28156,W,1,06,1.54,440.5,M,-35.0,M,,*66
$GPGSA,A,3,03,32,31,25,04,01,,,,,,,2.32,1.54,1.73*06
$GPGSV,4,1,16,01,18,255,14,02,04,233,15,03,46,302,39,04,12,291,25*74
$GPGSV,4,2,16,10,02,156,,12,00,028,,13,00,030,,16,09,184,10*73
$GPGSV,4,3,16,25,27,050,28,26,38,172,08,28,69,052,,29,02,087,*73
$GPGSV,4,4,16,31,78,248,28,32,41,101,31,46,23,231,,48,26,226,*7C
$GPGLL,4617.00455,N,08753.28156,W,032011.00,A,A*7B
$GPRMC,032012.00,A,4617.00461,N,08753.28163,W,0.170,,240526,,,A*61
$GPVTG,,T,,M,0.170,N,0.315,K,A*22
$GPGGA,032012.00,4617.00461,N,08753.28163,W,1,06,1.54,440.6,M,-35.0,M,,*67
$GPGSA,A,3,03,32,31,25,04,01,,,,,,,2.32,1.54,1.73*06
$GPGSV,4,1,16,01,18,255,13,02,04,233,15,03,46,302,39,04,12,291,25*73
$GPGSV,4,2,16,10,02,156,,12,00,028,,13,00,030,,16,09,184,10*73
$GPGSV,4,3,16,25,27,050,28,26,38,172,08,28,69,052,,29,02,087,*73
$GPGSV,4,4,16,31,78,248,28,32,41,101,31,46,23,231,,48,26,226,*7C
$GPGLL,4617.00461,N,08753.28163,W,032012.00,A,A*79
$GPRMC,032013.00,A,4617.00467,N,08753.28167,W,0.092,,240526,,,A*6F
$GPVTG,,T,,M,0.092,N,0.171,K,A*2F
$GPGGA,032013.00,4617.00467,N,08753.28167,W,1,06,1.54,440.6,M,-35.0,M,,*64
$GPGSA,A,3,03,32,31,25,04,01,,,,,,,2.32,1.54,1.73*06
$GPGSV,4,1,16,01,18,255,12,02,04,233,15,03,46,302,39,04,12,291,25*72
$GPGSV,4,2,16,10,02,156,,12,00,028,,13,00,030,,16,09,184,10*73
$GPGSV,4,3,16,25,27,050,28,26,38,172,08,28,69,052,,29,02,087,*73
$GPGSV,4,4,16,31,78,248,28,32,41,101,32,46,23,231,,48,26,226,*7F
$GPGLL,4617.00467,N,08753.28167,W,032013.00,A,A*7A
$GPRMC,032014.00,A,4617.00472,N,08753.28174,W,0.154,,240526,,,A*65
$GPVTG,,T,,M,0.154,N,0.284,K,A*2D
$GPGGA,032014.00,4617.00472,N,08753.28174,W,1,06,1.54,440.5,M,-35.0,M,,*66
$GPGSA,A,3,03,32,31,25,04,01,,,,,,,2.32,1.54,1.73*06
$GPGSV,4,1,16,01,18,255,12,02,04,233,14,03,46,302,39,04,12,291,25*73
$GPGSV,4,2,16,10,02,156,,12,00,028,,13,00,030,,16,09,184,12*71
$GPGSV,4,3,16,25,27,050,28,26,38,172,08,28,69,052,,29,02,087,*73
$GPGSV,4,4,16,31,78,248,28,32,41,101,32,46,23,231,,48,26,226,*7F
$GPGLL,4617.00472,N,08753.28174,W,032014.00,A,A*7B
$GPRMC,032015.00,A,4617.00479,N,08753.28182,W,0.092,,240526,,,A*6D
$GPVTG,,T,,M,0.092,N,0.170,K,A*2E
$GPGGA,032015.00,4617.00479,N,08753.28182,W,1,06,1.54,440.6,M,-35.0,M,,*66
$GPGSA,A,3,03,32,31,25,04,01,,,,,,,2.32,1.54,1.73*06
$GPGSV,4,1,16,01,18,255,10,02,04,233,14,03,46,302,39,04,12,291,25*71
$GPGSV,4,2,16,10,02,156,,12,00,028,,13,00,030,,16,09,184,12*71
$GPGSV,4,3,16,25,27,050,28,26,38,172,08,28,69,052,,29,02,087,*73
$GPGSV,4,4,16,31,78,248,28,32,41,101,32,46,23,231,,48,26,226,*7F
$GPGLL,4617.00479,N,08753.28182,W,032015.00,A,A*78
$GPRMC,032016.00,A,4617.00479,N,08753.28190,W,0.069,,240526,,,A*69
$GPVTG,,T,,M,0.069,N,0.129,K,A*26
$GPGGA,032016.00,4617.00479,N,08753.28190,W,1,06,1.54,440.7,M,-35.0,M,,*67
$GPGSA,A,3,03,32,31,25,04,01,,,,,,,2.32,1.54,1.73*06
$GPGSV,4,1,16,01,18,255,10,02,04,233,14,03,46,302,39,04,12,291,25*71
$GPGSV,4,2,16,10,02,156,,12,00,028,,13,00,030,,16,09,184,12*71
$GPGSV,4,3,16,25,27,050,28,26,38,172,08,28,69,052,,29,02,087,*73
$GPGSV,4,4,16,31,78,248,28,32,41,101,32,46,23,231,,48,26,226,*7F
$GPGLL,4617.00479,N,08753.28190,W,032016.00,A,A*78
$GPRMC,032017.00,A,4617.00488,N,08753.28197,W,0.196,,240526,,,A*60
$GPVTG,,T,,M,0.196,N,0.363,K,A*2B
$GPGGA,032017.00,4617.00488,N,08753.28197,W,1,06,1.54,440.8,M,-35.0,M,,*60
$GPGSA,A,3,03,32,31,25,04,01,,,,,,,2.32,1.54,1.73*06
$GPGSV,4,1,16,01,18,255,12,02,04,233,14,03,46,302,39,04,12,291,25*73
$GPGSV,4,2,16,10,02,156,,12,00,028,,13,00,030,,16,09,184,12*71
$GPGSV,4,3,16,25,27,050,27,26,38,172,08,28,69,052,,29,02,087,*7C
$GPGSV,4,4,16,31,78,248,28,32,41,101,32,46,23,231,,48,26,226,*7F
$GPGLL,4617.00488,N,08753.28197,W,032017.00,A,A*70
$GPRMC,032018.00,A,4617.00483,N,08753.28200,W,0.054,,240526,,,A*66
$GPVTG,,T,,M,0.054,N,0.099,K,A*22
$GPGGA,032018.00,4617.00483,N,08753.28200,W,1,06,1.54,440.8,M,-35.0,M,,*69
$GPGSA,A,3,03,32,31,25,04,01,,,,,,,2.32,1.54,1.73*06
$GPGSV,4,1,16,01,18,255,15,02,04,233,14,03,46,302,38,04,12,291,26*76
$GPGSV,4,2,16,10,02,156,,12,00,028,,13,00,030,,16,09,184,12*71
$GPGSV,4,3,16,25,27,050,28,26,38,172,08,28,69,052,,29,02,087,*73
$GPGSV,4,4,16,31,78,248,28,32,41,101,32,46,23,231,,48,26,226,*7F
$GPGLL,4617.00483,N,08753.28200,W,032018.00,A,A*79
$GPRMC,032019.00,A,4617.00490,N,08753.28207,W,0.071,,240526,,,A*65
$GPVTG,,T,,M,0.071,N,0.132,K,A*25
$GPGGA,032019.00,4617.00490,N,08753.28207,W,1,06,1.54,440.9,M,-35.0,M,,*6C
$GPGSA,A,3,03,32,31,25,04,01,,,,,,,2.32,1.54,1.73*06
$GPGSV,4,1,16,01,18,255,16,02,04,233,14,03,46,302,39,04,12,291,25*77
$GPGSV,4,2,16,10,02,156,,12,00,028,,13,00,030,,16,09,184,12*71
$GPGSV,4,3,16,25,27,050,27,26,38,172,08,28,69,052,,29,02,087,*7C
$GPGSV,4,4,16,31,78,248,28,32,41,101,32,46,23,231,,48,26,226,*7F
$GPGLL,4617.00490,N,08753.28207,W,032019.00,A,A*7D
$GPRMC,032020.00,A,4617.00497,N,08753.28210,W,0.149,,240526,,,A*64
$GPVTG,,T,,M,0.149,N,0.277,K,A*2D
$GPGGA,032020.00,4617.00497,N,08753.28210,W,1,06,1.54,441.0,M,-35.0,M,,*6F
$GPGSA,A,3,03,32,31,25,04,01,,,,,,,2.32,1.54,1.73*06
$GPGSV,4,1,16,01,18,255,16,02,04,233,16,03,46,302,39,04,12,291,25*75
$GPGSV,4,2,16,10,02,156,,12,00,028,,13,00,030,,16,09,184,12*71
$GPGSV,4,3,16,25,27,050,27,26,38,172,07,28,69,052,,29,02,087,*73
$GPGSV,4,4,16,31,78,248,28,32,41,101,32,46,23,231,,48,26,226,*7F
$GPGLL,4617.00497,N,08753.28210,W,032020.00,A,A*76
$GPRMC,032021.00,A,4617.00500,N,08753.28215,W,0.270,,240526,,,A*66
$GPVTG,,T,,M,0.270,N,0.500,K,A*23
$GPGGA,032021.00,4617.00500,N,08753.28215,W,1,06,1.54,441.0,M,-35.0,M,,*64
$GPGSA,A,3,03,32,31,25,04,01,,,,,,,2.32,1.54,1.73*06
$GPGSV,4,1,16,01,18,255,16,02,04,233,16,03,46,302,39,04,12,291,25*75
$GPGSV,4,2,16,10,02,156,,12,00,028,,13,00,030,,16,09,184,12*71
$GPGSV,4,3,16,25,27,050,27,26,38,172,07,28,69,052,,29,02,087,*73
$GPGSV,4,4,16,31,78,248,28,32,41,101,32,46,23,231,,48,26,226,*7F
$GPGLL,4617.00500,N,08753.28215,W,032021.00,A,A*7D
$GPRMC,032022.00,A,4617.00501,N,08753.28222,W,0.090,,240526,,,A*6C
$GPVTG,,T,,M,0.090,N,0.167,K,A*2A
$GPGGA,032022.00,4617.00501,N,08753.28222,W,1,06,1.54,440.9,M,-35.0,M,,*6A
$GPGSA,A,3,03,32,31,25,04,01,,,,,,,2.32,1.54,1.73*06
$GPGSV,4,1,16,01,18,255,15,02,04,233,16,03,46,302,39,04,12,291,25*76
$GPGSV,4,2,16,10,02,156,,12,00,028,,13,00,030,,16,09,184,12*71
$GPGSV,4,3,16,25,27,050,27,26,38,172,,28,69,052,,29,02,087,*74
$GPGSV,4,4,16,31,78,248,28,32,41,101,32,46,23,231,,48,26,226,*7F
$GPGLL,4617.00501,N,08753.28222,W,032022.00,A,A*7B
$GPRMC,032023.00,A,4617.00502,N,08753.28232,W,0.130,,240526,,,A*64
$GPVTG,,T,,M,0.130,N,0.241,K,A*26
$GPGGA,032023.00,4617.00502,N,08753.28232,W,1,06,1.54,440.9,M,-35.0,M,,*69
$GPGSA,A,3,03,32,31,25,04,01,,,,,,,2.32,1.54,1.73*06
$GPGSV,4,1,16,01,18,255,14,02,04,233,16,03,46,302,39,04,12,291,25*77
$GPGSV,4,2,16,10,02,156,,12,00,028,,13,00,030,,16,09,184,12*71
$GPGSV,4,3,16,25,27,050,27,26,38,172,,28,69,052,,29,02,087,*74
$GPGSV,4,4,16,31,78,248,28,32,41,101,32,46,23,231,,48,26,226,*7F
$GPGLL,4617.00502,N,08753.28232,W,032023.00,A,A*78
$GPRMC,032024.00,A,4617.00505,N,08753.28236,W,0.058,,240526,,,A*6F
$GPVTG,,T,,M,0.058,N,0.108,K,A*27
$GPGGA,032024.00,4617.00505,N,08753.28236,W,1,06,1.54,440.9,M,-35.0,M,,*6D
$GPGSA,A,3,03,32,31,25,04,01,,,,,,,2.32,1.54,1.73*06
$GPGSV,4,1,16,01,18,255,14,02,04,233,16,03,46,302,38,04,12,291,25*76
$GPGSV,4,2,16,10,02,156,,12,00,028,,13,00,030,,16,09,184,12*71
$GPGSV,4,3,16,25,27,050,27,26,38,172,,28,69,052,,29,02,087,*74
$GPGSV,4,4,16,31,78,248,28,32,41,101,32,46,23,231,,48,26,226,*7F
$GPGLL,4617.00505,N,08753.28236,W,032024.00,A,A*7C
$GPRMC,032025.00,A,4617.00505,N,08753.28241,W,0.059,,240526,,,A*6F
$GPVTG,,T,,M,0.059,N,0.109,K,A*27
$GPGGA,032025.00,4617.00505,N,08753.28241,W,1,06,1.54,440.8,M,-35.0,M,,*6D
$GPGSA,A,3,03,32,31,25,04,01,,,,,,,2.32,1.54,1.73*06
$GPGSV,4,1,16,01,18,255,15,02,04,233,16,03,46,302,39,04,12,291,25*76
$GPGSV,4,2,16,10,02,156,,12,00,028,,13,00,030,,16,09,184,12*71
$GPGSV,4,3,16,25,27,050,27,26,38,172,,28,69,052,,29,02,087,*74
$GPGSV,4,4,16,31,78,248,29,32,41,101,32,46,23,231,,48,26,226,*7E
$GPGLL,4617.00505,N,08753.28241,W,032025.00,A,A*7D
$GPRMC,032026.00,A,4617.00510,N,08753.28240,W,0.179,,240526,,,A*6A
$GPVTG,,T,,M,0.179,N,0.332,K,A*2E
$GPGGA,032026.00,4617.00510,N,08753.28240,W,1,06,1.54,441.0,M,-35.0,M,,*62
$GPGSA,A,3,03,32,31,25,04,01,,,,,,,2.32,1.54,1.73*06
$GPGSV,4,1,16,01,18,255,16,02,04,233,14,03,46,302,39,04,12,291,26*74
$GPGSV,4,2,16,10,02,156,,12,00,028,,13,00,030,,16,09,184,09*7B
$GPGSV,4,3,16,25,27,050,27,26,38,172,,28,69,052,,29,02,087,*74
$GPGSV,4,4,16,31,78,248,29,32,41,101,32,46,23,231,,48,26,226,*7E
$GPGLL,4617.00510,N,08753.28240,W,032026.00,A,A*7B
$GPRMC,032027.00,A,4617.00503,N,08753.28243,W,0.155,,240526,,,A*64
$GPVTG,,T,,M,0.155,N,0.286,K,A*2E
$GPGGA,032027.00,4617.00503,N,08753.28243,W,1,06,1.54,440.7,M,-35.0,M,,*64
$GPGSA,A,3,03,32,31,25,04,01,,,,,,,2.31,1.54,1.73*05
$GPGSV,4,1,16,01,18,255,16,02,04,233,14,03,46,302,38,04,12,291,26*75
$GPGSV,4,2,16,10,02,156,,12,00,028,,13,00,030,,16,09,184,09*7B
$GPGSV,4,3,16,25,27,050,27,26,38,172,,28,69,052,,29,02,087,*74
$GPGSV,4,4,16,31,78,248,29,32,41,101,32,46,23,231,,48,26,226,*7E
$GPGLL,4617.00503,N,08753.28243,W,032027.00,A,A*7B
$GPRMC,032028.00,A,4617.00501,N,08753.28249,W,0.363,,240526,,,A*64
$GPVTG,,T,,M,0.363,N,0.672,K,A*26
$GPGGA,032028.00,4617.00501,N,08753.28249,W,1,06,1.54,440.4,M,-35.0,M,,*60
$GPGSA,A,3,03,32,31,25,04,01,,,,,,,2.31,1.54,1.73*05
$GPGSV,4,1,16,01,18,255,17,02,04,233,14,03,46,302,38,04,12,291,26*74
$GPGSV,4,2,16,10,02,156,,12,00,028,,13,00,030,,16,09,184,09*7B
$GPGSV,4,3,16,25,27,050,27,26,38,172,,28,69,052,,29,02,087,*74
$GPGSV,4,4,16,31,78,248,29,32,41,101,31,46,23,231,,48,26,226,*7D
$GPGLL,4617.00501,N,08753.28249,W,032028.00,A,A*7C
$GPRMC,032029.00,A,4617.00520,N,08753.28246,W,0.054,,240526,,,A*6E
$GPVTG,,T,,M,0.054,N,0.100,K,A*23
$GPGGA,032029.00,4617.00520,N,08753.28246,W,1,06,1.54,440.7,M,-35.0,M,,*6E
$GPGSA,A,3,03,32,31,25,04,01,,,,,,,2.31,1.54,1.73*05
$GPGSV,4,1,16,01,18,255,17,02,04,233,14,03,46,302,37,04,12,291,26*7B
$GPGSV,4,2,16,10,02,156,,12,00,028,,13,00,030,,16,09,184,09*7B
$GPGSV,4,3,16,25,27,050,27,26,38,172,,28,69,052,,29,02,087,*74
$GPGSV,4,4,16,31,78,248,29,32,41,101,31,46,23,231,,48,26,226,*7D
$GPGLL,4617.00520,N,08753.28246,W,032029.00,A,A*71
$GPRMC,032030.00,A,4617.00525,N,08753.28247,W,0.188,,240526,,,A*62
$GPVTG,,T,,M,0.188,N,0.348,K,A*2D
$GPGGA,032030.00,4617.00525,N,08753.28247,W,1,06,1.54,440.6,M,-35.0,M,,*63
$GPGSA,A,3,03,32,31,25,04,01,,,,,,,2.31,1.54,1.73*05
$GPGSV,4,1,16,01,18,255,18,02,04,233,14,03,46,302,39,04,12,291,27*7B
$GPGSV,4,2,16,10,02,156,,12,00,028,,13,00,030,,16,09,184,09*7B
$GPGSV,4,3,16,25,27,050,27,26,38,172,,28,69,052,,29,02,087,*74
$GPGSV,4,4,16,31,78,248,29,32,41,101,31,46,23,231,,48,26,226,*7D
$GPGLL,4617.00525,N,08753.28247,W,032030.00,A,A*7D
$GPRMC,032031.00,A,4617.00534,N,08753.28247,W,0.074,,240526,,,A*61
$GPVTG,,T,,M,0.074,N,0.137,K,A*25
$GPGGA,032031.00,4617.00534,N,08753.28247,W,1,06,1.54,440.4,M,-35.0,M,,*60
$GPGSA,A,3,03,32,31,25,04,01,,,,,,,2.31,1.54,1.73*05
$GPGSV,4,1,16,01,18,255,18,02,04,233,14,03,46,302,38,04,12,291,26*7B
$GPGSV,4,2,16,10,02,156,,12,00,028,,13,00,030,,16,09,184,09*7B
$GPGSV,4,3,16,25,27,050,27,26,38,172,,28,69,052,,29,02,087,*74
$GPGSV,4,4,16,31,78,248,29,32,41,101,31,46,23,231,,48,26,226,*7D
$GPGLL,4617.00534,N,08753.28247,W,032031.00,A,A*7C
$GPRMC,032032.00,A,4617.00552,N,08753.28243,W,0.046,,240526,,,A*67
$GPVTG,,T,,M,0.046,N,0.086,K,A*2F
$GPGGA,032032.00,4617.00552,N,08753.28243,W,1,06,1.54,440.7,M,-35.0,M,,*64
$GPGSA,A,3,03,32,31,25,04,01,,,,,,,2.31,1.54,1.73*05
$GPGSV,4,1,16,01,18,255,17,02,04,233,16,03,46,302,39,04,12,291,27*76
$GPGSV,4,2,16,10,02,156,,12,00,028,,13,00,030,,16,09,184,12*71
$GPGSV,4,3,16,25,27,050,28,26,38,172,,28,69,052,,29,02,087,*7B
$GPGSV,4,4,16,31,78,248,29,32,41,101,31,46,23,231,,48,26,226,*7D
$GPGLL,4617.00552,N,08753.28243,W,032032.00,A,A*7B
$GPRMC,032033.00,A,4617.00550,N,08753.28243,W,0.233,,240526,,,A*64
$GPVTG,,T,,M,0.233,N,0.431,K,A*27
$GPGGA,032033.00,4617.00550,N,08753.28243,W,1,06,1.54,440.7,M,-35.0,M,,*67
$GPGSA,A,3,03,32,31,25,04,01,,,,,,,2.31,1.54,1.73*05
$GPGSV,4,1,16,01,18,255,17,02,04,233,16,03,46,302,39,04,12,291,27*76
$GPGSV,4,2,16,10,02,156,,12,00,028,,13,00,030,,16,09,184,12*71
$GPGSV,4,3,16,25,27,050,27,26,38,172,,28,69,052,,29,02,087,*74
$GPGSV,4,4,16,31,78,248,28,32,41,101,31,46,23,231,,48,26,226,*7C
$GPGLL,4617.00550,N,08753.28243,W,032033.00,A,A*78
$GPRMC,032034.00,A,4617.00550,N,08753.28244,W,0.020,,240526,,,A*64
$GPVTG,,T,,M,0.020,N,0.036,K,A*24
$GPGGA,032034.00,4617.00550,N,08753.28244,W,1,06,1.54,440.8,M,-35.0,M,,*68
$GPGSA,A,3,03,32,31,25,04,01,,,,,,,2.31,1.54,1.73*05
$GPGSV,4,1,16,01,18,255,17,02,04,233,16,03,46,302,39,04,12,291,27*76
$GPGSV,4,2,16,10,02,156,,12,00,028,,13,00,030,,16,09,184,12*71
$GPGSV,4,3,16,25,27,050,27,26,38,172,,28,69,052,,29,02,087,*74
$GPGSV,4,4,16,31,78,248,28,32,41,101,31,46,23,231,,48,26,226,*7C
$GPGLL,4617.00550,N,08753.28244,W,032034.00,A,A*78
$GPRMC,032035.00,A,4617.00546,N,08753.28245,W,0.135,,240526,,,A*66
$GPVTG,,T,,M,0.135,N,0.249,K,A*2B
$GPGGA,032035.00,4617.00546,N,08753.28245,W,1,06,1.54,441.0,M,-35.0,M,,*66
$GPGSA,A,3,03,32,31,25,04,01,,,,,,,2.31,1.54,1.73*05
$GPGSV,4,1,16,01,18,255,16,02,04,233,16,03,46,302,39,04,12,291,27*77
$GPGSV,4,2,16,10,02,156,,12,00,028,,13,00,030,,16,09,184,12*71
$GPGSV,4,3,16,25,27,050,27,26,38,172,21,28,69,052,,29,02,087,*77
$GPGSV,4,4,16,31,78,248,28,32,41,101,30,46,23,231,,48,26,226,*7D
$GPGLL,4617.00546,N,08753.28245,W,032035.00,A,A*7F
$GPRMC,032036.00,A,4617.00545,N,08753.28247,W,0.121,,240526,,,A*61
$GPVTG,,T,,M,0.121,N,0.224,K,A*25
$GPGGA,032036.00,4617.00545,N,08753.28247,W,1,06,1.54,441.1,M,-35.0,M,,*65
$GPGSA,A,3,03,32,31,25,04,01,,,,,,,2.31,1.54,1.73*05
$GPGSV,4,1,16,01,18,255,16,02,04,233,16,03,46,302,39,04,12,291,28*78
$GPGSV,4,2,16,10,02,156,,12,00,028,,13,00,030,,16,09,184,12*71
$GPGSV,4,3,16,25,27,050,28,26,38,172,19,28,69,052,,29,02,087,*73
$GPGSV,4,4,16,31,78,248,28,32,41,101,30,46,23,231,,48,26,226,*7D
$GPGLL,4617.00545,N,08753.28247,W,032036.00,A,A*7D
$GPRMC,032037.00,A,4617.00547,N,08753.28248,W,0.100,,240526,,,A*6E
$GPVTG,,T,,M,0.100,N,0.186,K,A*2D
$GPGGA,032037.00,4617.00547,N,08753.28248,W,1,06,1.54,441.4,M,-35.0,M,,*6C
$GPGSA,A,3,03,32,31,25,04,01,,,,,,,2.31,1.54,1.73*05
$GPGSV,4,1,16,01,18,255,16,02,04,233,16,03,46,302,39,04,12,291,27*77
$GPGSV,4,2,16,10,02,156,,12,00,028,,13,00,030,,16,09,184,12*71
$GPGSV,4,3,16,25,27,050,28,26,38,172,17,28,69,052,,29,02,087,*7D
$GPGSV,4,4,16,31,78,248,28,32,41,101,31,46,23,231,,48,26,226,*7C
$GPGLL,4617.00547,N,08753.28248,W,032037.00,A,A*71
$GPRMC,032038.00,A,4617.00550,N,08753.28248,W,0.023,,240526,,,A*67
$GPVTG,,T,,M,0.023,N,0.042,K,A*24
$GPGGA,032038.00,4617.00550,N,08753.28248,W,1,06,1.54,441.6,M,-35.0,M,,*67
$GPGSA,A,3,03,32,31,25,04,01,,,,,,,2.31,1.54,1.73*05
$GPGSV,4,1,16,01,18,255,17,02,04,233,16,03,46,302,39,04,12,291,27*76
$GPGSV,4,2,16,10,02,156,,12,00,028,,13,00,030,,16,09,184,08*7A
$GPGSV,4,3,16,25,27,050,28,26,38,172,16,28,69,052,,29,02,087,*7C
$GPGSV,4,4,16,31,78,248,28,32,41,101,30,46,23,231,,48,26,226,*7D
$GPGLL,4617.00550,N,08753.28248,W,032038.00,A,A*78
$GPRMC,032039.00,A,4617.00552,N,08753.28242,W,0.271,,240526,,,A*6B
$GPVTG,,T,,M,0.271,N,0.503,K,A*21
$GPGGA,032039.00,4617.00552,N,08753.28242,W,1,06,1.54,441.7,M,-35.0,M,,*6F
$GPGSA,A,3,03,32,31,25,04,01,,,,,,,2.31,1.54,1.73*05
$GPGSV,4,1,16,01,18,255,16,02,04,233,16,03,46,302,38,04,12,291,26*77
$GPGSV,4,2,16,10,02,156,,12,00,028,,13,00,030,,16,09,184,07*75
$GPGSV,4,3,16,25,27,050,27,26,38,172,16,28,69,052,,29,02,087,*73
$GPGSV,4,4,16,31,78,248,27,32,41,101,29,46,23,231,,48,26,226,*7A
$GPGLL,4617.00552,N,08753.28242,W,032039.00,A,A*71
$GPRMC,032040.00,A,4617.00551,N,08753.28239,W,0.039,,240526,,,A*64
$GPVTG,,T,,M,0.039,N,0.072,K,A*2C
$GPGGA,032040.00,4617.00551,N,08753.28239,W,1,06,1.54,441.7,M,-35.0,M,,*6E
$GPGSA,A,3,03,32,31,25,04,01,,,,,,,2.31,1.54,1.73*05
$GPGSV,4,1,16,01,18,255,16,02,04,233,16,03,46,302,39,04,12,291,26*76
$GPGSV,4,2,16,10,02,156,,12,00,028,,13,00,030,,16,09,184,07*75
$GPGSV,4,3,16,25,27,050,27,26,38,172,15,28,69,052,,29,02,087,*70
$GPGSV,4,4,16,31,78,248,27,32,41,101,30,46,23,231,,48,26,226,*72
$GPGLL,4617.00551,N,08753.28239,W,032040.00,A,A*70
$GPRMC,032041.00,A,4617.00554,N,08753.28233,W,0.112,,240526,,,A*62
$GPVTG,,T,,M,0.112,N,0.207,K,A*24
$GPGGA,032041.00,4617.00554,N,08753.28233,W,1,06,1.54,441.8,M,-35.0,M,,*6F
$GPGSA,A,3,03,32,31,25,04,01,,,,,,,2.31,1.54,1.72*04
$GPGSV,4,1,16,01,18,255,16,02,04,233,16,03,46,302,39,04,12,291,27*77
$GPGSV,4,2,16,10,02,156,,12,00,028,,13,00,030,,16,09,184,08*7A
$GPGSV,4,3,16,25,27,050,27,26,38,172,17,28,69,052,,29,02,087,*72
$GPGSV,4,4,16,31,78,248,27,32,41,101,30,46,23,231,,48,26,226,*72
$GPGLL,4617.00554,N,08753.28233,W,032041.00,A,A*7E
$GPRMC,032042.00,A,4617.00552,N,08753.28231,W,0.324,,240526,,,A*62
$GPVTG,,T,,M,0.324,N,0.601,K,A*21
$GPGGA,032042.00,4617.00552,N,08753.28231,W,1,06,1.54,441.9,M,-35.0,M,,*69
$GPGSA,A,3,03,32,31,25,04,01,,,,,,,2.31,1.54,1.72*04
$GPGSV,4,1,16,01,18,255,16,02,04,233,16,03,46,302,39,04,12,291,27*77
$GPGSV,4,2,16,10,02,156,,12,00,028,,13,00,030,,16,09,184,08*7A
$GPGSV,4,3,16,25,27,050,27,26,38,172,17,28,69,052,,29,02,087,*72
$GPGSV,4,4,16,31,78,248,27,32,41,101,29,46,23,231,,48,26,226,*7A
$GPGLL,4617.00552,N,08753.28231,W,032042.00,A,A*79
$GPRMC,032043.00,A,4617.00546,N,08753.28229,W,0.027,,240526,,,A*6F
$GPVTG,,T,,M,0.027,N,0.050,K,A*23
$GPGGA,032043.00,4617.00546,N,08753.28229,W,1,06,1.54,441.9,M,-35.0,M,,*64
$GPGSA,A,3,03,32,31,25,04,01,,,,,,,2.31,1.54,1.72*04
$GPGSV,4,1,16,01,18,255,16,02,04,233,16,03,46,302,39,04,12,291,27*77
$GPGSV,4,2,16,10,02,156,,12,00,028,,13,00,030,,16,09,184,*72
$GPGSV,4,3,16,25,27,050,28,26,38,172,18,28,69,052,,29,02,087,*72
$GPGSV,4,4,16,31,78,248,28,32,41,101,29,46,23,231,,48,26,226,*75
$GPGLL,4617.00546,N,08753.28229,W,032043.00,A,A*74
$GPRMC,032044.00,A,4617.00539,N,08753.28227,W,0.039,,240526,,,A*61
$GPVTG,,T,,M,0.039,N,0.073,K,A*2D
$GPGGA,032044.00,4617.00539,N,08753.28227,W,1,06,1.54,441.8,M,-35.0,M,,*64
$GPGSA,A,3,03,32,31,25,04,01,,,,,,,2.31,1.54,1.72*04
$GPGSV,4,1,16,01,18,255,14,02,04,233,11,03,46,302,39,04,12,291,27*72
$GPGSV,4,2,16,10,02,156,,12,00,028,,13,00,030,,16,09,184,*72
$GPGSV,4,3,16,25,27,050,28,26,38,172,17,28,69,052,,29,02,087,*7D
$GPGSV,4,4,16,31,78,248,28,32,41,101,29,46,23,231,,48,26,226,*75
$GPGLL,4617.00539,N,08753.28227,W,032044.00,A,A*75
