#T1:1780965342473
$GPTXT,01,01,02,u-blox ag - www.u-blox.com*50
#T1:1780965342474
$GPTXT,01,01,02,HW  UBX-G70xx   00070000 FF7FFFFFo*69
#T1:1780965342474
$GPTXT,01,01,02,ROM CORE 1.00 (59842) Jun 27 2012 17:43:52*59
#T1:1780965342474
$GPTXT,01,01,02,PROTVER 14.00*1E
#T1:1780965342474
$GPTXT,01,01,02,ANTSUPERV=AC SD PDoS SR*20
#T1:1780965342475
$GPTXT,01,01,02,ANTSTATUS=OK*3B
#T1:1780965342475
$GPTXT,01,01,02,LLC FFFFFFFF-FFFFFFFF-FFFFFFFF-FFFFFFFF-FFFFFFFD*2C
#T1:1780965342650
$GPRMC,003548.00,V,,,,,,,090626,,,N*7C
#T1:1780965342650
$GPVTG,,,,,,,,,N*30
#T1:1780965342650
$GPGGA,003548.00,,,,,0,00,99.99,,,,,,*6C
#T1:1780965342650
$GPGSA,A,1,,,,,,,,,,,,,99.99,99.99,99.99*30
#T1:1780965342651
$GPGSV,1,1,04,01,,,39,02,,,31,03,,,32,12,,,26*73
#T1:1780965342651
$GPGLL,,,,,003548.00,V,N*40
#T1:1780965343649
$GPRMC,003549.00,V,,,,,,,090626,,,N*7D
#T1:1780965343649
$GPVTG,,,,,,,,,N*30
#T1:1780965343649
$GPGGA,003549.00,,,,,0,00,99.99,,,,,,*6D
#T1:1780965343649
$GPGSA,A,1,,,,,,,,,,,,,99.99,99.99,99.99*30
#T1:1780965343650
$GPGSV,1,1,04,01,,,39,02,,,32,03,,,33,12,,,26*71
#T1:1780965343650
$GPGLL,,,,,003549.00,V,N*41
#T1:1780965344812
$GPRMC,003550.01,V,,,,,,,090626,,,N*74
#T1:1780965344812
$GPVTG,,,,,,,,,N*30
#T1:1780965344813
$GPGGA,003550.01,,,,,0,03,99.99,,,,,,*67
#T1:1780965344813
$GPGSA,A,1,01,03,02,,,,,,,,,,99.99,99.99,1.00*01
#T1:1780965344813
$GPGSV,1,1,04,01,,,39,02,,,31,03,,,32,12,,,26*73
#T1:1780965344813
$GPGLL,,,,,003550.01,V,N*48
#T1:1780965345681
$GPRMC,003551.00,V,,,,,,,090626,,,N*74
#T1:1780965345681
$GPVTG,,,,,,,,,N*30
#T1:1780965345681
$GPGGA,003551.00,,,,,0,03,99.99,,,,,,*67
#T1:1780965345682
$GPGSA,A,1,01,03,02,,,,,,,,,,99.99,99.99,1.00*01
#T1:1780965345682
$GPGSV,1,1,04,01,,,39,02,,,31,03,,,32,12,,,26*73
#T1:1780965345682
$GPGLL,,,,,003551.00,V,N*48
#T1:1780965346680
$GPRMC,003552.00,V,,,,,,,090626,,,N*77
#T1:1780965346680
$GPVTG,,,,,,,,,N*30
#T1:1780965346680
$GPGGA,003552.00,,,,,0,03,99.99,,,,,,*64
#T1:1780965346680
$GPGSA,A,1,01,03,02,,,,,,,,,,99.99,99.99,1.00*01
#T1:1780965346681
$GPGSV,1,1,04,01,,,39,02,,,32,03,,,33,12,,,26*71
#T1:1780965346681
$GPGLL,,,,,003552.00,V,N*4B
#T1:1780965347682
$GPRMC,003553.00,V,,,,,,,090626,,,N*76
#T1:1780965347682
$GPVTG,,,,,,,,,N*30
#T1:1780965347682
$GPGGA,003553.00,,,,,0,03,99.99,,,,,,*65
#T1:1780965347682
$GPGSA,A,1,01,03,02,,,,,,,,,,99.99,99.99,1.00*01
#T1:1780965347682
$GPGSV,1,1,04,01,,,40,02,,,32,03,,,34,12,,,27*79
#T1:1780965347682
$GPGLL,,,,,003553.00,V,N*4A
#T1:1780965348678
$GPRMC,003554.00,V,,,,,,,090626,,,N*71
#T1:1780965348678
$GPVTG,,,,,,,,,N*30
#T1:1780965348678
$GPGGA,003554.00,,,,,0,03,99.99,,,,,,*62
#T1:1780965348678
$GPGSA,A,1,01,03,02,,,,,,,,,,99.99,99.99,1.00*01
#T1:1780965348679
$GPGSV,1,1,04,01,,,40,02,,,32,03,,,34,12,,,27*79
#T1:1780965348679
$GPGLL,,,,,003554.00,V,N*4D
#T1:1780965349684
$GPRMC,003555.00,V,,,,,,,090626,,,N*70
#T1:1780965349684
$GPVTG,,,,,,,,,N*30
#T1:1780965349684
$GPGGA,003555.00,,,,,0,03,99.99,,,,,,*63
#T1:1780965349684
$GPGSA,A,1,01,03,02,,,,,,,,,,99.99,99.99,1.00*01
#T1:1780965349684
$GPGSV,1,1,04,01,,,40,02,,,33,03,,,34,12,,,28*77
#T1:1780965349684
$GPGLL,,,,,003555.00,V,N*4C
#T1:1780965350682
$GPRMC,003556.00,V,,,,,,,090626,,,N*73
#T1:1780965350682
$GPVTG,,,,,,,,,N*30
#T1:1780965350682
$GPGGA,003556.00,,,,,0,03,99.99,,,,,,*60
#T1:1780965350682
$GPGSA,A,1,01,03,02,,,,,,,,,,99.99,99.99,1.00*01
#T1:1780965350683
$GPGSV,1,1,04,01,,,40,02,,,33,03,,,34,12,,,27*78
#T1:1780965350683
$GPGLL,,,,,003556.00,V,N*4F
#T1:1780965351689
$GPRMC,003557.00,V,,,,,,,090626,,,N*72
#T1:1780965351689
$GPVTG,,,,,,,,,N*30
#T1:1780965351689
$GPGGA,003557.00,,,,,0,03,99.99,,,,,,*61
#T1:1780965351689
$GPGSA,A,1,01,03,02,,,,,,,,,,99.99,99.99,1.00*01
#T1:1780965351690
$GPGSV,1,1,04,01,,,40,02,,,32,03,,,34,12,,,27*79
#T1:1780965351690
$GPGLL,,,,,003557.00,V,N*4E
#T1:1780965352681
$GPRMC,003558.00,V,,,,,,,090626,,,N*7D
#T1:1780965352681
$GPVTG,,,,,,,,,N*30
#T1:1780965352681
$GPGGA,003558.00,,,,,0,03,99.99,,,,,,*6E
#T1:1780965352681
$GPGSA,A,1,01,03,02,,,,,,,,,,99.99,99.99,1.00*01
#T1:1780965352682
$GPGSV,1,1,04,01,,,39,02,,,32,03,,,34,12,,,27*77
#T1:1780965352682
$GPGLL,,,,,003558.00,V,N*41
#T1:1780965353683
$GPRMC,003559.00,V,,,,,,,090626,,,N*7C
#T1:1780965353684
$GPVTG,,,,,,,,,N*30
#T1:1780965353684
$GPGGA,003559.00,,,,,0,03,99.99,,,,,,*6F
#T1:1780965353684
$GPGSA,A,1,01,03,02,,,,,,,,,,99.99,99.99,1.00*01
#T1:1780965353684
$GPGSV,1,1,04,01,,,39,02,,,32,03,,,35,12,,,27*76
#T1:1780965353684
$GPGLL,,,,,003559.00,V,N*40
#T1:1780965354681
$GPRMC,003600.00,V,,,,,,,090626,,,N*73
#T1:1780965354681
$GPVTG,,,,,,,,,N*30
#T1:1780965354682
$GPGGA,003600.00,,,,,0,03,99.99,,,,,,*60
#T1:1780965354682
$GPGSA,A,1,01,03,02,,,,,,,,,,99.99,99.99,1.00*01
#T1:1780965354682
$GPGSV,1,1,04,01,,,39,02,,,32,03,,,35,12,,,27*76
#T1:1780965354682
$GPGLL,,,,,003600.00,V,N*4F
#T1:1780965355689
$GPRMC,003601.00,V,,,,,,,090626,,,N*72
#T1:1780965355689
$GPVTG,,,,,,,,,N*30
#T1:1780965355689
$GPGGA,003601.00,,,,,0,03,99.99,,,,,,*61
#T1:1780965355689
$GPGSA,A,1,01,03,02,,,,,,,,,,99.99,99.99,1.00*01
#T1:1780965355690
$GPGSV,1,1,04,01,,,39,02,,,32,03,,,35,12,,,26*77
#T1:1780965355691
$GPGLL,,,,,003601.00,V,N*4E
#T1:1780965356683
$GPRMC,003602.00,V,,,,,,,090626,,,N*71
#T1:1780965356684
$GPVTG,,,,,,,,,N*30
#T1:1780965356684
$GPGGA,003602.00,,,,,0,03,99.99,,,,,,*62
#T1:1780965356684
$GPGSA,A,1,01,03,02,,,,,,,,,,99.99,99.99,1.00*01
#T1:1780965356684
$GPGSV,1,1,04,01,,,39,02,,,32,03,,,35,12,,,26*77
#T1:1780965356684
$GPGLL,,,,,003602.00,V,N*4D
#T1:1780965357684
$GPRMC,003603.00,V,,,,,,,090626,,,N*70
#T1:1780965357684
$GPVTG,,,,,,,,,N*30
#T1:1780965357684
$GPGGA,003603.00,,,,,0,03,99.99,,,,,,*63
#T1:1780965357684
$GPGSA,A,1,01,03,02,,,,,,,,,,99.99,99.99,1.00*01
#T1:1780965357685
$GPGSV,1,1,04,01,,,39,02,,,33,03,,,35,12,,,26*76
#T1:1780965357685
$GPGLL,,,,,003603.00,V,N*4C
#T1:1780965358683
$GPRMC,003604.00,V,,,,,,,090626,,,N*77
#T1:1780965358683
$GPVTG,,,,,,,,,N*30
#T1:1780965358683
$GPGGA,003604.00,,,,,0,03,99.99,,,,,,*64
#T1:1780965358683
$GPGSA,A,1,01,03,02,,,,,,,,,,99.99,99.99,1.00*01
#T1:1780965358684
$GPGSV,1,1,04,01,,,40,02,,,33,03,,,35,12,,,26*78
#T1:1780965358684
$GPGLL,,,,,003604.00,V,N*4B
#T1:1780965359681
$GPRMC,003605.00,V,,,,,,,090626,,,N*76
#T1:1780965359681
$GPVTG,,,,,,,,,N*30
#T1:1780965359681
$GPGGA,003605.00,,,,,0,03,99.99,,,,,,*65
#T1:1780965359681
$GPGSA,A,1,01,03,02,,,,,,,,,,99.99,99.99,1.00*01
#T1:1780965359682
$GPGSV,1,1,04,01,,,40,02,,,33,03,,,35,12,,,26*78
#T1:1780965359682
$GPGLL,,,,,003605.00,V,N*4A
#T1:1780965360683
$GPRMC,003606.00,V,,,,,,,090626,,,N*75
#T1:1780965360683
$GPVTG,,,,,,,,,N*30
#T1:1780965360683
$GPGGA,003606.00,,,,,0,03,99.99,,,,,,*66
#T1:1780965360683
$GPGSA,A,1,01,03,02,,,,,,,,,,99.99,99.99,1.00*01
#T1:1780965360684
$GPGSV,1,1,04,01,,,40,02,,,33,03,,,35,12,,,26*78
#T1:1780965360684
$GPGLL,,,,,003606.00,V,N*49
#T1:1780965361684
$GPRMC,003607.00,V,,,,,,,090626,,,N*74
#T1:1780965361684
$GPVTG,,,,,,,,,N*30
#T1:1780965361685
$GPGGA,003607.00,,,,,0,03,99.99,,,,,,*67
#T1:1780965361685
$GPGSA,A,1,01,03,02,,,,,,,,,,99.99,99.99,1.00*01
#T1:1780965361686
$GPGSV,1,1,04,01,,,40,02,,,33,03,,,35,12,,,26*78
#T1:1780965361686
$GPGLL,,,,,003607.00,V,N*48
#T1:1780965362688
$GPRMC,003608.00,V,,,,,,,090626,,,N*7B
#T1:1780965362688
$GPVTG,,,,,,,,,N*30
#T1:1780965362688
$GPGGA,003608.00,,,,,0,03,99.99,,,,,,*68
#T1:1780965362688
$GPGSA,A,1,01,03,02,,,,,,,,,,99.99,99.99,1.00*01
#T1:1780965362690
$GPGSV,1,1,04,01,,,39,02,,,32,03,,,35,12,,,26*77
#T1:1780965362691
$GPGLL,,,,,003608.00,V,N*47
#T1:1780965363690
$GPRMC,003609.00,V,,,,,,,090626,,,N*7A
#T1:1780965363690
$GPVTG,,,,,,,,,N*30
#T1:1780965363690
$GPGGA,003609.00,,,,,0,03,99.99,,,,,,*69
#T1:1780965363690
$GPGSA,A,1,01,03,02,,,,,,,,,,99.99,99.99,1.00*01
#T1:1780965363690
$GPGSV,1,1,04,01,,,39,02,,,33,03,,,35,12,,,26*76
#T1:1780965363691
$GPGLL,,,,,003609.00,V,N*46
#T1:1780965364683
$GPRMC,003610.00,V,,,,,,,090626,,,N*72
#T1:1780965364683
$GPVTG,,,,,,,,,N*30
#T1:1780965364683
$GPGGA,003610.00,,,,,0,03,99.99,,,,,,*61
#T1:1780965364683
$GPGSA,A,1,01,03,02,,,,,,,,,,99.99,99.99,1.00*01
#T1:1780965364683
$GPGSV,1,1,04,01,,,40,02,,,32,03,,,35,12,,,26*79
#T1:1780965364684
$GPGLL,,,,,003610.00,V,N*4E
#T1:1780965365685
$GPRMC,003611.00,V,,,,,,,090626,,,N*73
#T1:1780965365686
$GPVTG,,,,,,,,,N*30
#T1:1780965365686
$GPGGA,003611.00,,,,,0,03,99.99,,,,,,*60
#T1:1780965365686
$GPGSA,A,1,01,03,02,,,,,,,,,,99.99,99.99,1.00*01
#T1:1780965365686
$GPGSV,1,1,04,01,,,40,02,,,32,03,,,35,12,,,26*79
#T1:1780965365686
$GPGLL,,,,,003611.00,V,N*4F
#T1:1780965366682
$GPRMC,003612.00,V,,,,,,,090626,,,N*70
#T1:1780965366682
$GPVTG,,,,,,,,,N*30
#T1:1780965366682
$GPGGA,003612.00,,,,,0,03,99.99,,,,,,*63
#T1:1780965366682
$GPGSA,A,1,01,03,02,,,,,,,,,,99.99,99.99,1.00*01
#T1:1780965366682
$GPGSV,1,1,04,01,,,40,02,,,32,03,,,35,12,,,26*79
#T1:1780965366682
$GPGLL,,,,,003612.00,V,N*4C
#T1:1780965367689
$GPRMC,003613.00,V,,,,,,,090626,,,N*71
#T1:1780965367689
$GPVTG,,,,,,,,,N*30
#T1:1780965367689
$GPGGA,003613.00,,,,,0,03,99.99,,,,,,*62
#T1:1780965367690
$GPGSA,A,1,01,03,02,,,,,,,,,,99.99,99.99,1.00*01
#T1:1780965367690
$GPGSV,2,1,05,01,,,40,02,,,32,03,,,34,12,,,26*7A
#T1:1780965367690
$GPGSV,2,2,05,31,,,28*74
#T1:1780965367690
$GPGLL,,,,,003613.00,V,N*4D
#T1:1780965368682
$GPRMC,003614.00,V,,,,,,,090626,,,N*76
#T1:1780965368683
$GPVTG,,,,,,,,,N*30
#T1:1780965368683
$GPGGA,003614.00,,,,,0,03,99.99,,,,,,*65
#T1:1780965368683
$GPGSA,A,1,01,03,02,,,,,,,,,,99.99,99.99,1.00*01
#T1:1780965368683
$GPGSV,2,1,05,01,,,40,02,,,31,03,,,34,12,,,25*7A
#T1:1780965368683
$GPGSV,2,2,05,32,,,28*77
#T1:1780965368683
$GPGLL,,,,,003614.00,V,N*4A
#T1:1780965369684
$GPRMC,003615.00,V,,,,,,,090626,,,N*77
#T1:1780965369685
$GPVTG,,,,,,,,,N*30
#T1:1780965369685
$GPGGA,003615.00,,,,,0,03,99.99,,,,,,*64
#T1:1780965369685
$GPGSA,A,1,01,03,02,,,,,,,,,,99.99,99.99,1.00*01
#T1:1780965369686
$GPGSV,1,1,04,01,,,41,02,,,31,03,,,37,12,,,23*7C
#T1:1780965369686
$GPGLL,,,,,003615.00,V,N*4B
#T1:1780965370682
$GPRMC,003616.00,V,,,,,,,090626,,,N*74
#T1:1780965370682
$GPVTG,,,,,,,,,N*30
#T1:1780965370682
$GPGGA,003616.00,,,,,0,03,99.99,,,,,,*67
#T1:1780965370682
$GPGSA,A,1,01,03,02,,,,,,,,,,99.99,99.99,1.00*01
#T1:1780965370682
$GPGSV,1,1,04,01,,,40,02,,,32,03,,,36,12,,,23*7F
#T1:1780965370682
$GPGLL,,,,,003616.00,V,N*48
#T1:1780965371683
$GPRMC,003617.00,V,,,,,,,090626,,,N*75
#T1:1780965371683
$GPVTG,,,,,,,,,N*30
#T1:1780965371683
$GPGGA,003617.00,,,,,0,03,99.99,,,,,,*66
#T1:1780965371683
$GPGSA,A,1,01,03,02,,,,,,,,,,99.99,99.99,1.00*01
#T1:1780965371684
$GPGSV,1,1,04,01,,,39,02,,,32,03,,,35,12,,,25*74
#T1:1780965371684
$GPGLL,,,,,003617.00,V,N*49
#T1:1780965372682
$GPRMC,003618.00,V,,,,,,,090626,,,N*7A
#T1:1780965372683
$GPVTG,,,,,,,,,N*30
#T1:1780965372687
$GPGGA,003618.00,,,,,0,03,99.99,,,,,,*69
#T1:1780965372687
$GPGSA,A,1,01,03,02,,,,,,,,,,99.99,99.99,1.00*01
#T1:1780965372687
$GPGSV,1,1,04,01,,,39,02,,,31,03,,,34,12,,,25*76
#T1:1780965372687
$GPGLL,,,,,003618.00,V,N*46
#T1:1780965373683
$GPRMC,003619.00,V,,,,,,,090626,,,N*7B
#T1:1780965373683
$GPVTG,,,,,,,,,N*30
#T1:1780965373683
$GPGGA,003619.00,,,,,0,03,99.99,,,,,,*68
#T1:1780965373683
$GPGSA,A,1,01,03,02,,,,,,,,,,99.99,99.99,1.00*01
#T1:1780965373683
$GPGSV,1,1,04,01,,,39,02,,,32,03,,,34,12,,,25*75
#T1:1780965373684
$GPGLL,,,,,003619.00,V,N*47
#T1:1780965374682
$GPRMC,003620.00,V,,,,,,,090626,,,N*71
#T1:1780965374682
$GPVTG,,,,,,,,,N*30
#T1:1780965374682
$GPGGA,003620.00,,,,,0,03,99.99,,,,,,*62
#T1:1780965374683
$GPGSA,A,1,01,03,02,,,,,,,,,,99.99,99.99,1.00*01
#T1:1780965374684
$GPGSV,1,1,04,01,,,39,02,,,33,03,,,35,12,,,26*76
#T1:1780965374684
$GPGLL,,,,,003620.00,V,N*4D
#T1:1780965375687
$GPRMC,003621.00,V,,,,,,,090626,,,N*70
#T1:1780965375687
$GPVTG,,,,,,,,,N*30
#T1:1780965375687
$GPGGA,003621.00,,,,,0,03,99.99,,,,,,*63
#T1:1780965375687
$GPGSA,A,1,01,03,02,,,,,,,,,,99.99,99.99,1.00*01
#T1:1780965375687
$GPGSV,1,1,04,01,,,39,02,,,33,03,,,35,12,,,26*76
#T1:1780965375687
$GPGLL,,,,,003621.00,V,N*4C
#T1:1780965376685
$GPRMC,003622.00,V,,,,,,,090626,,,N*73
#T1:1780965376685
$GPVTG,,,,,,,,,N*30
#T1:1780965376685
$GPGGA,003622.00,,,,,0,03,99.99,,,,,,*60
#T1:1780965376685
$GPGSA,A,1,01,03,02,,,,,,,,,,99.99,99.99,1.00*01
#T1:1780965376686
$GPGSV,1,1,04,01,,,39,02,,,32,03,,,34,12,,,25*75
#T1:1780965376686
$GPGLL,,,,,003622.00,V,N*4F
#T1:1780965377686
$GPRMC,003623.00,V,,,,,,,090626,,,N*72
#T1:1780965377686
$GPVTG,,,,,,,,,N*30
#T1:1780965377686
$GPGGA,003623.00,,,,,0,03,99.99,,,,,,*61
#T1:1780965377686
$GPGSA,A,1,01,03,02,,,,,,,,,,99.99,99.99,1.00*01
#T1:1780965377686
$GPGSV,1,1,04,01,,,39,02,,,32,03,,,35,12,,,25*74
#T1:1780965377686
$GPGLL,,,,,003623.00,V,N*4E
#T1:1780965378687
$GPRMC,003624.00,V,,,,,,,090626,,,N*75
#T1:1780965378687
$GPVTG,,,,,,,,,N*30
#T1:1780965378687
$GPGGA,003624.00,,,,,0,03,99.99,,,,,,*66
#T1:1780965378688
$GPGSA,A,1,01,03,02,,,,,,,,,,99.99,99.99,1.00*01
#T1:1780965378688
$GPGSV,1,1,04,01,,,39,02,,,32,03,,,35,12,,,25*74
#T1:1780965378688
$GPGLL,,,,,003624.00,V,N*49
#T1:1780965379689
$GPRMC,003625.00,V,,,,,,,090626,,,N*74
#T1:1780965379689
$GPVTG,,,,,,,,,N*30
#T1:1780965379689
$GPGGA,003625.00,,,,,0,03,99.99,,,,,,*67
#T1:1780965379689
$GPGSA,A,1,01,03,02,,,,,,,,,,99.99,99.99,1.00*01
#T1:1780965379690
$GPGSV,1,1,04,01,,,39,02,,,32,03,,,35,12,,,26*77
#T1:1780965379690
$GPGLL,,,,,003625.00,V,N*48
#T1:1780965380690
$GPRMC,003626.00,V,,,,,,,090626,,,N*77
#T1:1780965380690
$GPVTG,,,,,,,,,N*30
#T1:1780965380690
$GPGGA,003626.00,,,,,0,03,99.99,,,,,,*64
#T1:1780965380690
$GPGSA,A,1,01,03,02,,,,,,,,,,99.99,99.99,1.00*01
#T1:1780965380691
$GPGSV,1,1,04,01,,,39,02,,,32,03,,,35,12,,,26*77
#T1:1780965380691
$GPGLL,,,,,003626.00,V,N*4B
#T1:1780965381686
$GPRMC,003627.00,V,,,,,,,090626,,,N*76
#T1:1780965381686
$GPVTG,,,,,,,,,N*30
#T1:1780965381686
$GPGGA,003627.00,,,,,0,03,99.99,,,,,,*65
#T1:1780965381686
$GPGSA,A,1,01,03,02,,,,,,,,,,99.99,99.99,1.00*01
#T1:1780965381687
$GPGSV,1,1,04,01,,,39,02,,,32,03,,,35,12,,,26*77
#T1:1780965381687
$GPGLL,,,,,003627.00,V,N*4A
#T1:1780965382687
$GPRMC,003628.00,V,,,,,,,090626,,,N*79
#T1:1780965382688
$GPVTG,,,,,,,,,N*30
#T1:1780965382688
$GPGGA,003628.00,,,,,0,03,99.99,,,,,,*6A
#T1:1780965382688
$GPGSA,A,1,01,03,02,,,,,,,,,,99.99,99.99,1.00*01
#T1:1780965382688
$GPGSV,1,1,04,01,,,39,02,,,32,03,,,35,12,,,27*76
#T1:1780965382688
$GPGLL,,,,,003628.00,V,N*45
#T1:1780965383686
$GPRMC,003629.00,V,,,,,,,090626,,,N*78
#T1:1780965383686
$GPVTG,,,,,,,,,N*30
#T1:1780965383686
$GPGGA,003629.00,,,,,0,03,99.99,,,,,,*6B
#T1:1780965383686
$GPGSA,A,1,01,03,02,,,,,,,,,,99.99,99.99,1.00*01
#T1:1780965383687
$GPGSV,1,1,04,01,,,38,02,,,31,03,,,35,12,,,26*75
#T1:1780965383687
$GPGLL,,,,,003629.00,V,N*44
#T1:1780965384685
$GPRMC,003630.00,V,,,,,,,090626,,,N*70
#T1:1780965384685
$GPVTG,,,,,,,,,N*30
#T1:1780965384685
$GPGGA,003630.00,,,,,0,03,99.99,,,,,,*63
#T1:1780965384685
$GPGSA,A,1,01,03,02,,,,,,,,,,99.99,99.99,1.00*01
#T1:1780965384686
$GPGSV,1,1,04,01,,,38,02,,,32,03,,,35,12,,,27*77
#T1:1780965384686
$GPGLL,,,,,003630.00,V,N*4C
#T1:1780965385687
$GPRMC,003631.00,V,,,,,,,090626,,,N*71
#T1:1780965385687
$GPVTG,,,,,,,,,N*30
#T1:1780965385687
$GPGGA,003631.00,,,,,0,03,99.99,,,,,,*62
#T1:1780965385688
$GPGSA,A,1,01,03,02,,,,,,,,,,99.99,99.99,1.00*01
#T1:1780965385688
$GPGSV,2,1,05,01,,,38,02,,,32,03,,,35,12,,,27*75
#T1:1780965385688
$GPGSV,2,2,05,16,,,19*73
#T1:1780965385688
$GPGLL,,,,,003631.00,V,N*4D
#T1:1780965386689
$GPRMC,003632.00,V,,,,,,,090626,,,N*72
#T1:1780965386689
$GPVTG,,,,,,,,,N*30
#T1:1780965386689
$GPGGA,003632.00,,,,,0,03,99.99,,,,,,*61
#T1:1780965386689
$GPGSA,A,1,01,03,02,,,,,,,,,,99.99,99.99,1.00*01
#T1:1780965386690
$GPGSV,2,1,05,01,,,38,02,,,32,03,,,35,12,,,27*75
#T1:1780965386690
$GPGSV,2,2,05,16,,,15*7F
#T1:1780965386690
$GPGLL,,,,,003632.00,V,N*4E
#T1:1780965387691
$GPRMC,003633.00,V,,,,,,,090626,,,N*73
#T1:1780965387691
$GPVTG,,,,,,,,,N*30
#T1:1780965387691
$GPGGA,003633.00,,,,,0,03,99.99,,,,,,*60
#T1:1780965387691
$GPGSA,A,1,01,03,02,,,,,,,,,,99.99,99.99,1.00*01
#T1:1780965387691
$GPGSV,1,1,04,01,,,38,02,,,32,03,,,35,12,,,27*77
#T1:1780965387692
$GPGLL,,,,,003633.00,V,N*4F
#T1:1780965388680
$GPRMC,003634.00,V,,,,,,,090626,,,N*74
#T1:1780965388680
$GPVTG,,,,,,,,,N*30
#T1:1780965388680
$GPGGA,003634.00,,,,,0,03,99.99,,,,,,*67
#T1:1780965388680
$GPGSA,A,1,01,03,02,,,,,,,,,,99.99,99.99,1.00*01
#T1:1780965388680
$GPGSV,1,1,04,01,,,39,02,,,32,03,,,35,12,,,27*76
#T1:1780965388680
$GPGLL,,,,,003634.00,V,N*48
#T1:1780965389690
$GPRMC,003635.00,V,,,,,,,090626,,,N*75
#T1:1780965389690
$GPVTG,,,,,,,,,N*30
#T1:1780965389690
$GPGGA,003635.00,,,,,0,03,99.99,,,,,,*66
#T1:1780965389690
$GPGSA,A,1,01,03,02,,,,,,,,,,99.99,99.99,1.00*01
#T1:1780965389690
$GPGSV,2,1,05,01,,,39,02,,,32,03,,,35,12,,,28*7B
#T1:1780965389690
$GPGSV,2,2,05,31,,,28*74
#T1:1780965389691
$GPGLL,,,,,003635.00,V,N*49
#T1:1780965390689
$GPRMC,003636.00,V,,,,,,,090626,,,N*76
#T1:1780965390689
$GPVTG,,,,,,,,,N*30
#T1:1780965390689
$GPGGA,003636.00,,,,,0,03,99.99,,,,,,*65
#T1:1780965390689
$GPGSA,A,1,01,03,02,,,,,,,,,,99.99,99.99,1.00*01
#T1:1780965390689
$GPGSV,2,1,06,01,,,38,02,,,33,03,,,35,12,,,28*78
#T1:1780965390689
$GPGSV,2,2,06,31,,,28,32,,,31*74
#T1:1780965390689
$GPGLL,,,,,003636.00,V,N*4A
#T1:1780965391689
$GPRMC,003637.00,V,,,,,,,090626,,,N*77
#T1:1780965391689
$GPVTG,,,,,,,,,N*30
#T1:1780965391689
$GPGGA,003637.00,,,,,0,03,99.99,,,,,,*64
#T1:1780965391689
$GPGSA,A,1,01,03,02,,,,,,,,,,99.99,99.99,1.00*01
#T1:1780965391690
$GPGSV,2,1,06,01,,,38,02,,,33,03,,,35,12,,,28*78
#T1:1780965391690
$GPGSV,2,2,06,31,,,28,32,,,30*75
#T1:1780965391690
$GPGLL,,,,,003637.00,V,N*4B
#T1:1780965392685
$GPRMC,003638.00,V,,,,,,,090626,,,N*78
#T1:1780965392685
$GPVTG,,,,,,,,,N*30
#T1:1780965392685
$GPGGA,003638.00,,,,,0,03,99.99,,,,,,*6B
#T1:1780965392685
$GPGSA,A,1,01,03,02,,,,,,,,,,99.99,99.99,1.00*01
#T1:1780965392685
$GPGSV,2,1,06,01,,,38,02,,,33,03,,,35,12,,,27*77
#T1:1780965392685
$GPGSV,2,2,06,31,,,28,32,,,30*75
#T1:1780965392685
$GPGLL,,,,,003638.00,V,N*44
#T1:1780965393690
$GPRMC,003639.00,V,,,,,,,090626,,,N*79
#T1:1780965393690
$GPVTG,,,,,,,,,N*30
#T1:1780965393690
$GPGGA,003639.00,,,,,0,03,99.99,,,,,,*6A
#T1:1780965393690
$GPGSA,A,1,01,03,02,,,,,,,,,,99.99,99.99,1.00*01
#T1:1780965393690
$GPGSV,2,1,06,01,,,38,02,,,33,03,,,35,12,,,27*77
#T1:1780965393690
$GPGSV,2,2,06,31,,,27,32,,,30*7A
#T1:1780965393690
$GPGLL,,,,,003639.00,V,N*45
#T1:1780965394688
$GPRMC,003640.00,V,,,,,,,090626,,,N*77
#T1:1780965394688
$GPVTG,,,,,,,,,N*30
#T1:1780965394688
$GPGGA,003640.00,,,,,0,03,99.99,,,,,,*64
#T1:1780965394688
$GPGSA,A,1,01,03,02,,,,,,,,,,99.99,99.99,1.00*01
#T1:1780965394688
$GPGSV,2,1,06,01,,,38,02,,,33,03,,,36,12,,,27*74
#T1:1780965394688
$GPGSV,2,2,06,31,,,27,32,,,30*7A
#T1:1780965394688
$GPGLL,,,,,003640.00,V,N*4B
#T1:1780965395690
$GPRMC,003641.00,V,,,,,,,090626,,,N*76
#T1:1780965395690
$GPVTG,,,,,,,,,N*30
#T1:1780965395690
$GPGGA,003641.00,,,,,0,03,99.99,,,,,,*65
#T1:1780965395690
$GPGSA,A,1,01,03,02,,,,,,,,,,99.99,99.99,1.00*01
#T1:1780965395691
$GPGSV,2,1,06,01,,,38,02,,,32,03,,,36,12,,,27*75
#T1:1780965395691
$GPGSV,2,2,06,31,,,27,32,,,30*7A
#T1:1780965395691
$GPGLL,,,,,003641.00,V,N*4A
#T1:1780965396688
$GPRMC,003642.00,V,,,,,,,090626,,,N*75
#T1:1780965396688
$GPVTG,,,,,,,,,N*30
#T1:1780965396688
$GPGGA,003642.00,,,,,0,03,99.99,,,,,,*66
#T1:1780965396688
$GPGSA,A,1,01,03,02,,,,,,,,,,99.99,99.99,1.00*01
#T1:1780965396689
$GPGSV,2,1,06,01,,,38,02,,,32,03,,,35,12,,,27*76
#T1:1780965396689
$GPGSV,2,2,06,31,,,27,32,,,30*7A
#T1:1780965396689
$GPGLL,,,,,003642.00,V,N*49
#T1:1780965397690
$GPRMC,003643.00,V,,,,,,,090626,,,N*74
#T1:1780965397690
$GPVTG,,,,,,,,,N*30
#T1:1780965397690
$GPGGA,003643.00,,,,,0,03,99.99,,,,,,*67
#T1:1780965397690
$GPGSA,A,1,01,03,02,,,,,,,,,,99.99,99.99,1.00*01
#T1:1780965397691
$GPGSV,2,1,06,01,,,38,02,,,32,03,,,36,12,,,28*7A
#T1:1780965397691
$GPGSV,2,2,06,31,,,27,32,,,30*7A
#T1:1780965397691
$GPGLL,,,,,003643.00,V,N*48
#T1:1780965398690
$GPRMC,003644.00,V,,,,,,,090626,,,N*73
#T1:1780965398691
$GPVTG,,,,,,,,,N*30
#T1:1780965398691
$GPGGA,003644.00,,,,,0,03,99.99,,,,,,*60
#T1:1780965398691
$GPGSA,A,1,01,03,02,,,,,,,,,,99.99,99.99,1.00*01
#T1:1780965398691
$GPGSV,2,1,06,01,,,38,02,,,32,03,,,35,12,,,28*79
#T1:1780965398691
$GPGSV,2,2,06,31,,,27,32,,,30*7A
#T1:1780965398691
$GPGLL,,,,,003644.00,V,N*4F
#T1:1780965399687
$GPRMC,003645.00,V,,,,,,,090626,,,N*72
#T1:1780965399687
$GPVTG,,,,,,,,,N*30
#T1:1780965399687
$GPGGA,003645.00,,,,,0,03,99.99,,,,,,*61
#T1:1780965399687
$GPGSA,A,1,01,03,02,,,,,,,,,,99.99,99.99,1.00*01
#T1:1780965399687
$GPGSV,2,1,06,01,,,38,02,,,32,03,,,35,12,,,27*76
#T1:1780965399687
$GPGSV,2,2,06,31,,,27,32,,,30*7A
#T1:1780965399688
$GPGLL,,,,,003645.00,V,N*4E
#T1:1780965400689
$GPRMC,003646.00,V,,,,,,,090626,,,N*71
#T1:1780965400689
$GPVTG,,,,,,,,,N*30
#T1:1780965400689
$GPGGA,003646.00,,,,,0,03,99.99,,,,,,*62
#T1:1780965400689
$GPGSA,A,1,01,03,02,,,,,,,,,,99.99,99.99,1.00*01
#T1:1780965400690
$GPGSV,2,1,06,01,,,38,02,,,32,03,,,35,12,,,28*79
#T1:1780965400690
$GPGSV,2,2,06,31,,,27,32,,,30*7A
#T1:1780965400690
$GPGLL,,,,,003646.00,V,N*4D
#T1:1780965401692
$GPRMC,003647.00,V,,,,,,,090626,,,N*70
#T1:1780965401692
$GPVTG,,,,,,,,,N*30
#T1:1780965401692
$GPGGA,003647.00,,,,,0,03,99.99,,,,,,*63
#T1:1780965401692
$GPGSA,A,1,01,03,02,,,,,,,,,,99.99,99.99,1.00*01
#T1:1780965401693
$GPGSV,2,1,06,01,,,38,02,,,32,03,,,35,12,,,27*76
#T1:1780965401693
$GPGSV,2,2,06,31,,,27,32,,,30*7A
#T1:1780965401693
$GPGLL,,,,,003647.00,V,N*4C
#T1:1780965402691
$GPRMC,003648.00,V,,,,,,,090626,,,N*7F
#T1:1780965402691
$GPVTG,,,,,,,,,N*30
#T1:1780965402691
$GPGGA,003648.00,,,,,0,03,99.99,,,,,,*6C
#T1:1780965402691
$GPGSA,A,1,01,03,02,,,,,,,,,,99.99,99.99,1.00*01
#T1:1780965402692
$GPGSV,2,1,06,01,,,38,02,,,32,03,,,35,12,,,27*76
#T1:1780965402692
$GPGSV,2,2,06,31,,,27,32,,,29*72
#T1:1780965402692
$GPGLL,,,,,003648.00,V,N*43
#T1:1780965403692
$GPRMC,003649.00,V,,,,,,,090626,,,N*7E
#T1:1780965403692
$GPVTG,,,,,,,,,N*30
#T1:1780965403692
$GPGGA,003649.00,,,,,0,03,99.99,,,,,,*6D
#T1:1780965403693
$GPGSA,A,1,01,03,02,,,,,,,,,,99.99,99.99,1.00*01
#T1:1780965403694
$GPGSV,2,1,06,01,,,38,02,,,32,03,,,35,12,,,27*76
#T1:1780965403694
$GPGSV,2,2,06,31,,,27,32,,,29*72
#T1:1780965403694
$GPGLL,,,,,003649.00,V,N*42
#T1:1780965404700
$GPRMC,003650.00,V,,,,,,,090626,,,N*76
#T1:1780965404700
$GPVTG,,,,,,,,,N*30
#T1:1780965404700
$GPGGA,003650.00,,,,,0,03,99.99,,,,,,*65
#T1:1780965404701
$GPGSA,A,1,01,03,02,,,,,,,,,,99.99,99.99,1.00*01
#T1:1780965404701
$GPGSV,2,1,06,01,,,38,02,,,32,03,,,35,12,,,27*76
#T1:1780965404701
$GPGSV,2,2,06,31,,,26,32,,,29*73
#T1:1780965404701
$GPGLL,,,,,003650.00,V,N*4A
#T1:1780965405724
$GPRMC,003651.00,A,4617.00496,N,08753.27804,W,0.042,,090626,,,A*61
#T1:1780965405724
$GPVTG,,T,,M,0.042,N,0.078,K,A*2A
#T1:1780965405724
$GPGGA,003651.00,4617.00496,N,08753.27804,W,1,04,3.52,476.4,M,-35.0,M,,*6A
#T1:1780965405724
$GPGSA,A,3,01,03,02,12,,,,,,,,,6.72,3.52,5.73*07
#T1:1780965405725
$GPGSV,2,1,06,01,29,300,38,02,32,267,32,03,08,313,36,12,23,059,27*7B
#T1:1780965405725
$GPGSV,2,2,06,31,32,214,26,32,,,29*45
#T1:1780965405725
$GPGLL,4617.00496,N,08753.27804,W,003651.00,A,A*75
#T1:1780965406664
$GPRMC,003652.00,A,4617.00841,N,08753.27800,W,0.265,,090626,,,A*67
#T1:1780965406664
$GPVTG,,T,,M,0.265,N,0.492,K,A*2D
#T1:1780965406664
$GPGGA,003652.00,4617.00841,N,08753.27800,W,1,04,3.51,463.7,M,-35.0,M,,*6F
#T1:1780965406664
$GPGSA,A,3,01,03,02,12,,,,,,,,,6.73,3.51,5.73*05
#T1:1780965406665
$GPGSV,2,1,06,01,29,300,38,02,32,267,32,03,08,313,35,12,23,059,27*78
#T1:1780965406665
$GPGSV,2,2,06,31,32,214,26,32,,,29*45
#T1:1780965406665
$GPGLL,4617.00841,N,08753.27800,W,003652.00,A,A*74
#T1:1780965407657
$GPRMC,003653.00,A,4617.00826,N,08753.27834,W,0.403,,090626,,,A*66
#T1:1780965407657
$GPVTG,,T,,M,0.403,N,0.747,K,A*20
#T1:1780965407657
$GPGGA,003653.00,4617.00826,N,08753.27834,W,1,04,3.51,457.3,M,-35.0,M,,*6B
#T1:1780965407657
$GPGSA,A,3,01,03,02,12,,,,,,,,,6.73,3.51,5.74*02
#T1:1780965407660
$GPGSV,2,1,06,01,29,300,38,02,32,267,31,03,08,313,35,12,23,059,27*7B
#T1:1780965407660
$GPGSV,2,2,06,31,32,214,26,32,,,29*45
#T1:1780965407660
$GPGLL,4617.00826,N,08753.27834,W,003653.00,A,A*73
#T1:1780965408656
$GPRMC,003654.00,A,4617.00670,N,08753.27859,W,0.311,,090626,,,A*63
#T1:1780965408656
$GPVTG,,T,,M,0.311,N,0.576,K,A*24
#T1:1780965408656
$GPGGA,003654.00,4617.00670,N,08753.27859,W,1,04,3.51,452.4,M,-35.0,M,,*68
#T1:1780965408656
$GPGSA,A,3,01,03,02,12,,,,,,,,,6.73,3.51,5.74*02
#T1:1780965408657
$GPGSV,2,1,06,01,29,300,38,02,32,267,31,03,08,313,35,12,23,059,27*7B
#T1:1780965408657
$GPGSV,2,2,06,31,32,214,26,32,,,29*45
#T1:1780965408657
$GPGLL,4617.00670,N,08753.27859,W,003654.00,A,A*72
#T1:1780965409657
$GPRMC,003655.00,A,4617.00643,N,08753.27850,W,0.185,,090626,,,A*64
#T1:1780965409657
$GPVTG,,T,,M,0.185,N,0.342,K,A*2A
#T1:1780965409657
$GPGGA,003655.00,4617.00643,N,08753.27850,W,1,04,3.51,450.9,M,-35.0,M,,*6F
#T1:1780965409657
$GPGSA,A,3,01,03,02,12,,,,,,,,,6.73,3.51,5.74*02
#T1:1780965409660
$GPGSV,2,1,06,01,29,300,38,02,32,267,31,03,08,313,35,12,23,059,27*7B
#T1:1780965409660
$GPGSV,2,2,06,31,32,214,26,32,,,29*45
#T1:1780965409660
$GPGLL,4617.00643,N,08753.27850,W,003655.00,A,A*7A
#T1:1780965410653
$GPRMC,003656.00,A,4617.00656,N,08753.27845,W,0.498,,090626,,,A*6E
#T1:1780965410653
$GPVTG,,T,,M,0.498,N,0.923,K,A*2E
#T1:1780965410653
$GPGGA,003656.00,4617.00656,N,08753.27845,W,1,04,3.51,450.0,M,-35.0,M,,*65
#T1:1780965410653
$GPGSA,A,3,01,03,02,12,,,,,,,,,6.73,3.51,5.74*02
#T1:1780965410653
$GPGSV,2,1,06,01,29,300,38,02,32,267,31,03,08,313,36,12,23,059,26*79
#T1:1780965410653
$GPGSV,2,2,06,31,32,214,25,32,,,30*4E
#T1:1780965410654
$GPGLL,4617.00656,N,08753.27845,W,003656.00,A,A*79
#T1:1780965411656
$GPRMC,003657.00,A,4617.00652,N,08753.27832,W,0.365,,090626,,,A*6E
#T1:1780965411656
$GPVTG,,T,,M,0.365,N,0.675,K,A*27
#T1:1780965411656
$GPGGA,003657.00,4617.00652,N,08753.27832,W,1,04,3.51,449.3,M,-35.0,M,,*6B
#T1:1780965411656
$GPGSA,A,3,01,03,02,12,,,,,,,,,6.73,3.51,5.74*02
#T1:1780965411657
$GPGSV,2,1,06,01,29,300,38,02,32,267,31,03,08,313,36,12,23,059,25*7A
#T1:1780965411657
$GPGSV,2,2,06,31,32,214,25,32,,,30*4E
#T1:1780965411657
$GPGLL,4617.00652,N,08753.27832,W,003657.00,A,A*7C
#T1:1780965412651
$GPRMC,003658.00,A,4617.00712,N,08753.27814,W,0.603,,090626,,,A*65
#T1:1780965412651
$GPVTG,,T,,M,0.603,N,1.118,K,A*2F
#T1:1780965412651
$GPGGA,003658.00,4617.00712,N,08753.27814,W,1,04,3.51,450.0,M,-35.0,M,,*6E
#T1:1780965412651
$GPGSA,A,3,01,03,02,12,,,,,,,,,6.73,3.51,5.74*02
#T1:1780965412652
$GPGSV,2,1,06,01,29,300,37,02,32,267,31,03,08,313,36,12,23,059,24*74
#T1:1780965412652
$GPGSV,2,2,06,31,32,214,25,32,,,29*46
#T1:1780965412652
$GPGLL,4617.00712,N,08753.27814,W,003658.00,A,A*72
#T1:1780965413655
$GPRMC,003659.00,A,4617.00725,N,08753.27754,W,2.082,,090626,,,A*66
#T1:1780965413655
$GPVTG,,T,,M,2.082,N,3.855,K,A*20
#T1:1780965413655
$GPGGA,003659.00,4617.00725,N,08753.27754,W,1,04,3.51,450.2,M,-35.0,M,,*62
#T1:1780965413655
$GPGSA,A,3,01,03,02,12,,,,,,,,,6.73,3.51,5.75*03
#T1:1780965413656
$GPGSV,2,1,06,01,29,300,37,02,32,267,31,03,08,313,35,12,23,059,23*70
#T1:1780965413656
$GPGSV,2,2,06,31,32,214,24,32,,,29*47
#T1:1780965413656
$GPGLL,4617.00725,N,08753.27754,W,003659.00,A,A*7C
#T1:1780965414650
$GPRMC,003700.00,A,4617.00750,N,08753.27719,W,0.939,,090626,,,A*6B
#T1:1780965414650
$GPVTG,,T,,M,0.939,N,1.739,K,A*2C
#T1:1780965414650
$GPGGA,003700.00,4617.00750,N,08753.27719,W,1,04,3.51,450.6,M,-35.0,M,,*60
#T1:1780965414650
$GPGSA,A,3,01,03,02,12,,,,,,,,,6.74,3.51,5.75*04
#T1:1780965414651
$GPGSV,2,1,06,01,29,300,37,02,32,267,31,03,08,313,36,12,23,059,22*72
#T1:1780965414651
$GPGSV,2,2,06,31,32,214,24,32,,,29*47
#T1:1780965414651
$GPGLL,4617.00750,N,08753.27719,W,003700.00,A,A*7A
#T1:1780965415655
$GPRMC,003701.00,A,4617.00696,N,08753.27714,W,0.075,,090626,,,A*6D
#T1:1780965415655
$GPVTG,,T,,M,0.075,N,0.140,K,A*24
#T1:1780965415655
$GPGGA,003701.00,4617.00696,N,08753.27714,W,1,04,3.51,449.8,M,-35.0,M,,*61
#T1:1780965415656
$GPGSA,A,3,01,03,02,12,,,,,,,,,6.74,3.51,5.75*04
#T1:1780965415656
$GPGSV,2,1,06,01,29,300,37,02,32,267,31,03,08,313,36,12,23,059,22*72
#T1:1780965415656
$GPGSV,2,2,06,31,32,214,24,32,,,29*47
#T1:1780965415656
$GPGLL,4617.00696,N,08753.27714,W,003701.00,A,A*7D
#T1:1780965416651
$GPRMC,003702.00,A,4617.00786,N,08753.27702,W,0.515,,090626,,,A*6A
#T1:1780965416651
$GPVTG,,T,,M,0.515,N,0.953,K,A*2D
#T1:1780965416651
$GPGGA,003702.00,4617.00786,N,08753.27702,W,1,04,3.51,451.2,M,-35.0,M,,*66
#T1:1780965416651
$GPGSA,A,3,01,03,02,12,,,,,,,,,6.74,3.51,5.75*04
#T1:1780965416651
$GPGSV,2,1,06,01,29,300,38,02,32,267,31,03,08,313,36,12,23,059,22*7D
#T1:1780965416652
$GPGSV,2,2,06,31,32,214,24,32,,,29*47
#T1:1780965416652
$GPGLL,4617.00786,N,08753.27702,W,003702.00,A,A*79
#T1:1780965417656
$GPRMC,003703.00,A,4617.00757,N,08753.27719,W,0.907,,090626,,,A*62
#T1:1780965417656
$GPVTG,,T,,M,0.907,N,1.680,K,A*22
#T1:1780965417656
$GPGGA,003703.00,4617.00757,N,08753.27719,W,1,05,2.70,450.1,M,-35.0,M,,*60
#T1:1780965417656
$GPGSA,A,3,01,03,02,32,12,,,,,,,,3.62,2.70,2.42*06
#T1:1780965417656
$GPGSV,2,1,06,01,29,300,38,02,32,267,31,03,08,313,36,12,23,059,22*7D
#T1:1780965417657
$GPGSV,2,2,06,31,32,214,24,32,76,032,29*77
#T1:1780965417657
$GPGLL,4617.00757,N,08753.27719,W,003703.00,A,A*7E
#T1:1780965418652
$GPRMC,003704.00,A,4617.00762,N,08753.27700,W,0.326,,090626,,,A*62
#T1:1780965418652
$GPVTG,,T,,M,0.326,N,0.605,K,A*27
#T1:1780965418652
$GPGGA,003704.00,4617.00762,N,08753.27700,W,1,05,2.70,450.2,M,-35.0,M,,*6A
#T1:1780965418652
$GPGSA,A,3,01,03,02,32,12,,,,,,,,3.62,2.70,2.42*06
#T1:1780965418653
$GPGSV,2,1,06,01,29,300,38,02,32,267,31,03,08,313,36,12,23,059,23*7C
#T1:1780965418653
$GPGSV,2,2,06,31,32,214,24,32,76,032,29*77
#T1:1780965418653
$GPGLL,4617.00762,N,08753.27700,W,003704.00,A,A*77
#T1:1780965419656
$GPRMC,003705.00,A,4617.00738,N,08753.27707,W,0.053,,090626,,,A*6A
#T1:1780965419656
$GPVTG,,T,,M,0.053,N,0.098,K,A*24
#T1:1780965419656
$GPGGA,003705.00,4617.00738,N,08753.27707,W,1,05,2.70,449.4,M,-35.0,M,,*6D
#T1:1780965419656
$GPGSA,A,3,01,03,02,32,12,,,,,,,,3.62,2.70,2.42*06
#T1:1780965419657
$GPGSV,2,1,06,01,29,300,38,02,32,267,31,03,08,313,35,12,23,059,23*7F
#T1:1780965419657
$GPGSV,2,2,06,31,32,214,25,32,76,032,28*77
#T1:1780965419657
$GPGLL,4617.00738,N,08753.27707,W,003705.00,A,A*7E
#T1:1780965420655
$GPRMC,003706.00,A,4617.00751,N,08753.27710,W,0.211,,090626,,,A*64
#T1:1780965420655
$GPVTG,,T,,M,0.211,N,0.390,K,A*2B
#T1:1780965420655
$GPGGA,003706.00,4617.00751,N,08753.27710,W,1,05,2.70,449.3,M,-35.0,M,,*60
#T1:1780965420655
$GPGSA,A,3,01,03,02,32,12,,,,,,,,3.62,2.70,2.42*06
#T1:1780965420655
$GPGSV,2,1,06,01,29,300,38,02,32,267,31,03,08,313,36,12,23,059,23*7C
#T1:1780965420655
$GPGSV,2,2,06,31,32,214,25,32,76,032,28*77
#T1:1780965420656
$GPGLL,4617.00751,N,08753.27710,W,003706.00,A,A*74
#T1:1780965421657
$GPRMC,003707.00,A,4617.00740,N,08753.27715,W,0.217,,090626,,,A*66
#T1:1780965421657
$GPVTG,,T,,M,0.217,N,0.401,K,A*22
#T1:1780965421657
$GPGGA,003707.00,4617.00740,N,08753.27715,W,1,05,2.70,449.1,M,-35.0,M,,*66
#T1:1780965421657
$GPGSA,A,3,01,03,02,32,12,,,,,,,,3.62,2.70,2.42*06
#T1:1780965421657
$GPGSV,2,1,06,01,29,300,38,02,32,267,31,03,08,313,36,12,23,059,23*7C
#T1:1780965421658
$GPGSV,2,2,06,31,32,214,25,32,76,032,28*77
#T1:1780965421658
$GPGLL,4617.00740,N,08753.27715,W,003707.00,A,A*70
#T1:1780965422654
$GPRMC,003708.00,A,4617.00776,N,08753.27722,W,0.115,,090626,,,A*69
#T1:1780965422654
$GPVTG,,T,,M,0.115,N,0.213,K,A*26
#T1:1780965422654
$GPGGA,003708.00,4617.00776,N,08753.27722,W,1,05,2.69,449.4,M,-35.0,M,,*65
#T1:1780965422654
$GPGSA,A,3,01,03,02,32,12,,,,,,,,3.62,2.69,2.42*0E
#T1:1780965422655
$GPGSV,2,1,06,01,29,300,38,02,32,267,31,03,08,313,36,12,23,059,23*7C
#T1:1780965422655
$GPGSV,2,2,06,31,32,214,24,32,76,032,27*79
#T1:1780965422655
$GPGLL,4617.00776,N,08753.27722,W,003708.00,A,A*7E
#T1:1780965423659
$GPRMC,003709.00,A,4617.00766,N,08753.27707,W,0.158,,090626,,,A*67
#T1:1780965423659
$GPVTG,,T,,M,0.158,N,0.292,K,A*26
#T1:1780965423659
$GPGGA,003709.00,4617.00766,N,08753.27707,W,1,05,2.69,449.2,M,-35.0,M,,*64
#T1:1780965423659
$GPGSA,A,3,01,03,02,32,12,,,,,,,,3.62,2.69,2.42*0E
#T1:1780965423660
$GPGSV,2,1,06,01,29,300,37,02,32,267,30,03,08,313,35,12,23,059,22*70
#T1:1780965423660
$GPGSV,2,2,06,31,32,214,24,32,76,032,26*78
#T1:1780965423660
$GPGLL,4617.00766,N,08753.27707,W,003709.00,A,A*79
#T1:1780965424653
$GPRMC,003710.00,A,4617.00738,N,08753.27706,W,0.125,,090626,,,A*6F
#T1:1780965424653
$GPVTG,,T,,M,0.125,N,0.231,K,A*25
#T1:1780965424653
$GPGGA,003710.00,4617.00738,N,08753.27706,W,1,05,2.69,448.8,M,-35.0,M,,*6D
#T1:1780965424653
$GPGSA,A,3,01,03,02,32,12,,,,,,,,3.62,2.69,2.42*0E
#T1:1780965424653
$GPGSV,2,1,06,01,29,300,38,02,32,267,31,03,08,313,36,12,23,059,23*7C
#T1:1780965424654
$GPGSV,2,2,06,31,32,214,24,32,76,032,26*78
#T1:1780965424654
$GPGLL,4617.00738,N,08753.27706,W,003710.00,A,A*7B
#T1:1780965425655
$GPRMC,003711.00,A,4617.00746,N,08753.27714,W,0.210,,090626,,,A*61
#T1:1780965425655
$GPVTG,,T,,M,0.210,N,0.389,K,A*22
#T1:1780965425655
$GPGGA,003711.00,4617.00746,N,08753.27714,W,1,05,2.69,448.8,M,-35.0,M,,*66
#T1:1780965425655
$GPGSA,A,3,01,03,02,32,12,,,,,,,,3.62,2.69,2.42*0E
#T1:1780965425656
$GPGSV,2,1,06,01,29,300,38,02,32,267,31,03,08,313,36,12,23,059,23*7C
#T1:1780965425656
$GPGSV,2,2,06,31,32,214,24,32,76,032,27*79
#T1:1780965425656
$GPGLL,4617.00746,N,08753.27714,W,003711.00,A,A*70
#T1:1780965426654
$GPRMC,003712.00,A,4617.00719,N,08753.27720,W,0.134,,090626,,,A*6A
#T1:1780965426654
$GPVTG,,T,,M,0.134,N,0.248,K,A*2B
#T1:1780965426654
$GPGGA,003712.00,4617.00719,N,08753.27720,W,1,05,2.69,448.6,M,-35.0,M,,*66
#T1:1780965426654
$GPGSA,A,3,01,03,02,32,12,,,,,,,,3.62,2.69,2.42*0E
#T1:1780965426654
$GPGSV,2,1,06,01,29,300,33,02,32,267,31,03,08,313,32,12,23,059,24*74
#T1:1780965426654
$GPGSV,2,2,06,31,32,214,24,32,76,032,26*78
#T1:1780965426654
$GPGLL,4617.00719,N,08753.27720,W,003712.00,A,A*7E
#T1:1780965427656
$GPRMC,003713.00,A,4617.00747,N,08753.27746,W,0.786,,090626,,,A*6F
#T1:1780965427656
$GPVTG,,T,,M,0.786,N,1.456,K,A*2C
#T1:1780965427656
$GPGGA,003713.00,4617.00747,N,08753.27746,W,1,05,2.69,448.8,M,-35.0,M,,*62
#T1:1780965427656
$GPGSA,A,3,01,03,02,32,12,,,,,,,,3.62,2.69,2.42*0E
#T1:1780965427656
$GPGSV,2,1,06,01,29,300,35,02,32,267,29,03,08,313,32,12,23,059,22*7D
#T1:1780965427657
$GPGSV,2,2,06,31,32,214,21,32,76,032,25*7E
#T1:1780965427657
$GPGLL,4617.00747,N,08753.27746,W,003713.00,A,A*74
#T1:1780965428651
$GPRMC,003714.00,A,4617.00742,N,08753.27759,W,0.449,,090626,,,A*63
#T1:1780965428651
$GPVTG,,T,,M,0.449,N,0.832,K,A*23
#T1:1780965428651
$GPGGA,003714.00,4617.00742,N,08753.27759,W,1,05,2.69,448.6,M,-35.0,M,,*60
#T1:1780965428651
$GPGSA,A,3,01,03,02,32,12,,,,,,,,3.62,2.69,2.42*0E
#T1:1780965428652
$GPGSV,2,1,06,01,29,300,35,02,32,267,28,03,08,313,32,12,23,059,21*7F
#T1:1780965428652
$GPGSV,2,2,06,31,32,214,20,32,76,032,24*7E
#T1:1780965428652
$GPGLL,4617.00742,N,08753.27759,W,003714.00,A,A*78
#T1:1780965429657
$GPRMC,003715.00,A,4617.00772,N,08753.27799,W,0.736,,090626,,,A*66
#T1:1780965429657
$GPVTG,,T,,M,0.736,N,1.364,K,A*21
#T1:1780965429657
$GPGGA,003715.00,4617.00772,N,08753.27799,W,1,05,2.69,449.0,M,-35.0,M,,*69
#T1:1780965429657
$GPGSA,A,3,01,03,02,32,12,,,,,,,,3.62,2.69,2.42*0E
#T1:1780965429658
$GPGSV,2,1,07,01,29,300,35,02,32,267,28,03,08,313,32,10,46,142,*77
#T1:1780965429658
$GPGSV,2,2,07,12,23,059,20,31,32,214,18,32,76,032,24*48
#T1:1780965429658
$GPGLL,4617.00772,N,08753.27799,W,003715.00,A,A*76
#T1:1780965430655
$GPRMC,003716.00,A,4617.00778,N,08753.27793,W,0.295,,090626,,,A*69
#T1:1780965430655
$GPVTG,,T,,M,0.295,N,0.547,K,A*2B
#T1:1780965430655
$GPGGA,003716.00,4617.00778,N,08753.27793,W,1,05,2.69,448.9,M,-35.0,M,,*62
#T1:1780965430655
$GPGSA,A,3,01,03,02,32,12,,,,,,,,3.62,2.69,2.42*0E
#T1:1780965430655
$GPGSV,2,1,07,01,29,300,34,02,32,267,28,03,08,313,33,10,46,142,20*75
#T1:1780965430656
$GPGSV,2,2,07,12,23,059,20,31,32,214,18,32,76,032,25*49
#T1:1780965430656
$GPGLL,4617.00778,N,08753.27793,W,003716.00,A,A*75
#T1:1780965431657
$GPRMC,003717.00,A,4617.00773,N,08753.27788,W,0.246,,090626,,,A*67
#T1:1780965431657
$GPVTG,,T,,M,0.246,N,0.455,K,A*27
#T1:1780965431657
$GPGGA,003717.00,4617.00773,N,08753.27788,W,1,05,2.69,448.8,M,-35.0,M,,*63
#T1:1780965431657
$GPGSA,A,3,01,03,02,32,12,,,,,,,,3.62,2.69,2.42*0E
#T1:1780965431658
$GPGSV,2,1,07,01,29,300,34,02,32,267,28,03,08,313,33,10,46,142,19*7F
#T1:1780965431658
$GPGSV,2,2,07,12,23,059,21,31,32,214,17,32,76,032,25*47
#T1:1780965431658
$GPGLL,4617.00773,N,08753.27788,W,003717.00,A,A*75
#T1:1780965432654
$GPRMC,003718.00,A,4617.00778,N,08753.27808,W,0.742,,090626,,,A*65
#T1:1780965432654
$GPVTG,,T,,M,0.742,N,1.374,K,A*23
#T1:1780965432654
$GPGGA,003718.00,4617.00778,N,08753.27808,W,1,05,2.69,448.8,M,-35.0,M,,*60
#T1:1780965432654
$GPGSA,A,3,01,03,02,32,12,,,,,,,,3.62,2.69,2.42*0E
#T1:1780965432654
$GPGSV,2,1,07,01,29,300,37,02,32,267,30,03,08,313,35,10,46,142,20*79
#T1:1780965432655
$GPGSV,2,2,07,12,23,059,23,31,32,214,19,32,76,032,26*48
#T1:1780965432655
$GPGLL,4617.00778,N,08753.27808,W,003718.00,A,A*76
#T1:1780965433655
$GPRMC,003719.00,A,4617.00811,N,08753.27834,W,0.200,,090626,,,A*68
#T1:1780965433655
$GPVTG,,T,,M,0.200,N,0.371,K,A*24
#T1:1780965433655
$GPGGA,003719.00,4617.00811,N,08753.27834,W,1,05,2.69,449.0,M,-35.0,M,,*67
#T1:1780965433656
$GPGSA,A,3,01,03,02,32,12,,,,,,,,3.62,2.69,2.42*0E
#T1:1780965433656
$GPGSV,2,1,07,01,29,300,37,02,32,267,31,03,08,313,36,10,46,142,21*7A
#T1:1780965433656
$GPGSV,2,2,07,12,23,059,25,31,32,214,21,32,76,032,27*44
#T1:1780965433657
$GPGLL,4617.00811,N,08753.27834,W,003719.00,A,A*78
#T1:1780965434655
$GPRMC,003720.00,A,4617.00814,N,08753.27856,W,0.024,,090626,,,A*67
#T1:1780965434655
$GPVTG,,T,,M,0.024,N,0.044,K,A*25
#T1:1780965434656
$GPGGA,003720.00,4617.00814,N,08753.27856,W,1,05,2.69,448.8,M,-35.0,M,,*65
#T1:1780965434656
$GPGSA,A,3,01,03,02,32,12,,,,,,,,3.62,2.69,2.42*0E
#T1:1780965434656
$GPGSV,2,1,07,01,29,300,37,02,32,267,31,03,08,313,36,10,46,142,22*79
#T1:1780965434656
$GPGSV,2,2,07,12,23,059,26,31,32,214,21,32,76,032,27*47
#T1:1780965434657
$GPGLL,4617.00814,N,08753.27856,W,003720.00,A,A*73
#T1:1780965435656
$GPRMC,003721.00,A,4617.00809,N,08753.27871,W,0.179,,090626,,,A*66
#T1:1780965435656
$GPVTG,,T,,M,0.179,N,0.331,K,A*2D
#T1:1780965435656
$GPGGA,003721.00,4617.00809,N,08753.27871,W,1,05,2.69,448.7,M,-35.0,M,,*62
#T1:1780965435657
$GPGSA,A,3,01,03,02,32,12,,,,,,,,3.62,2.69,2.42*0E
#T1:1780965435657
$GPGSV,2,1,07,01,29,300,36,02,32,267,30,03,08,313,35,10,46,142,22*7A
#T1:1780965435657
$GPGSV,2,2,07,12,23,059,26,31,32,214,21,32,76,032,27*47
#T1:1780965435657
$GPGLL,4617.00809,N,08753.27871,W,003721.00,A,A*7B
#T1:1780965436654
$GPRMC,003722.00,A,4617.00833,N,08753.27889,W,0.218,,090626,,,A*6F
#T1:1780965436654
$GPVTG,,T,,M,0.218,N,0.404,K,A*28
#T1:1780965436654
$GPGGA,003722.00,4617.00833,N,08753.27889,W,1,05,2.69,449.0,M,-35.0,M,,*69
#T1:1780965436654
$GPGSA,A,3,01,03,02,32,12,,,,,,,,3.62,2.69,2.42*0E
#T1:1780965436655
$GPGSV,2,1,07,01,29,300,37,02,32,267,31,03,08,313,36,10,46,142,22*79
#T1:1780965436655
$GPGSV,2,2,07,12,23,059,26,31,32,214,21,32,76,032,27*47
#T1:1780965436655
$GPGLL,4617.00833,N,08753.27889,W,003722.00,A,A*76
#T1:1780965437655
$GPRMC,003723.00,A,4617.00822,N,08753.27911,W,0.049,,090626,,,A*68
#T1:1780965437656
$GPVTG,,T,,M,0.049,N,0.091,K,A*26
#T1:1780965437656
$GPGGA,003723.00,4617.00822,N,08753.27911,W,1,05,2.69,449.0,M,-35.0,M,,*68
#T1:1780965437656
$GPGSA,A,3,01,03,02,32,12,,,,,,,,3.62,2.69,2.43*0F
#T1:1780965437657
$GPGSV,2,1,07,01,29,300,37,02,32,267,31,03,08,313,36,10,46,142,23*78
#T1:1780965437657
$GPGSV,2,2,07,12,23,059,27,31,32,214,21,32,76,032,27*46
#T1:1780965437657
$GPGLL,4617.00822,N,08753.27911,W,003723.00,A,A*77
#T1:1780965438654
$GPRMC,003724.00,A,4617.00800,N,08753.27932,W,0.064,,090626,,,A*61
#T1:1780965438654
$GPVTG,,T,,M,0.064,N,0.118,K,A*29
#T1:1780965438654
$GPGGA,003724.00,4617.00800,N,08753.27932,W,1,05,2.69,448.7,M,-35.0,M,,*68
#T1:1780965438654
$GPGSA,A,3,01,03,02,32,12,,,,,,,,3.62,2.69,2.43*0F
#T1:1780965438655
$GPGSV,2,1,07,01,29,300,37,02,32,267,31,03,08,313,36,10,46,142,23*78
#T1:1780965438655
$GPGSV,2,2,07,12,23,059,27,31,32,214,21,32,76,032,27*46
#T1:1780965438655
$GPGLL,4617.00800,N,08753.27932,W,003724.00,A,A*71
#T1:1780965439656
$GPRMC,003725.00,A,4617.00817,N,08753.27959,W,0.154,,090626,,,A*69
#T1:1780965439656
$GPVTG,,T,,M,0.154,N,0.285,K,A*2C
#T1:1780965439656
$GPGGA,003725.00,4617.00817,N,08753.27959,W,1,05,2.69,448.8,M,-35.0,M,,*6D
#T1:1780965439656
$GPGSA,A,3,01,03,02,32,12,,,,,,,,3.62,2.69,2.43*0F
#T1:1780965439657
$GPGSV,2,1,07,01,29,300,37,02,32,267,30,03,08,313,36,10,46,142,22*78
#T1:1780965439657
$GPGSV,2,2,07,12,23,059,28,31,32,214,21,32,76,032,26*48
#T1:1780965439657
$GPGLL,4617.00817,N,08753.27959,W,003725.00,A,A*7B
#T1:1780965440654
$GPRMC,003726.00,A,4617.00821,N,08753.27981,W,0.116,,090626,,,A*6C
#T1:1780965440654
$GPVTG,,T,,M,0.116,N,0.216,K,A*20
#T1:1780965440654
$GPGGA,003726.00,4617.00821,N,08753.27981,W,1,05,2.69,448.9,M,-35.0,M,,*6F
#T1:1780965440654
$GPGSA,A,3,01,03,02,32,12,,,,,,,,3.62,2.69,2.43*0F
#T1:1780965440655
$GPGSV,2,1,07,01,29,300,38,02,32,267,30,03,08,313,36,10,46,142,22*77
#T1:1780965440655
$GPGSV,2,2,07,12,23,059,28,31,32,214,20,32,76,032,26*49
#T1:1780965440655
$GPGLL,4617.00821,N,08753.27981,W,003726.00,A,A*78
#T1:1780965441656
$GPRMC,003727.00,A,4617.00816,N,08753.28001,W,0.132,,090626,,,A*61
#T1:1780965441656
$GPVTG,,T,,M,0.132,N,0.244,K,A*21
#T1:1780965441656
$GPGGA,003727.00,4617.00816,N,08753.28001,W,1,05,2.69,448.8,M,-35.0,M,,*65
#T1:1780965441656
$GPGSA,A,3,01,03,02,32,12,,,,,,,,3.62,2.69,2.43*0F
#T1:1780965441657
$GPGSV,2,1,07,01,29,300,38,02,32,267,31,03,08,313,36,10,46,142,22*76
#T1:1780965441657
$GPGSV,2,2,07,12,23,059,28,31,32,214,20,32,76,032,26*49
#T1:1780965441657
$GPGLL,4617.00816,N,08753.28001,W,003727.00,A,A*73
#T1:1780965442655
$GPRMC,003728.00,A,4617.00821,N,08753.28024,W,0.071,,090626,,,A*6B
#T1:1780965442655
$GPVTG,,T,,M,0.071,N,0.131,K,A*26
#T1:1780965442655
$GPGGA,003728.00,4617.00821,N,08753.28024,W,1,05,2.69,449.0,M,-35.0,M,,*60
#T1:1780965442655
$GPGSA,A,3,01,03,02,32,12,,,,,,,,3.62,2.69,2.43*0F
#T1:1780965442656
$GPGSV,2,1,07,01,29,300,38,02,32,267,30,03,08,313,36,10,46,142,21*74
#T1:1780965442656
$GPGSV,2,2,07,12,23,059,28,31,32,214,20,32,76,032,25*4A
#T1:1780965442656
$GPGLL,4617.00821,N,08753.28024,W,003728.00,A,A*7F
#T1:1780965443656
$GPRMC,003729.00,A,4617.00832,N,08753.28038,W,0.083,,090626,,,A*68
#T1:1780965443656
$GPVTG,,T,,M,0.083,N,0.154,K,A*28
#T1:1780965443656
$GPGGA,003729.00,4617.00832,N,08753.28038,W,1,05,2.68,449.2,M,-35.0,M,,*6D
#T1:1780965443656
$GPGSA,A,3,01,03,02,32,12,,,,,,,,3.62,2.68,2.43*0E
#T1:1780965443657
$GPGSV,2,1,07,01,29,300,38,02,32,267,30,03,08,313,36,10,46,142,21*74
#T1:1780965443657
$GPGSV,2,2,07,12,23,059,28,31,32,214,21,32,76,033,26*49
#T1:1780965443657
$GPGLL,4617.00832,N,08753.28038,W,003729.00,A,A*71
#T1:1780965444655
$GPRMC,003730.00,A,4617.00842,N,08753.28054,W,0.043,,090626,,,A*61
#T1:1780965444655
$GPVTG,,T,,M,0.043,N,0.080,K,A*2C
#T1:1780965444655
$GPGGA,003730.00,4617.00842,N,08753.28054,W,1,05,2.68,449.3,M,-35.0,M,,*69
#T1:1780965444655
$GPGSA,A,3,01,03,02,32,12,,,,,,,,3.62,2.68,2.43*0E
#T1:1780965444655
$GPGSV,2,1,07,01,29,300,38,02,32,267,30,03,08,313,36,10,46,142,20*75
#T1:1780965444656
$GPGSV,2,2,07,12,23,059,28,31,32,214,22,32,76,033,25*49
#T1:1780965444656
$GPGLL,4617.00842,N,08753.28054,W,003730.00,A,A*74
#T1:1780965445657
$GPRMC,003731.00,A,4617.00838,N,08753.28067,W,0.052,,090626,,,A*6D
#T1:1780965445657
$GPVTG,,T,,M,0.052,N,0.096,K,A*2B
#T1:1780965445657
$GPGGA,003731.00,4617.00838,N,08753.28067,W,1,05,2.68,449.2,M,-35.0,M,,*64
#T1:1780965445657
$GPGSA,A,3,01,03,02,32,12,,,,,,,,3.62,2.68,2.43*0E
#T1:1780965445658
$GPGSV,2,1,07,01,29,300,38,02,32,267,30,03,08,313,36,10,46,142,20*75
#T1:1780965445658
$GPGSV,2,2,07,12,23,059,28,31,32,214,22,32,76,033,25*49
#T1:1780965445658
$GPGLL,4617.00838,N,08753.28067,W,003731.00,A,A*78
#T1:1780965446654
$GPRMC,003732.00,A,4617.00840,N,08753.28079,W,0.085,,090626,,,A*64
#T1:1780965446654
$GPVTG,,T,,M,0.085,N,0.158,K,A*22
#T1:1780965446654
$GPGGA,003732.00,4617.00840,N,08753.28079,W,1,05,2.68,449.2,M,-35.0,M,,*67
#T1:1780965446655
$GPGSA,A,3,01,03,02,32,12,,,,,,,,3.62,2.68,2.43*0E
#T1:1780965446655
$GPGSV,2,1,07,01,29,300,38,02,32,267,31,03,08,313,36,10,46,142,19*7E
#T1:1780965446655
$GPGSV,2,2,07,12,23,059,28,31,32,214,23,32,76,033,25*48
#T1:1780965446655
$GPGLL,4617.00840,N,08753.28079,W,003732.00,A,A*7B
#T1:1780965447656
$GPRMC,003733.00,A,4617.00838,N,08753.28088,W,0.054,,090626,,,A*68
#T1:1780965447656
$GPVTG,,T,,M,0.054,N,0.099,K,A*22
#T1:1780965447656
$GPGGA,003733.00,4617.00838,N,08753.28088,W,1,05,2.68,449.2,M,-35.0,M,,*67
#T1:1780965447656
$GPGSA,A,3,01,03,02,32,12,,,,,,,,3.62,2.68,2.43*0E
#T1:1780965447657
$GPGSV,2,1,07,01,29,300,38,02,32,267,30,03,08,313,36,10,46,142,18*7E
#T1:1780965447657
$GPGSV,2,2,07,12,23,059,28,31,32,214,24,32,76,033,25*4F
#T1:1780965447657
$GPGLL,4617.00838,N,08753.28088,W,003733.00,A,A*7B
#T1:1780965448654
$GPRMC,003734.00,A,4617.00827,N,08753.28095,W,0.137,,090626,,,A*69
#T1:1780965448654
$GPVTG,,T,,M,0.137,N,0.253,K,A*22
#T1:1780965448654
$GPGGA,003734.00,4617.00827,N,08753.28095,W,1,05,2.68,449.1,M,-35.0,M,,*61
#T1:1780965448654
$GPGSA,A,3,01,03,02,32,12,,,,,,,,3.62,2.68,2.43*0E
#T1:1780965448655
$GPGSV,2,1,07,01,29,300,38,02,32,267,30,03,08,313,36,10,46,142,18*7E
#T1:1780965448655
$GPGSV,2,2,07,12,23,059,27,31,32,214,25,32,76,033,25*41
#T1:1780965448655
$GPGLL,4617.00827,N,08753.28095,W,003734.00,A,A*7E
#T1:1780965449656
$GPRMC,003735.00,A,4617.00815,N,08753.28103,W,0.007,,090626,,,A*65
#T1:1780965449656
$GPVTG,,T,,M,0.007,N,0.013,K,A*26
#T1:1780965449656
$GPGGA,003735.00,4617.00815,N,08753.28103,W,1,05,2.68,449.0,M,-35.0,M,,*6E
#T1:1780965449656
$GPGSA,A,3,01,03,02,32,12,,,,,,,,3.62,2.68,2.43*0E
#T1:1780965449656
$GPGSV,2,1,07,01,29,300,38,02,32,267,29,03,08,313,34,10,46,142,19*75
#T1:1780965449656
$GPGSV,2,2,07,12,23,059,28,31,32,214,25,32,76,033,25*4E
#T1:1780965449656
$GPGLL,4617.00815,N,08753.28103,W,003735.00,A,A*70
#T1:1780965450652
$GPRMC,003736.00,A,4617.00810,N,08753.28110,W,0.059,,090626,,,A*6A
#T1:1780965450652
$GPVTG,,T,,M,0.059,N,0.109,K,A*27
#T1:1780965450652
$GPGGA,003736.00,4617.00810,N,08753.28110,W,1,05,2.68,449.0,M,-35.0,M,,*6A
#T1:1780965450652
$GPGSA,A,3,01,03,02,32,12,,,,,,,,3.62,2.68,2.43*0E
#T1:1780965450653
$GPGSV,2,1,07,01,29,300,38,02,32,267,29,03,08,313,35,10,46,142,20*7E
#T1:1780965450653
$GPGSV,2,2,07,12,23,059,28,31,32,214,25,32,76,033,25*4E
#T1:1780965450653
$GPGLL,4617.00810,N,08753.28110,W,003736.00,A,A*74
#T1:1780965451656
$GPRMC,003737.00,A,4617.00780,N,08753.28111,W,0.057,,090626,,,A*62
#T1:1780965451656
$GPVTG,,T,,M,0.057,N,0.105,K,A*25
#T1:1780965451656
$GPGGA,003737.00,4617.00780,N,08753.28111,W,1,05,2.68,448.5,M,-35.0,M,,*68
#T1:1780965451656
$GPGSA,A,3,01,03,02,32,12,,,,,,,,3.62,2.68,2.43*0E
#T1:1780965451656
$GPGSV,2,1,07,01,29,300,38,02,32,267,29,03,08,313,35,10,46,142,20*7E
#T1:1780965451656
$GPGSV,2,2,07,12,23,059,27,31,32,214,26,32,76,033,25*42
#T1:1780965451656
$GPGLL,4617.00780,N,08753.28111,W,003737.00,A,A*72
#T1:1780965452653
$GPRMC,003738.00,A,4617.00762,N,08753.28115,W,0.025,,090626,,,A*60
#T1:1780965452653
$GPVTG,,T,,M,0.025,N,0.046,K,A*26
#T1:1780965452653
$GPGGA,003738.00,4617.00762,N,08753.28115,W,1,05,2.68,448.0,M,-35.0,M,,*6A
#T1:1780965452653
$GPGSA,A,3,01,03,02,32,12,,,,,,,,3.62,2.68,2.43*0E
#T1:1780965452654
$GPGSV,2,1,07,01,29,300,38,02,32,267,29,03,08,313,35,10,46,142,20*7E
#T1:1780965452654
$GPGSV,2,2,07,12,23,059,28,31,32,214,26,32,76,033,25*4D
#T1:1780965452654
$GPGLL,4617.00762,N,08753.28115,W,003738.00,A,A*75
#T1:1780965453658
$GPRMC,003739.00,A,4617.00743,N,08753.28118,W,0.078,,090626,,,A*67
#T1:1780965453658
$GPVTG,,T,,M,0.078,N,0.145,K,A*2C
#T1:1780965453658
$GPGGA,003739.00,4617.00743,N,08753.28118,W,1,05,2.68,447.7,M,-35.0,M,,*6D
#T1:1780965453659
$GPGSA,A,3,01,03,02,32,12,,,,,,,,3.62,2.68,2.43*0E
#T1:1780965453659
$GPGSV,2,1,07,01,29,300,38,02,32,267,29,03,08,313,35,10,46,142,21*7F
#T1:1780965453659
$GPGSV,2,2,07,12,23,059,28,31,32,214,26,32,76,033,25*4D
#T1:1780965453659
$GPGLL,4617.00743,N,08753.28118,W,003739.00,A,A*7A
#T1:1780965454654
$GPRMC,003740.00,A,4617.00717,N,08753.28120,W,0.171,,090626,,,A*6B
#T1:1780965454654
$GPVTG,,T,,M,0.171,N,0.317,K,A*21
#T1:1780965454654
$GPGGA,003740.00,4617.00717,N,08753.28120,W,1,05,2.68,447.3,M,-35.0,M,,*6D
#T1:1780965454654
$GPGSA,A,3,01,03,02,32,12,,,,,,,,3.62,2.68,2.43*0E
#T1:1780965454655
$GPGSV,2,1,07,01,29,300,38,02,32,267,29,03,08,313,35,10,46,142,20*7E
#T1:1780965454655
$GPGSV,2,2,07,12,23,059,28,31,32,214,26,32,76,033,24*4C
#T1:1780965454655
$GPGLL,4617.00717,N,08753.28120,W,003740.00,A,A*7E
#T1:1780965455654
$GPRMC,003741.00,A,4617.00681,N,08753.28116,W,0.138,,090626,,,A*6C
#T1:1780965455654
$GPVTG,,T,,M,0.138,N,0.256,K,A*28
#T1:1780965455655
$GPGGA,003741.00,4617.00681,N,08753.28116,W,1,05,2.68,446.5,M,-35.0,M,,*60
#T1:1780965455655
$GPGSA,A,3,01,03,02,32,12,,,,,,,,3.62,2.68,2.43*0E
#T1:1780965455655
$GPGSV,2,1,07,01,29,300,39,02,32,267,29,03,08,313,35,10,46,142,20*7F
#T1:1780965455655
$GPGSV,2,2,07,12,23,059,27,31,32,214,27,32,76,033,24*42
#T1:1780965455655
$GPGLL,4617.00681,N,08753.28116,W,003741.00,A,A*74
#T1:1780965456652
$GPRMC,003742.00,A,4617.00648,N,08753.28117,W,0.077,,090626,,,A*61
#T1:1780965456652
$GPVTG,,T,,M,0.077,N,0.143,K,A*25
#T1:1780965456652
$GPGGA,003742.00,4617.00648,N,08753.28117,W,1,05,2.68,445.8,M,-35.0,M,,*69
#T1:1780965456653
$GPGSA,A,3,01,03,02,32,12,,,,,,,,3.62,2.68,2.43*0E
#T1:1780965456653
$GPGSV,2,1,07,01,29,299,39,02,32,267,29,03,08,313,35,10,46,142,20*7E
#T1:1780965456653
$GPGSV,2,2,07,12,23,059,27,31,32,214,27,32,76,033,23*45
#T1:1780965456653
$GPGLL,4617.00648,N,08753.28117,W,003742.00,A,A*73
#T1:1780965457652
$GPRMC,003743.00,A,4617.00629,N,08753.28119,W,0.021,,090626,,,A*6A
#T1:1780965457652
$GPVTG,,T,,M,0.021,N,0.038,K,A*2B
#T1:1780965457653
$GPGGA,003743.00,4617.00629,N,08753.28119,W,1,05,2.68,445.3,M,-35.0,M,,*6A
#T1:1780965457653
$GPGSA,A,3,01,03,02,32,12,,,,,,,,3.62,2.68,2.43*0E
#T1:1780965457653
$GPGSV,2,1,07,01,29,299,39,02,32,267,30,03,08,313,36,10,46,142,20*75
#T1:1780965457653
$GPGSV,2,2,07,12,23,059,27,31,32,214,27,32,76,033,22*44
#T1:1780965457653
$GPGLL,4617.00629,N,08753.28119,W,003743.00,A,A*7B
#T1:1780965458652
$GPRMC,003744.00,A,4617.00604,N,08753.28119,W,0.103,,090626,,,A*63
#T1:1780965458652
$GPVTG,,T,,M,0.103,N,0.192,K,A*2B
#T1:1780965458652
$GPGGA,003744.00,4617.00604,N,08753.28119,W,1,05,2.68,444.7,M,-35.0,M,,*67
#T1:1780965458653
$GPGSA,A,3,01,03,02,32,12,,,,,,,,3.62,2.68,2.43*0E
#T1:1780965458653
$GPGSV,2,1,07,01,29,299,39,02,32,267,30,03,08,313,35,10,46,142,20*76
#T1:1780965458653
$GPGSV,2,2,07,12,23,059,27,31,32,214,27,32,76,033,23*45
#T1:1780965458653
$GPGLL,4617.00604,N,08753.28119,W,003744.00,A,A*73
#T1:1780965459657
$GPRMC,003745.00,A,4617.00587,N,08753.28122,W,0.230,,090626,,,A*61
#T1:1780965459657
$GPVTG,,T,,M,0.230,N,0.425,K,A*21
#T1:1780965459658
$GPGGA,003745.00,4617.00587,N,08753.28122,W,1,05,2.68,444.2,M,-35.0,M,,*63
#T1:1780965459658
$GPGSA,A,3,01,03,02,32,12,,,,,,,,3.62,2.68,2.43*0E
#T1:1780965459658
$GPGSV,2,1,07,01,29,299,39,02,32,267,30,03,08,313,35,10,46,142,20*76
#T1:1780965459658
$GPGSV,2,2,07,12,23,059,28,31,32,214,28,32,76,033,23*45
#T1:1780965459658
$GPGLL,4617.00587,N,08753.28122,W,003745.00,A,A*72
#T1:1780965460654
$GPRMC,003746.00,A,4617.00558,N,08753.28124,W,0.068,,090626,,,A*69
#T1:1780965460654
$GPVTG,,T,,M,0.068,N,0.126,K,A*28
#T1:1780965460654
$GPGGA,003746.00,4617.00558,N,08753.28124,W,1,05,2.68,443.7,M,-35.0,M,,*66
#T1:1780965460654
$GPGSA,A,3,01,03,02,32,12,,,,,,,,3.62,2.68,2.43*0E
#T1:1780965460655
$GPGSV,2,1,07,01,29,299,39,02,32,267,30,03,08,313,35,10,46,142,20*76
#T1:1780965460655
$GPGSV,2,2,07,12,23,059,27,31,32,214,28,32,76,033,22*4B
#T1:1780965460655
$GPGLL,4617.00558,N,08753.28124,W,003746.00,A,A*75
#T1:1780965461655
$GPRMC,003747.00,A,4617.00538,N,08753.28128,W,0.049,,090626,,,A*61
#T1:1780965461655
$GPVTG,,T,,M,0.049,N,0.091,K,A*26
#T1:1780965461655
$GPGGA,003747.00,4617.00538,N,08753.28128,W,1,05,2.68,443.4,M,-35.0,M,,*6E
#T1:1780965461655
$GPGSA,A,3,01,03,02,32,12,,,,,,,,3.61,2.68,2.43*0D
#T1:1780965461655
$GPGSV,2,1,07,01,29,299,39,02,32,267,29,03,08,313,35,10,46,142,20*7E
#T1:1780965461655
$GPGSV,2,2,07,12,23,059,27,31,32,214,28,32,76,033,23*4A
#T1:1780965461655
$GPGLL,4617.00538,N,08753.28128,W,003747.00,A,A*7E
#T1:1780965462653
$GPRMC,003748.00,A,4617.00530,N,08753.28132,W,0.099,,090626,,,A*60
#T1:1780965462653
$GPVTG,,T,,M,0.099,N,0.183,K,A*29
#T1:1780965462653
$GPGGA,003748.00,4617.00530,N,08753.28132,W,1,05,2.68,443.1,M,-35.0,M,,*67
#T1:1780965462653
$GPGSA,A,3,01,03,02,32,12,,,,,,,,3.61,2.68,2.43*0D
#T1:1780965462654
$GPGSV,2,1,07,01,29,299,39,02,32,267,29,03,08,313,35,10,46,142,20*7E
#T1:1780965462654
$GPGSV,2,2,07,12,23,059,27,31,32,214,29,32,76,033,23*4B
#T1:1780965462654
$GPGLL,4617.00530,N,08753.28132,W,003748.00,A,A*72
#T1:1780965463655
$GPRMC,003749.00,A,4617.00528,N,08753.28140,W,0.040,,090626,,,A*69
#T1:1780965463655
$GPVTG,,T,,M,0.040,N,0.074,K,A*24
#T1:1780965463655
$GPGGA,003749.00,4617.00528,N,08753.28140,W,1,05,2.68,442.9,M,-35.0,M,,*63
#T1:1780965463655
$GPGSA,A,3,01,03,02,32,12,,,,,,,,3.61,2.68,2.43*0D
#T1:1780965463656
$GPGSV,2,1,07,01,29,299,39,02,32,267,29,03,08,313,35,10,46,143,21*7E
#T1:1780965463656
$GPGSV,2,2,07,12,23,059,27,31,32,214,29,32,76,033,24*4C
#T1:1780965463656
$GPGLL,4617.00528,N,08753.28140,W,003749.00,A,A*7F
#T1:1780965464654
$GPRMC,003750.00,A,4617.00516,N,08753.28142,W,0.076,,090626,,,A*6B
#T1:1780965464654
$GPVTG,,T,,M,0.076,N,0.140,K,A*27
#T1:1780965464654
$GPGGA,003750.00,4617.00516,N,08753.28142,W,1,05,2.67,442.5,M,-35.0,M,,*67
#T1:1780965464655
$GPGSA,A,3,01,03,02,32,12,,,,,,,,3.61,2.67,2.43*02
#T1:1780965464655
$GPGSV,2,1,07,01,29,299,39,02,32,267,29,03,08,313,35,10,46,143,21*7E
#T1:1780965464655
$GPGSV,2,2,07,12,23,059,27,31,32,214,29,32,76,033,23*4B
#T1:1780965464655
$GPGLL,4617.00516,N,08753.28142,W,003750.00,A,A*78
#T1:1780965465655
$GPRMC,003751.00,A,4617.00509,N,08753.28139,W,0.272,,090626,,,A*6E
#T1:1780965465655
$GPVTG,,T,,M,0.272,N,0.504,K,A*25
#T1:1780965465655
$GPGGA,003751.00,4617.00509,N,08753.28139,W,1,05,2.67,442.3,M,-35.0,M,,*62
#T1:1780965465655
$GPGSA,A,3,01,03,02,32,12,,,,,,,,3.61,2.67,2.43*02
#T1:1780965465656
$GPGSV,2,1,07,01,29,299,39,02,32,267,29,03,08,313,35,10,46,143,21*7E
#T1:1780965465656
$GPGSV,2,2,07,12,23,059,26,31,32,214,29,32,76,033,23*4A
#T1:1780965465656
$GPGLL,4617.00509,N,08753.28139,W,003751.00,A,A*7B
#T1:1780965466655
$GPRMC,003752.00,A,4617.00500,N,08753.28137,W,0.041,,090626,,,A*68
#T1:1780965466655
$GPVTG,,T,,M,0.041,N,0.076,K,A*27
#T1:1780965466655
$GPGGA,003752.00,4617.00500,N,08753.28137,W,1,05,2.67,441.9,M,-35.0,M,,*6F
#T1:1780965466655
$GPGSA,A,3,01,03,02,32,12,,,,,,,,3.61,2.67,2.43*02
#T1:1780965466656
$GPGSV,2,1,07,01,29,299,39,02,32,267,30,03,08,313,35,10,46,143,22*75
#T1:1780965466656
$GPGSV,2,2,07,12,23,059,26,31,32,214,29,32,76,033,23*4A
#T1:1780965466656
$GPGLL,4617.00500,N,08753.28137,W,003752.00,A,A*7F
#T1:1780965467655
$GPRMC,003753.00,A,4617.00491,N,08753.28135,W,0.121,,090626,,,A*65
#T1:1780965467655
$GPVTG,,T,,M,0.121,N,0.225,K,A*24
#T1:1780965467655
$GPGGA,003753.00,4617.00491,N,08753.28135,W,1,05,2.67,441.9,M,-35.0,M,,*65
#T1:1780965467655
$GPGSA,A,3,01,03,02,32,12,,,,,,,,3.61,2.67,2.43*02
#T1:1780965467656
$GPGSV,2,1,07,01,29,299,39,02,32,267,30,03,08,313,35,10,46,143,22*75
#T1:1780965467656
$GPGSV,2,2,07,12,23,059,25,31,32,214,29,32,76,033,22*48
#T1:1780965467656
$GPGLL,4617.00491,N,08753.28135,W,003753.00,A,A*75
#T1:1780965468651
$GPRMC,003754.00,A,4617.00467,N,08753.28133,W,0.013,,090626,,,A*6D
#T1:1780965468651
$GPVTG,,T,,M,0.013,N,0.024,K,A*27
#T1:1780965468652
$GPGGA,003754.00,4617.00467,N,08753.28133,W,1,05,2.67,441.3,M,-35.0,M,,*67
#T1:1780965468652
$GPGSA,A,3,01,03,02,32,12,,,,,,,,3.61,2.67,2.43*02
#T1:1780965468652
$GPGSV,2,1,07,01,29,299,39,02,32,267,30,03,08,313,35,10,46,143,22*75
#T1:1780965468655
$GPGSV,2,2,07,12,23,059,25,31,32,214,29,32,76,033,22*48
#T1:1780965468655
$GPGLL,4617.00467,N,08753.28133,W,003754.00,A,A*7D
#T1:1780965469655
$GPRMC,003755.00,A,4617.00451,N,08753.28130,W,0.123,,090626,,,A*68
#T1:1780965469655
$GPVTG,,T,,M,0.123,N,0.227,K,A*24
#T1:1780965469655
$GPGGA,003755.00,4617.00451,N,08753.28130,W,1,05,2.67,440.7,M,-35.0,M,,*65
#T1:1780965469655
$GPGSA,A,3,01,03,02,32,12,,,,,,,,3.61,2.67,2.43*02
#T1:1780965469655
$GPGSV,2,1,07,01,29,299,39,02,32,267,31,03,08,313,35,10,46,143,21*77
#T1:1780965469656
$GPGSV,2,2,07,12,23,059,25,31,32,214,29,32,76,033,23*49
#T1:1780965469656
$GPGLL,4617.00451,N,08753.28130,W,003755.00,A,A*7A
#T1:1780965470653
$GPRMC,003756.00,A,4617.00454,N,08753.28129,W,0.021,,090626,,,A*65
#T1:1780965470653
$GPVTG,,T,,M,0.021,N,0.038,K,A*2B
#T1:1780965470653
$GPGGA,003756.00,4617.00454,N,08753.28129,W,1,05,2.67,440.6,M,-35.0,M,,*6A
#T1:1780965470653
$GPGSA,A,3,01,03,02,32,12,,,,,,,,3.61,2.67,2.43*02
#T1:1780965470654
$GPGSV,2,1,07,01,29,299,39,02,32,267,31,03,08,313,35,10,46,143,21*77
#T1:1780965470654
$GPGSV,2,2,07,12,23,059,25,31,32,214,29,32,75,033,24*4D
#T1:1780965470654
$GPGLL,4617.00454,N,08753.28129,W,003756.00,A,A*74
#T1:1780965471654
$GPRMC,003757.00,A,4617.00442,N,08753.28128,W,0.125,,090626,,,A*67
#T1:1780965471654
$GPVTG,,T,,M,0.125,N,0.232,K,A*26
#T1:1780965471654
$GPGGA,003757.00,4617.00442,N,08753.28128,W,1,05,2.67,440.3,M,-35.0,M,,*68
#T1:1780965471654
$GPGSA,A,3,01,03,02,32,12,,,,,,,,3.61,2.67,2.43*02
#T1:1780965471655
$GPGSV,2,1,07,01,29,299,39,02,32,267,31,03,08,313,35,10,46,143,21*77
#T1:1780965471655
$GPGSV,2,2,07,12,23,059,25,31,32,214,29,32,75,033,24*4D
#T1:1780965471655
$GPGLL,4617.00442,N,08753.28128,W,003757.00,A,A*73
#T1:1780965472653
$GPRMC,003758.00,A,4617.00447,N,08753.28127,W,0.070,,090626,,,A*63
#T1:1780965472653
$GPVTG,,T,,M,0.070,N,0.130,K,A*26
#T1:1780965472653
$GPGGA,003758.00,4617.00447,N,08753.28127,W,1,05,2.67,440.3,M,-35.0,M,,*6D
#T1:1780965472653
$GPGSA,A,3,01,03,02,32,12,,,,,,,,3.61,2.67,2.43*02
#T1:1780965472654
$GPGSV,2,1,07,01,29,299,39,02,32,267,31,03,08,313,35,10,46,143,21*77
#T1:1780965472654
$GPGSV,2,2,07,12,23,059,25,31,32,214,29,32,75,033,25*4C
#T1:1780965472654
$GPGLL,4617.00447,N,08753.28127,W,003758.00,A,A*76
#T1:1780965473653
$GPRMC,003759.00,A,4617.00444,N,08753.28125,W,0.080,,090626,,,A*6C
#T1:1780965473653
$GPVTG,,T,,M,0.080,N,0.149,K,A*27
#T1:1780965473654
$GPGGA,003759.00,4617.00444,N,08753.28125,W,1,05,2.67,440.1,M,-35.0,M,,*6F
#T1:1780965473654
$GPGSA,A,3,01,03,02,32,12,,,,,,,,3.61,2.67,2.43*02
#T1:1780965473654
$GPGSV,2,1,07,01,29,299,39,02,32,267,32,03,08,313,35,10,46,143,22*77
#T1:1780965473654
$GPGSV,2,2,07,12,23,059,25,31,32,214,29,32,75,033,25*4C
#T1:1780965473654
$GPGLL,4617.00444,N,08753.28125,W,003759.00,A,A*76
#T1:1780965474652
$GPRMC,003800.00,A,4617.00456,N,08753.28129,W,0.077,,090626,,,A*68
#T1:1780965474652
$GPVTG,,T,,M,0.077,N,0.142,K,A*24
#T1:1780965474652
$GPGGA,003800.00,4617.00456,N,08753.28129,W,1,05,2.67,440.2,M,-35.0,M,,*60
#T1:1780965474653
$GPGSA,A,3,01,03,02,32,12,,,,,,,,3.61,2.67,2.43*02
#T1:1780965474653
$GPGSV,2,1,07,01,29,299,38,02,32,267,31,03,08,313,34,10,46,143,21*77
#T1:1780965474653
$GPGSV,2,2,07,12,23,059,25,31,32,214,29,32,75,033,24*4D
#T1:1780965474653
$GPGLL,4617.00456,N,08753.28129,W,003800.00,A,A*7A
#T1:1780965475654
$GPRMC,003801.00,A,4617.00483,N,08753.28130,W,0.039,,090626,,,A*63
#T1:1780965475654
$GPVTG,,T,,M,0.039,N,0.071,K,A*2F
#T1:1780965475654
$GPGGA,003801.00,4617.00483,N,08753.28130,W,1,05,2.67,440.5,M,-35.0,M,,*66
#T1:1780965475654
$GPGSA,A,3,01,03,02,32,12,,,,,,,,3.61,2.67,2.43*02
#T1:1780965475655
$GPGSV,2,1,07,01,29,299,39,02,32,267,31,03,08,313,35,10,46,143,21*77
#T1:1780965475655
$GPGSV,2,2,07,12,23,059,25,31,32,214,29,32,75,033,24*4D
#T1:1780965475655
$GPGLL,4617.00483,N,08753.28130,W,003801.00,A,A*7B
#T1:1780965476652
$GPRMC,003802.00,A,4617.00497,N,08753.28131,W,0.030,,090626,,,A*6D
#T1:1780965476652
$GPVTG,,T,,M,0.030,N,0.055,K,A*20
#T1:1780965476653
$GPGGA,003802.00,4617.00497,N,08753.28131,W,1,05,2.67,440.5,M,-35.0,M,,*61
#T1:1780965476653
$GPGSA,A,3,01,03,02,32,12,,,,,,,,3.61,2.67,2.43*02
#T1:1780965476653
$GPGSV,2,1,07,01,29,299,39,02,32,267,31,03,08,313,34,10,46,143,21*76
#T1:1780965476653
$GPGSV,2,2,07,12,23,059,25,31,32,214,29,32,75,033,24*4D
#T1:1780965476653
$GPGLL,4617.00497,N,08753.28131,W,003802.00,A,A*7C
#T1:1780965477662
$GPRMC,003803.00,A,4617.00515,N,08753.28140,W,0.251,,090626,,,A*64
#T1:1780965477662
$GPVTG,,T,,M,0.251,N,0.465,K,A*22
#T1:1780965477663
$GPGGA,003803.00,4617.00515,N,08753.28140,W,1,06,1.26,440.4,M,-35.0,M,,*69
#T1:1780965477663
$GPGSA,A,3,01,03,02,31,32,12,,,,,,,2.29,1.26,1.91*07
#T1:1780965477663
$GPGSV,2,1,07,01,29,299,39,02,32,267,32,03,08,313,34,10,46,143,21*75
#T1:1780965477663
$GPGSV,2,2,07,12,23,059,25,31,32,214,29,32,75,033,24*4D
#T1:1780965477663
$GPGLL,4617.00515,N,08753.28140,W,003803.00,A,A*70
#T1:1780965478654
$GPRMC,003804.00,A,4617.00529,N,08753.28143,W,0.058,,090626,,,A*64
#T1:1780965478654
$GPVTG,,T,,M,0.058,N,0.108,K,A*27
#T1:1780965478654
$GPGGA,003804.00,4617.00529,N,08753.28143,W,1,06,1.26,440.4,M,-35.0,M,,*62
#T1:1780965478654
$GPGSA,A,3,01,03,02,31,32,12,,,,,,,2.29,1.26,1.91*07
#T1:1780965478655
$GPGSV,2,1,07,01,29,299,39,02,32,267,31,03,08,313,34,10,46,143,21*76
#T1:1780965478655
$GPGSV,2,2,07,12,23,059,25,31,32,214,28,32,75,033,24*4C
#T1:1780965478655
$GPGLL,4617.00529,N,08753.28143,W,003804.00,A,A*7B
#T1:1780965479653
$GPRMC,003805.00,A,4617.00535,N,08753.28141,W,0.122,,090626,,,A*66
#T1:1780965479653
$GPVTG,,T,,M,0.122,N,0.226,K,A*24
#T1:1780965479653
$GPGGA,003805.00,4617.00535,N,08753.28141,W,1,06,1.26,440.3,M,-35.0,M,,*6B
#T1:1780965479653
$GPGSA,A,3,01,03,02,31,32,12,,,,,,,2.29,1.26,1.92*04
#T1:1780965479654
$GPGSV,2,1,07,01,29,299,39,02,32,267,32,03,08,313,34,10,46,143,22*76
#T1:1780965479654
$GPGSV,2,2,07,12,23,059,24,31,32,214,28,32,75,033,24*4D
#T1:1780965479654
$GPGLL,4617.00535,N,08753.28141,W,003805.00,A,A*75
#T1:1780965480656
$GPRMC,003806.00,A,4617.00528,N,08753.28144,W,0.198,,090626,,,A*6D
#T1:1780965480656
$GPVTG,,T,,M,0.198,N,0.366,K,A*20
#T1:1780965480657
$GPGGA,003806.00,4617.00528,N,08753.28144,W,1,06,1.26,439.6,M,-35.0,M,,*6A
#T1:1780965480657
$GPGSA,A,3,01,03,02,31,32,12,,,,,,,2.29,1.26,1.92*04
#T1:1780965480657
$GPGSV,2,1,07,01,29,299,39,02,32,267,32,03,08,313,34,10,46,143,21*75
#T1:1780965480657
$GPGSV,2,2,07,12,23,059,24,31,32,214,28,32,75,033,24*4D
#T1:1780965480657
$GPGLL,4617.00528,N,08753.28144,W,003806.00,A,A*7F
#T1:1780965481656
$GPRMC,003807.00,A,4617.00518,N,08753.28146,W,0.357,,090626,,,A*6C
#T1:1780965481656
$GPVTG,,T,,M,0.357,N,0.661,K,A*23
#T1:1780965481656
$GPGGA,003807.00,4617.00518,N,08753.28146,W,1,06,1.26,439.1,M,-35.0,M,,*6D
#T1:1780965481656
$GPGSA,A,3,01,03,02,31,32,12,,,,,,,2.29,1.26,1.92*04
#T1:1780965481657
$GPGSV,2,1,07,01,29,299,39,02,32,267,32,03,08,313,34,10,46,143,20*74
#T1:1780965481657
$GPGSV,2,2,07,12,23,059,22,31,32,214,28,32,75,033,23*4C
#T1:1780965481657
$GPGLL,4617.00518,N,08753.28146,W,003807.00,A,A*7F
#T1:1780965482653
$GPRMC,003808.00,A,4617.00510,N,08753.28158,W,0.561,,090626,,,A*67
#T1:1780965482653
$GPVTG,,T,,M,0.561,N,1.040,K,A*24
#T1:1780965482654
$GPGGA,003808.00,4617.00510,N,08753.28158,W,1,06,1.26,438.8,M,-35.0,M,,*6D
#T1:1780965482654
$GPGSA,A,3,01,03,02,31,32,12,,,,,,,2.29,1.26,1.92*04
#T1:1780965482654
$GPGSV,2,1,07,01,29,299,39,02,32,267,32,03,08,313,34,10,46,143,20*74
#T1:1780965482654
$GPGSV,2,2,07,12,23,059,22,31,32,214,29,32,75,033,23*4D
#T1:1780965482654
$GPGLL,4617.00510,N,08753.28158,W,003808.00,A,A*77
#T1:1780965483654
$GPRMC,003809.00,A,4617.00502,N,08753.28162,W,0.096,,090626,,,A*61
#T1:1780965483654
$GPVTG,,T,,M,0.096,N,0.178,K,A*22
#T1:1780965483654
$GPGGA,003809.00,4617.00502,N,08753.28162,W,1,06,1.26,438.3,M,-35.0,M,,*6D
#T1:1780965483655
$GPGSA,A,3,01,03,02,31,32,12,,,,,,,2.29,1.26,1.92*04
#T1:1780965483655
$GPGSV,2,1,07,01,29,299,39,02,32,267,32,03,08,313,34,10,46,143,20*74
#T1:1780965483655
$GPGSV,2,2,07,12,23,059,22,31,32,214,28,32,75,033,23*4C
#T1:1780965483655
$GPGLL,4617.00502,N,08753.28162,W,003809.00,A,A*7C
#T1:1780965484654
$GPRMC,003810.00,A,4617.00511,N,08753.28150,W,0.188,,090626,,,A*64
#T1:1780965484654
$GPVTG,,T,,M,0.188,N,0.348,K,A*2D
#T1:1780965484654
$GPGGA,003810.00,4617.00511,N,08753.28150,W,1,06,1.26,438.4,M,-35.0,M,,*61
#T1:1780965484654
$GPGSA,A,3,01,03,02,31,32,12,,,,,,,2.30,1.26,1.92*0C
#T1:1780965484654
$GPGSV,2,1,07,01,29,299,37,02,32,267,31,03,08,313,34,10,46,143,20*79
#T1:1780965484655
$GPGSV,2,2,07,12,23,059,21,31,32,214,28,32,75,033,23*4F
#T1:1780965484655
$GPGLL,4617.00511,N,08753.28150,W,003810.00,A,A*77
#T1:1780965485657
$GPRMC,003811.00,A,4617.00512,N,08753.28128,W,0.053,,090626,,,A*6E
#T1:1780965485657
$GPVTG,,T,,M,0.053,N,0.098,K,A*24
#T1:1780965485657
$GPGGA,003811.00,4617.00512,N,08753.28128,W,1,06,1.26,438.2,M,-35.0,M,,*6A
#T1:1780965485657
$GPGSA,A,3,01,03,02,31,32,12,,,,,,,2.30,1.26,1.92*0C
#T1:1780965485657
$GPGSV,2,1,07,01,29,299,39,02,32,267,31,03,08,313,34,10,46,143,19*7D
#T1:1780965485657
$GPGSV,2,2,07,12,23,059,21,31,32,214,28,32,75,033,23*4F
#T1:1780965485658
$GPGLL,4617.00512,N,08753.28128,W,003811.00,A,A*7A
#T1:1780965486653
$GPRMC,003812.00,A,4617.00515,N,08753.28120,W,0.315,,090626,,,A*63
#T1:1780965486653
$GPVTG,,T,,M,0.315,N,0.584,K,A*2D
#T1:1780965486653
$GPGGA,003812.00,4617.00515,N,08753.28120,W,1,06,1.26,438.3,M,-35.0,M,,*67
#T1:1780965486653
$GPGSA,A,3,01,03,02,31,32,12,,,,,,,2.30,1.26,1.92*0C
#T1:1780965486654
$GPGSV,2,1,07,01,29,299,39,02,32,267,31,03,08,313,35,10,46,143,20*76
#T1:1780965486654
$GPGSV,2,2,07,12,23,059,21,31,32,214,28,32,75,033,23*4F
#T1:1780965486654
$GPGLL,4617.00515,N,08753.28120,W,003812.00,A,A*76
#T1:1780965487658
$GPRMC,003813.00,A,4617.00518,N,08753.28132,W,0.524,,090626,,,A*68
#T1:1780965487658
$GPVTG,,T,,M,0.524,N,0.971,K,A*2F
#T1:1780965487658
$GPGGA,003813.00,4617.00518,N,08753.28132,W,1,06,1.26,438.3,M,-35.0,M,,*68
#T1:1780965487658
$GPGSA,A,3,01,03,02,31,32,12,,,,,,,2.30,1.26,1.92*0C
#T1:1780965487658
$GPGSV,2,1,07,01,29,299,39,02,32,267,31,03,08,313,34,10,46,143,19*7D
#T1:1780965487659
$GPGSV,2,2,07,12,23,059,21,31,32,214,28,32,75,033,24*48
#T1:1780965487659
$GPGLL,4617.00518,N,08753.28132,W,003813.00,A,A*79
#T1:1780965488656
$GPRMC,003814.00,A,4617.00524,N,08753.28123,W,0.210,,090626,,,A*60
#T1:1780965488656
$GPVTG,,T,,M,0.210,N,0.390,K,A*2A
#T1:1780965488656
$GPGGA,003814.00,4617.00524,N,08753.28123,W,1,06,1.26,438.6,M,-35.0,M,,*65
#T1:1780965488656
$GPGSA,A,3,01,03,02,31,32,12,,,,,,,2.30,1.26,1.92*0C
#T1:1780965488657
$GPGSV,2,1,07,01,29,299,38,02,32,267,31,03,08,313,34,10,46,143,18*7D
#T1:1780965488657
$GPGSV,2,2,07,12,23,059,21,31,32,214,28,32,75,033,24*48
#T1:1780965488657
$GPGLL,4617.00524,N,08753.28123,W,003814.00,A,A*71
#T1:1780965489660
$GPRMC,003815.00,A,4617.00530,N,08753.28115,W,0.207,,090626,,,A*67
#T1:1780965489660
$GPVTG,,T,,M,0.207,N,0.383,K,A*2E
#T1:1780965489661
$GPGGA,003815.00,4617.00530,N,08753.28115,W,1,06,1.26,438.7,M,-35.0,M,,*65
#T1:1780965489661
$GPGSA,A,3,01,03,02,31,32,12,,,,,,,2.30,1.26,1.92*0C
#T1:1780965489661
$GPGSV,2,1,07,01,29,299,38,02,32,267,31,03,08,313,34,10,46,143,18*7D
#T1:1780965489661
$GPGSV,2,2,07,12,23,058,21,31,32,214,28,32,75,033,24*49
#T1:1780965489661
$GPGLL,4617.00530,N,08753.28115,W,003815.00,A,A*70
#T1:1780965490656
$GPRMC,003816.00,A,4617.00535,N,08753.28095,W,0.043,,090626,,,A*6A
#T1:1780965490656
$GPVTG,,T,,M,0.043,N,0.080,K,A*2C
#T1:1780965490656
$GPGGA,003816.00,4617.00535,N,08753.28095,W,1,06,1.26,438.9,M,-35.0,M,,*64
#T1:1780965490656
$GPGSA,A,3,01,03,02,31,32,12,,,,,,,2.30,1.26,1.92*0C
#T1:1780965490657
$GPGSV,2,1,07,01,29,299,39,02,32,267,32,03,08,313,34,10,46,143,19*7E
#T1:1780965490657
$GPGSV,2,2,07,12,23,058,20,31,32,214,28,32,75,033,24*48
#T1:1780965490657
$GPGLL,4617.00535,N,08753.28095,W,003816.00,A,A*7F
#T1:1780965491657
$GPRMC,003817.00,A,4617.00539,N,08753.28093,W,0.151,,090626,,,A*63
#T1:1780965491657
$GPVTG,,T,,M,0.151,N,0.279,K,A*2A
#T1:1780965491657
$GPGGA,003817.00,4617.00539,N,08753.28093,W,1,06,1.26,439.0,M,-35.0,M,,*67
#T1:1780965491657
$GPGSA,A,3,01,03,02,31,32,12,,,,,,,2.30,1.26,1.92*0C
#T1:1780965491658
$GPGSV,2,1,07,01,29,299,39,02,32,267,31,03,08,313,34,10,46,143,19*7D
#T1:1780965491658
$GPGSV,2,2,07,12,23,058,20,31,32,214,28,32,75,033,25*49
#T1:1780965491658
$GPGLL,4617.00539,N,08753.28093,W,003817.00,A,A*74
#T1:1780965492652
$GPRMC,003818.00,A,4617.00539,N,08753.28078,W,0.456,,090626,,,A*6B
#T1:1780965492652
$GPVTG,,T,,M,0.456,N,0.844,K,A*2C
#T1:1780965492652
$GPGGA,003818.00,4617.00539,N,08753.28078,W,1,06,1.26,438.9,M,-35.0,M,,*65
#T1:1780965492653
$GPGSA,A,3,01,03,02,31,32,12,,,,,,,2.30,1.26,1.92*0C
#T1:1780965492653
$GPGSV,2,1,07,01,29,299,38,02,32,267,32,03,08,313,34,10,46,143,19*7F
#T1:1780965492653
$GPGSV,2,2,07,12,23,058,19,31,32,214,28,32,75,033,25*43
#T1:1780965492653
$GPGLL,4617.00539,N,08753.28078,W,003818.00,A,A*7E
#T1:1780965493658
$GPRMC,003819.00,A,4617.00533,N,08753.28063,W,0.080,,090626,,,A*65
#T1:1780965493658
$GPVTG,,T,,M,0.080,N,0.148,K,A*26
#T1:1780965493659
$GPGGA,003819.00,4617.00533,N,08753.28063,W,1,06,1.26,438.7,M,-35.0,M,,*6A
#T1:1780965493659
$GPGSA,A,3,01,03,02,31,32,12,,,,,,,2.30,1.26,1.92*0C
#T1:1780965493660
$GPGSV,2,1,07,01,29,299,39,02,32,267,32,03,08,313,34,10,46,143,19*7E
#T1:1780965493660
$GPGSV,2,2,07,12,23,058,20,31,32,214,28,32,75,033,25*49
#T1:1780965493660
$GPGLL,4617.00533,N,08753.28063,W,003819.00,A,A*7F
#T1:1780965494654
$GPRMC,003820.00,A,4617.00527,N,08753.28056,W,0.474,,090626,,,A*63
#T1:1780965494654
$GPVTG,,T,,M,0.474,N,0.877,K,A*2C
#T1:1780965494655
$GPGGA,003820.00,4617.00527,N,08753.28056,W,1,06,1.26,438.5,M,-35.0,M,,*61
#T1:1780965494655
$GPGSA,A,3,01,03,02,31,32,12,,,,,,,2.30,1.26,1.92*0C
#T1:1780965494655
$GPGSV,2,1,07,01,29,299,39,02,32,267,32,03,08,313,34,10,46,143,19*7E
#T1:1780965494655
$GPGSV,2,2,07,12,23,058,19,31,32,214,27,32,75,033,25*4C
#T1:1780965494656
$GPGLL,4617.00527,N,08753.28056,W,003820.00,A,A*76
#T1:1780965495657
$GPRMC,003821.00,A,4617.00518,N,08753.28060,W,0.403,,090626,,,A*6B
#T1:1780965495657
$GPVTG,,T,,M,0.403,N,0.746,K,A*21
#T1:1780965495657
$GPGGA,003821.00,4617.00518,N,08753.28060,W,1,06,1.26,438.2,M,-35.0,M,,*6E
#T1:1780965495658
$GPGSA,A,3,01,03,02,31,32,12,,,,,,,2.30,1.26,1.92*0C
#T1:1780965495659
$GPGSV,2,1,07,01,29,299,39,02,32,267,32,03,08,313,33,10,46,143,19*79
#T1:1780965495659
$GPGSV,2,2,07,12,23,058,20,31,32,214,28,32,75,033,25*49
#T1:1780965495659
$GPGLL,4617.00518,N,08753.28060,W,003821.00,A,A*7E
#T1:1780965496654
$GPRMC,003822.00,A,4617.00510,N,08753.28046,W,0.254,,090626,,,A*60
#T1:1780965496654
$GPVTG,,T,,M,0.254,N,0.471,K,A*22
#T1:1780965496654
$GPGGA,003822.00,4617.00510,N,08753.28046,W,1,06,1.26,437.9,M,-35.0,M,,*65
#T1:1780965496655
$GPGSA,A,3,01,03,02,31,32,12,,,,,,,2.30,1.26,1.92*0C
#T1:1780965496655
$GPGSV,2,1,07,01,29,299,39,02,32,267,32,03,08,313,34,10,46,143,19*7E
#T1:1780965496655
$GPGSV,2,2,07,12,23,058,21,31,33,214,27,32,75,033,25*46
#T1:1780965496655
$GPGLL,4617.00510,N,08753.28046,W,003822.00,A,A*71
#T1:1780965497653
$GPRMC,003823.00,A,4617.00497,N,08753.28019,W,0.235,,090626,,,A*62
#T1:1780965497653
$GPVTG,,T,,M,0.235,N,0.435,K,A*25
#T1:1780965497654
$GPGGA,003823.00,4617.00497,N,08753.28019,W,1,06,1.26,437.3,M,-35.0,M,,*6A
#T1:1780965497654
$GPGSA,A,3,01,03,02,31,32,12,,,,,,,2.30,1.26,1.92*0C
#T1:1780965497654
$GPGSV,2,1,07,01,29,299,39,02,32,267,31,03,08,313,34,10,46,143,19*7D
#T1:1780965497654
$GPGSV,2,2,07,12,23,058,22,31,33,214,27,32,75,034,25*42
#T1:1780965497655
$GPGLL,4617.00497,N,08753.28019,W,003823.00,A,A*74
#T1:1780965498654
$GPRMC,003824.00,A,4617.00489,N,08753.28001,W,0.128,,090626,,,A*6C
#T1:1780965498654
$GPVTG,,T,,M,0.128,N,0.237,K,A*2E
#T1:1780965498655
$GPGGA,003824.00,4617.00489,N,08753.28001,W,1,06,1.26,436.9,M,-35.0,M,,*60
#T1:1780965498655
$GPGSA,A,3,01,03,02,31,32,12,,,,,,,2.30,1.26,1.92*0C
#T1:1780965498655
$GPGSV,2,1,07,01,29,299,39,02,32,267,30,03,08,313,34,10,46,143,18*7D
#T1:1780965498655
$GPGSV,2,2,07,12,23,058,22,31,33,214,27,32,75,034,25*42
#T1:1780965498655
$GPGLL,4617.00489,N,08753.28001,W,003824.00,A,A*75
#T1:1780965499656
$GPRMC,003825.00,A,4617.00474,N,08753.28007,W,0.330,,090626,,,A*62
#T1:1780965499656
$GPVTG,,T,,M,0.330,N,0.611,K,A*25
#T1:1780965499656
$GPGGA,003825.00,4617.00474,N,08753.28007,W,1,06,1.26,436.6,M,-35.0,M,,*6A
#T1:1780965499656
$GPGSA,A,3,01,03,02,31,32,12,,,,,,,2.30,1.26,1.92*0C
#T1:1780965499656
$GPGSV,2,1,07,01,29,299,39,02,32,267,30,03,08,313,34,10,46,143,16*73
#T1:1780965499656
$GPGSV,2,2,07,12,23,058,23,31,33,214,27,32,75,034,25*43
#T1:1780965499657
$GPGLL,4617.00474,N,08753.28007,W,003825.00,A,A*70
#T1:1780965500652
$GPRMC,003826.00,A,4617.00466,N,08753.28012,W,0.102,,090626,,,A*65
#T1:1780965500652
$GPVTG,,T,,M,0.102,N,0.189,K,A*20
#T1:1780965500652
$GPGGA,003826.00,4617.00466,N,08753.28012,W,1,06,1.26,436.4,M,-35.0,M,,*6C
#T1:1780965500653
$GPGSA,A,3,01,03,02,31,32,12,,,,,,,2.30,1.26,1.92*0C
#T1:1780965500653
$GPGSV,2,1,07,01,29,299,39,02,32,267,30,03,08,313,34,10,46,143,14*71
#T1:1780965500653
$GPGSV,2,2,07,12,23,058,23,31,33,214,27,32,75,034,24*42
#T1:1780965500653
$GPGLL,4617.00466,N,08753.28012,W,003826.00,A,A*74
#T1:1780965501654
$GPRMC,003827.00,A,4617.00454,N,08753.28004,W,0.220,,090626,,,A*61
#T1:1780965501654
$GPVTG,,T,,M,0.220,N,0.407,K,A*20
#T1:1780965501655
$GPGGA,003827.00,4617.00454,N,08753.28004,W,1,06,1.26,436.0,M,-35.0,M,,*6F
#T1:1780965501655
$GPGSA,A,3,01,03,02,31,32,12,,,,,,,2.30,1.26,1.92*0C
#T1:1780965501655
$GPGSV,2,1,07,01,29,299,39,02,32,267,30,03,08,313,34,10,46,143,12*77
#T1:1780965501655
$GPGSV,2,2,07,12,23,058,24,31,33,214,27,32,75,034,24*45
#T1:1780965501655
$GPGLL,4617.00454,N,08753.28004,W,003827.00,A,A*73
#T1:1780965502653
$GPRMC,003828.00,A,4617.00445,N,08753.27997,W,0.105,,090626,,,A*66
#T1:1780965502653
$GPVTG,,T,,M,0.105,N,0.195,K,A*2A
#T1:1780965502653
$GPGGA,003828.00,4617.00445,N,08753.27997,W,1,06,1.26,435.6,M,-35.0,M,,*69
#T1:1780965502653
$GPGSA,A,3,01,03,02,31,32,12,,,,,,,2.30,1.26,1.92*0C
#T1:1780965502654
$GPGSV,2,1,07,01,29,299,39,02,32,267,30,03,08,313,34,10,46,143,11*74
#T1:1780965502654
$GPGSV,2,2,07,12,23,058,24,31,33,214,27,32,75,034,24*45
#T1:1780965502654
$GPGLL,4617.00445,N,08753.27997,W,003828.00,A,A*70
#T1:1780965503654
$GPRMC,003829.00,A,4617.00442,N,08753.28006,W,0.412,,090626,,,A*6D
#T1:1780965503655
$GPVTG,,T,,M,0.412,N,0.763,K,A*26
#T1:1780965503655
$GPGGA,003829.00,4617.00442,N,08753.28006,W,1,06,1.26,435.6,M,-35.0,M,,*61
#T1:1780965503655
$GPGSA,A,3,01,03,02,31,32,12,,,,,,,2.30,1.26,1.93*0D
#T1:1780965503655
$GPGSV,2,1,07,01,29,299,39,02,32,267,30,03,08,313,34,10,46,143,11*74
#T1:1780965503655
$GPGSV,2,2,07,12,23,058,24,31,33,214,26,32,75,034,24*44
#T1:1780965503656
$GPGLL,4617.00442,N,08753.28006,W,003829.00,A,A*78
#T1:1780965504652
$GPRMC,003830.00,A,4617.00441,N,08753.28000,W,0.551,,090626,,,A*66
#T1:1780965504652
$GPVTG,,T,,M,0.551,N,1.020,K,A*21
#T1:1780965504652
$GPGGA,003830.00,4617.00441,N,08753.28000,W,1,06,1.26,436.0,M,-35.0,M,,*69
#T1:1780965504652
$GPGSA,A,3,01,03,02,31,32,12,,,,,,,2.30,1.26,1.93*0D
#T1:1780965504653
$GPGSV,2,1,07,01,29,299,38,02,32,267,31,03,08,313,34,10,46,143,14*71
#T1:1780965504653
$GPGSV,2,2,07,12,23,058,25,31,33,214,26,32,75,034,23*42
#T1:1780965504653
$GPGLL,4617.00441,N,08753.28000,W,003830.00,A,A*75
#T1:1780965505656
$GPRMC,003831.00,A,4617.00435,N,08753.28004,W,0.060,,090626,,,A*67
#T1:1780965505656
$GPVTG,,T,,M,0.060,N,0.110,K,A*25
#T1:1780965505657
$GPGGA,003831.00,4617.00435,N,08753.28004,W,1,06,1.27,435.8,M,-35.0,M,,*65
#T1:1780965505657
$GPGSA,A,3,01,03,02,31,32,12,,,,,,,2.30,1.27,1.93*0C
#T1:1780965505657
$GPGSV,2,1,07,01,29,299,38,02,32,267,31,03,08,313,34,10,46,143,17*72
#T1:1780965505657
$GPGSV,2,2,07,12,23,058,25,31,33,214,27,32,75,034,23*43
#T1:1780965505659
$GPGLL,4617.00435,N,08753.28004,W,003831.00,A,A*73
#T1:1780965506656
$GPRMC,003832.00,A,4617.00430,N,08753.28009,W,0.129,,090626,,,A*60
#T1:1780965506656
$GPVTG,,T,,M,0.129,N,0.239,K,A*21
#T1:1780965506656
$GPGGA,003832.00,4617.00430,N,08753.28009,W,1,06,1.27,435.8,M,-35.0,M,,*6E
#T1:1780965506656
$GPGSA,A,3,01,03,02,31,32,12,,,,,,,2.30,1.27,1.93*0C
#T1:1780965506657
$GPGSV,2,1,07,01,29,299,38,02,32,267,32,03,08,313,34,10,46,143,17*71
#T1:1780965506657
$GPGSV,2,2,07,12,23,058,26,31,33,214,27,32,75,034,23*40
#T1:1780965506657
$GPGLL,4617.00430,N,08753.28009,W,003832.00,A,A*78
#T1:1780965507657
$GPRMC,003833.00,A,4617.00428,N,08753.28015,W,0.209,,090626,,,A*64
#T1:1780965507657
$GPVTG,,T,,M,0.209,N,0.387,K,A*24
#T1:1780965507657
$GPGGA,003833.00,4617.00428,N,08753.28015,W,1,06,1.27,435.8,M,-35.0,M,,*6B
#T1:1780965507657
$GPGSA,A,3,01,03,02,31,32,12,,,,,,,2.31,1.27,1.93*0D
#T1:1780965507659
$GPGSV,2,1,07,01,29,299,38,02,32,267,32,03,08,313,34,10,46,143,17*71
#T1:1780965507659
$GPGSV,2,2,07,12,23,058,26,31,33,214,27,32,75,034,23*40
#T1:1780965507659
$GPGLL,4617.00428,N,08753.28015,W,003833.00,A,A*7D
#T1:1780965508651
$GPRMC,003834.00,A,4617.00424,N,08753.28024,W,0.079,,090626,,,A*68
#T1:1780965508651
$GPVTG,,T,,M,0.079,N,0.146,K,A*2E
#T1:1780965508651
$GPGGA,003834.00,4617.00424,N,08753.28024,W,1,06,1.27,435.7,M,-35.0,M,,*6D
#T1:1780965508652
$GPGSA,A,3,01,03,02,31,32,12,,,,,,,2.31,1.27,1.93*0D
#T1:1780965508653
$GPGSV,2,1,07,01,29,299,38,02,32,267,32,03,08,313,34,10,46,143,17*71
#T1:1780965508653
$GPGSV,2,2,07,12,23,058,26,31,33,214,27,32,75,034,23*40
#T1:1780965508653
$GPGLL,4617.00424,N,08753.28024,W,003834.00,A,A*74
#T1:1780965509655
$GPRMC,003835.00,A,4617.00419,N,08753.28029,W,0.103,,090626,,,A*66
#T1:1780965509655
$GPVTG,,T,,M,0.103,N,0.191,K,A*28
#T1:1780965509655
$GPGGA,003835.00,4617.00419,N,08753.28029,W,1,06,1.27,435.6,M,-35.0,M,,*6E
#T1:1780965509655
$GPGSA,A,3,01,03,02,31,32,12,,,,,,,2.31,1.27,1.93*0D
#T1:1780965509655
$GPGSV,2,1,07,01,29,299,38,02,32,267,32,03,08,313,34,10,46,143,16*70
#T1:1780965509656
$GPGSV,2,2,07,12,23,058,26,31,33,214,27,32,75,034,23*40
#T1:1780965509656
$GPGLL,4617.00419,N,08753.28029,W,003835.00,A,A*76
#T1:1780965510653
$GPRMC,003836.00,A,4617.00414,N,08753.28032,W,0.067,,090626,,,A*61
#T1:1780965510653
$GPVTG,,T,,M,0.067,N,0.124,K,A*25
#T1:1780965510653
$GPGGA,003836.00,4617.00414,N,08753.28032,W,1,06,1.27,435.5,M,-35.0,M,,*69
#T1:1780965510653
$GPGSA,A,3,01,03,02,31,32,12,,,,,,,2.31,1.27,1.93*0D
#T1:1780965510654
$GPGSV,2,1,07,01,29,299,39,02,32,267,32,03,08,313,34,10,46,143,16*71
#T1:1780965510654
$GPGSV,2,2,07,12,23,058,26,31,33,214,27,32,75,034,22*41
#T1:1780965510654
$GPGLL,4617.00414,N,08753.28032,W,003836.00,A,A*72
#T1:1780965511656
$GPRMC,003837.00,A,4617.00408,N,08753.28040,W,0.193,,090626,,,A*62
#T1:1780965511656
$GPVTG,,T,,M,0.193,N,0.358,K,A*26
#T1:1780965511656
$GPGGA,003837.00,4617.00408,N,08753.28040,W,1,06,1.27,435.2,M,-35.0,M,,*67
#T1:1780965511656
$GPGSA,A,3,01,03,02,31,32,12,,,,,,,2.31,1.27,1.93*0D
#T1:1780965511656
$GPGSV,2,1,07,01,29,299,39,02,32,267,32,03,08,313,34,10,46,143,16*71
#T1:1780965511656
$GPGSV,2,2,07,12,23,058,27,31,33,214,27,32,75,034,22*40
#T1:1780965511656
$GPGLL,4617.00408,N,08753.28040,W,003837.00,A,A*7B
#T1:1780965512653
$GPRMC,003838.00,A,4617.00401,N,08753.28050,W,0.030,,090626,,,A*6D
#T1:1780965512653
$GPVTG,,T,,M,0.030,N,0.056,K,A*23
#T1:1780965512653
$GPGGA,003838.00,4617.00401,N,08753.28050,W,1,06,1.27,434.9,M,-35.0,M,,*6A
#T1:1780965512653
$GPGSA,A,3,01,03,02,31,32,12,,,,,,,2.31,1.27,1.93*0D
#T1:1780965512654
$GPGSV,2,1,07,01,29,299,39,02,32,267,32,03,09,313,33,10,46,143,16*77
#T1:1780965512654
$GPGSV,2,2,07,12,23,058,27,31,33,214,27,32,75,034,22*40
#T1:1780965512654
$GPGLL,4617.00401,N,08753.28050,W,003838.00,A,A*7C
#T1:1780965513655
$GPRMC,003839.00,A,4617.00393,N,08753.28056,W,0.077,,090626,,,A*65
#T1:1780965513655
$GPVTG,,T,,M,0.077,N,0.143,K,A*25
#T1:1780965513655
$GPGGA,003839.00,4617.00393,N,08753.28056,W,1,06,1.27,434.6,M,-35.0,M,,*6E
#T1:1780965513655
$GPGSA,A,3,01,03,02,31,32,12,,,,,,,2.31,1.27,1.93*0D
#T1:1780965513656
$GPGSV,2,1,07,01,29,299,39,02,32,267,32,03,09,313,34,10,46,143,15*73
#T1:1780965513656
$GPGSV,2,2,07,12,23,058,27,31,33,214,27,32,75,034,22*40
#T1:1780965513656
$GPGLL,4617.00393,N,08753.28056,W,003839.00,A,A*77
#T1:1780965514653
$GPRMC,003840.00,A,4617.00387,N,08753.28060,W,0.115,,090626,,,A*6E
#T1:1780965514653
$GPVTG,,T,,M,0.115,N,0.213,K,A*26
#T1:1780965514653
$GPGGA,003840.00,4617.00387,N,08753.28060,W,1,06,1.27,434.5,M,-35.0,M,,*63
#T1:1780965514653
$GPGSA,A,3,01,03,02,31,32,12,,,,,,,2.31,1.27,1.93*0D
#T1:1780965514654
$GPGSV,2,1,07,01,29,299,39,02,32,267,32,03,09,313,34,10,46,143,13*75
#T1:1780965514654
$GPGSV,2,2,07,12,23,058,27,31,33,214,27,32,75,034,22*40
#T1:1780965514654
$GPGLL,4617.00387,N,08753.28060,W,003840.00,A,A*79
#T1:1780965515651
$GPRMC,003841.00,A,4617.00382,N,08753.28065,W,0.041,,090626,,,A*6F
#T1:1780965515651
$GPVTG,,T,,M,0.041,N,0.075,K,A*24
#T1:1780965515651
$GPGGA,003841.00,4617.00382,N,08753.28065,W,1,06,1.27,434.5,M,-35.0,M,,*62
#T1:1780965515651
$GPGSA,A,3,01,03,02,31,32,12,,,,,,,2.31,1.27,1.93*0D
#T1:1780965515652
$GPGSV,2,1,07,01,29,299,39,02,32,267,32,03,09,313,33,10,46,143,13*72
#T1:1780965515652
$GPGSV,2,2,07,12,23,058,27,31,33,214,27,32,75,034,23*41
#T1:1780965515652
$GPGLL,4617.00382,N,08753.28065,W,003841.00,A,A*78
#T1:1780965516652
$GPRMC,003842.00,A,4617.00379,N,08753.28069,W,0.082,,090626,,,A*6B
#T1:1780965516652
$GPVTG,,T,,M,0.082,N,0.152,K,A*2F
#T1:1780965516652
$GPGGA,003842.00,4617.00379,N,08753.28069,W,1,06,1.27,434.2,M,-35.0,M,,*6E
#T1:1780965516653
$GPGSA,A,3,01,03,02,31,32,12,,,,,,,2.31,1.27,1.93*0D
#T1:1780965516653
$GPGSV,2,1,07,01,29,299,39,02,32,267,32,03,09,313,34,10,46,143,11*77
#T1:1780965516653
$GPGSV,2,2,07,12,23,058,27,31,33,214,27,32,75,034,23*41
#T1:1780965516653
$GPGLL,4617.00379,N,08753.28069,W,003842.00,A,A*73
#T1:1780965517654
$GPRMC,003843.00,A,4617.00376,N,08753.28078,W,0.047,,090626,,,A*6C
#T1:1780965517654
$GPVTG,,T,,M,0.047,N,0.087,K,A*2F
#T1:1780965517654
$GPGGA,003843.00,4617.00376,N,08753.28078,W,1,06,1.27,434.1,M,-35.0,M,,*63
#T1:1780965517654
$GPGSA,A,3,01,03,02,31,32,12,,,,,,,2.31,1.27,1.93*0D
#T1:1780965517655
$GPGSV,2,1,07,01,29,299,39,02,32,267,32,03,09,313,34,10,45,143,11*74
#T1:1780965517655
$GPGSV,2,2,07,12,23,058,27,31,33,214,28,32,75,034,24*49
#T1:1780965517655
$GPGLL,4617.00376,N,08753.28078,W,003843.00,A,A*7D
#T1:1780965518654
$GPRMC,003844.00,A,4617.00369,N,08753.28081,W,0.060,,090626,,,A*66
#T1:1780965518654
$GPVTG,,T,,M,0.060,N,0.110,K,A*25
#T1:1780965518655
$GPGGA,003844.00,4617.00369,N,08753.28081,W,1,06,1.27,433.6,M,-35.0,M,,*6C
#T1:1780965518655
$GPGSA,A,3,01,03,02,31,32,12,,,,,,,2.31,1.27,1.93*0D
#T1:1780965518655
$GPGSV,2,1,07,01,29,299,39,02,32,267,32,03,09,313,34,10,45,143,11*74
#T1:1780965518655
$GPGSV,2,2,07,12,23,058,27,31,33,214,28,32,75,034,24*49
#T1:1780965518655
$GPGLL,4617.00369,N,08753.28081,W,003844.00,A,A*72
#T1:1780965519657
$GPRMC,003845.00,A,4617.00364,N,08753.28088,W,0.049,,090626,,,A*68
#T1:1780965519657
$GPVTG,,T,,M,0.049,N,0.090,K,A*27
#T1:1780965519657
$GPGGA,003845.00,4617.00364,N,08753.28088,W,1,06,1.27,433.3,M,-35.0,M,,*6C
#T1:1780965519658
$GPGSA,A,3,01,03,02,31,32,12,,,,,,,2.31,1.27,1.93*0D
#T1:1780965519658
$GPGSV,2,1,08,01,29,299,38,02,32,267,33,03,09,313,34,10,45,143,13*79
#T1:1780965519658
$GPGSV,2,2,08,12,23,058,27,13,25,057,,31,33,214,28,32,75,034,24*71
#T1:1780965519659
$GPGLL,4617.00364,N,08753.28088,W,003845.00,A,A*77
#T1:1780965520654
$GPRMC,003846.00,A,4617.00364,N,08753.28092,W,0.037,,090626,,,A*69
#T1:1780965520654
$GPVTG,,T,,M,0.037,N,0.069,K,A*28
#T1:1780965520655
$GPGGA,003846.00,4617.00364,N,08753.28092,W,1,06,1.27,433.3,M,-35.0,M,,*64
#T1:1780965520655
$GPGSA,A,3,01,03,02,31,32,12,,,,,,,2.31,1.27,1.93*0D
#T1:1780965520655
$GPGSV,2,1,08,01,29,299,38,02,32,267,33,03,09,313,34,10,45,143,13*79
#T1:1780965520655
$GPGSV,2,2,08,12,23,058,27,13,25,056,,31,33,214,28,32,75,034,24*70
#T1:1780965520655
$GPGLL,4617.00364,N,08753.28092,W,003846.00,A,A*7F
#T1:1780965521658
$GPRMC,003847.00,A,4617.00364,N,08753.28093,W,0.042,,090626,,,A*6B
#T1:1780965521658
$GPVTG,,T,,M,0.042,N,0.079,K,A*2B
#T1:1780965521658
$GPGGA,003847.00,4617.00364,N,08753.28093,W,1,06,1.27,433.2,M,-35.0,M,,*65
#T1:1780965521658
$GPGSA,A,3,01,03,02,31,32,12,,,,,,,2.31,1.27,1.93*0D
#T1:1780965521659
$GPGSV,2,1,08,01,29,299,38,02,32,267,32,03,09,313,34,10,45,143,12*79
#T1:1780965521659
$GPGSV,2,2,08,12,23,058,27,13,25,056,,31,33,214,28,32,75,034,23*77
#T1:1780965521659
$GPGLL,4617.00364,N,08753.28093,W,003847.00,A,A*7F
